<?xml version="1.0" encoding="UTF-8"?>
<kml xmlns="http://www.opengis.net/kml/2.2"><Document><name>mar 6 · USJ</name><description>Recorrido del día: líneas (gruesa=transporte color oficial, delgada=a pie), ＞ sentido, paradas numeradas con hora y punto estricto.</description><Style id="p1"><IconStyle><scale>0.9</scale><Icon><href>https://maps.google.com/mapfiles/kml/paddle/1.png</href></Icon></IconStyle></Style><Style id="p2"><IconStyle><scale>0.9</scale><Icon><href>https://maps.google.com/mapfiles/kml/paddle/2.png</href></Icon></IconStyle></Style><Style id="p3"><IconStyle><scale>0.9</scale><Icon><href>https://maps.google.com/mapfiles/kml/paddle/3.png</href></Icon></IconStyle></Style><Style id="p4"><IconStyle><scale>0.9</scale><Icon><href>https://maps.google.com/mapfiles/kml/paddle/4.png</href></Icon></IconStyle></Style><Style id="p5"><IconStyle><scale>0.9</scale><Icon><href>https://maps.google.com/mapfiles/kml/paddle/5.png</href></Icon></IconStyle></Style><Style id="p6"><IconStyle><scale>0.9</scale><Icon><href>https://maps.google.com/mapfiles/kml/paddle/6.png</href></Icon></IconStyle></Style><Style id="p7"><IconStyle><scale>0.9</scale><Icon><href>https://maps.google.com/mapfiles/kml/paddle/7.png</href></Icon></IconStyle></Style><Style id="p8"><IconStyle><scale>0.9</scale><Icon><href>https://maps.google.com/mapfiles/kml/paddle/8.png</href></Icon></IconStyle></Style><Style id="p9"><IconStyle><scale>0.9</scale><Icon><href>https://maps.google.com/mapfiles/kml/paddle/9.png</href></Icon></IconStyle></Style><Style id="p10"><IconStyle><scale>0.9</scale><Icon><href>https://maps.google.com/mapfiles/kml/paddle/10.png</href></Icon></IconStyle></Style><Style id="l80636f7a2"><LineStyle><color>80636f7a</color><width>2</width></LineStyle></Style><Style id="lffb76b0d6"><LineStyle><color>ffb76b0d</color><width>6</width></LineStyle></Style><Style id="lff1700806"><LineStyle><color>ff170080</color><width>6</width></LineStyle></Style><Style id="lb8636f7a3"><LineStyle><color>b8636f7a</color><width>3</width></LineStyle></Style><Style id="lff8628526"><LineStyle><color>ff862852</color><width>6</width></LineStyle></Style><Style id="lff934de46"><LineStyle><color>ff934de4</color><width>6</width></LineStyle></Style><Style id="lff1f17e56"><LineStyle><color>ff1f17e5</color><width>6</width></LineStyle></Style><Style id="lffa0501c6"><LineStyle><color>ffa0501c</color><width>6</width></LineStyle></Style><Style id="lff00d4ff6"><LineStyle><color>ff00d4ff</color><width>6</width></LineStyle></Style><Style id="lffaf5c006"><LineStyle><color>ffaf5c00</color><width>6</width></LineStyle></Style><Style id="lff4499006"><LineStyle><color>ff449900</color><width>6</width></LineStyle></Style><Style id="lff2147816"><LineStyle><color>ff214781</color><width>6</width></LineStyle></Style><Style id="lff669a016"><LineStyle><color>ff669a01</color><width>6</width></LineStyle></Style><Style id="lff0000e86"><LineStyle><color>ff0000e8</color><width>6</width></LineStyle></Style><Style id="lff2900d76"><LineStyle><color>ff2900d7</color><width>6</width></LineStyle></Style><Style id="lffa557276"><LineStyle><color>ffa55727</color><width>6</width></LineStyle></Style><Style id="lff1fc38f6"><LineStyle><color>ff1fc38f</color><width>6</width></LineStyle></Style><Style id="lff9933666"><LineStyle><color>ff993366</color><width>6</width></LineStyle></Style><Style id="lff2b4a7a6"><LineStyle><color>ff2b4a7a</color><width>6</width></LineStyle></Style><Style id="lff0c86c76"><LineStyle><color>ff0c86c7</color><width>6</width></LineStyle></Style><Style id="lff225af16"><LineStyle><color>ff225af1</color><width>6</width></LineStyle></Style><Style id="lff0097f36"><LineStyle><color>ff0097f3</color><width>6</width></LineStyle></Style><Style id="lffc36c0f6"><LineStyle><color>ffc36c0f</color><width>6</width></LineStyle></Style><Style id="lff656eec6"><LineStyle><color>ff656eec</color><width>6</width></LineStyle></Style><Style id="lffa0862c6"><LineStyle><color>ffa0862c</color><width>6</width></LineStyle></Style><Style id="lff2f25c96"><LineStyle><color>ff2f25c9</color><width>6</width></LineStyle></Style><Style id="lff32cd9a6"><LineStyle><color>ff32cd9a</color><width>6</width></LineStyle></Style><Style id="lff301be26"><LineStyle><color>ff301be2</color><width>6</width></LineStyle></Style><Style id="lff0388006"><LineStyle><color>ff038800</color><width>6</width></LineStyle></Style><Style id="lff9c46296"><LineStyle><color>ff9c4629</color><width>6</width></LineStyle></Style><Style id="lff1200e66"><LineStyle><color>ff1200e6</color><width>6</width></LineStyle></Style><Style id="lffb7ae9c6"><LineStyle><color>ffb7ae9c</color><width>6</width></LineStyle></Style><Style id="lff207bf46"><LineStyle><color>ff207bf4</color><width>6</width></LineStyle></Style><Folder><name>mar 6 · USJ</name>
<Placemark><name>1. 06:45 · Universal Studios Japan (d6)</name><styleUrl>#p1</styleUrl><description><![CDATA[Hora del plan: 06:45. ⏰ SIGUIENTE PUNTO ESTRICTO del día: 06:45 — Formarse en la reja (reserva/transporte: NO se puede llegar tarde).]]></description><Point><coordinates>135.432300,34.665400,0</coordinates></Point></Placemark>
<Placemark><name>2. 08:30 · Super Nintendo World (d6)</name><styleUrl>#p2</styleUrl><description><![CDATA[Hora del plan: 08:30. ⏰ SIGUIENTE PUNTO ESTRICTO del día: 08:30 — Apertura (reserva/transporte: NO se puede llegar tarde).]]></description><Point><coordinates>135.431200,34.666800,0</coordinates></Point></Placemark>
<Placemark><name>d6·1 🚶 Hotel → Kitahama ⇒ Universal Studios Japan</name><styleUrl>#lb8636f7a3</styleUrl><description><![CDATA[caminando · rumbo del plan: Universal Studios Japan]]></description><MultiGeometry><LineString><tessellate>1</tessellate><coordinates>135.507546,34.688699,0 135.507549,34.688847,0 135.507549,34.688891,0 135.507551,34.688936,0 135.507557,34.689111,0 135.507573,34.689528,0 135.507588,34.689928,0 135.507604,34.690324,0 135.507614,34.690367,0 135.507756,34.690969,0 135.507878,34.691303,0 135.507907,34.691383,0 135.507581,34.691499,0</coordinates></LineString><LineString><tessellate>1</tessellate><coordinates>135.507490,34.690025,0 135.507599,34.690203,0 135.507693,34.690020,0</coordinates></LineString></MultiGeometry></Placemark>
<Placemark><name>d6·2 🚇 06:10 Metro Sakaisuji: Kitahama → Sakaisuji-Hommachi ⇒ Universal Studios Japan</name><styleUrl>#lff2147816</styleUrl><description><![CDATA[SALE 06:10 de Kitahama → LLEGA a Sakaisuji-Hommachi · Metro Sakaisuji — sentido Tengachaya (1 tramos) · rumbo del plan: Universal Studios Japan]]></description><MultiGeometry><LineString><tessellate>1</tessellate><coordinates>135.507584,34.691505,0 135.506933,34.681875,0</coordinates></LineString><LineString><tessellate>1</tessellate><coordinates>135.507434,34.686961,0 135.507258,34.686690,0 135.507120,34.686976,0</coordinates></LineString></MultiGeometry></Placemark>
<Placemark><name>d6·3 🚇 06:15 Metro Chūō (Osaka): Sakaisuji-Hommachi → Bentenchō ⇒ Universal Studios Japan</name><styleUrl>#lff669a016</styleUrl><description><![CDATA[SALE 06:15 de Sakaisuji-Hommachi → LLEGA a Bentenchō · Metro Chūō (Osaka) — sentido Cosmosquare (4 tramos) · rumbo del plan: Universal Studios Japan]]></description><MultiGeometry><LineString><tessellate>1</tessellate><coordinates>135.506933,34.681875,0 135.498721,34.682018,0 135.488092,34.681360,0 135.473669,34.676271,0 135.462090,34.668425,0</coordinates></LineString><LineString><tessellate>1</tessellate><coordinates>135.501079,34.681847,0 135.500746,34.681983,0 135.501085,34.682107,0</coordinates></LineString><LineString><tessellate>1</tessellate><coordinates>135.494916,34.681652,0 135.494569,34.681761,0 135.494893,34.681912,0</coordinates></LineString><LineString><tessellate>1</tessellate><coordinates>135.488744,34.681270,0 135.488397,34.681379,0 135.488721,34.681529,0</coordinates></LineString><LineString><tessellate>1</tessellate><coordinates>135.483051,34.679440,0 135.482680,34.679450,0 135.482928,34.679679,0</coordinates></LineString><LineString><tessellate>1</tessellate><coordinates>135.477357,34.677431,0 135.476986,34.677441,0 135.477234,34.677670,0</coordinates></LineString><LineString><tessellate>1</tessellate><coordinates>135.472029,34.674992,0 135.471670,34.674916,0 135.471831,34.675193,0</coordinates></LineString><LineString><tessellate>1</tessellate><coordinates>135.467240,34.671747,0 135.466880,34.671671,0 135.467041,34.671948,0</coordinates></LineString></MultiGeometry></Placemark>
<Placemark><name>d6·4 🚇 06:25 JR Osaka Loop Line: Bentenchō → Nishikujō ⇒ Universal Studios Japan</name><styleUrl>#lff0000e86</styleUrl><description><![CDATA[SALE 06:25 de Bentenchō → LLEGA a Nishikujō · JR Osaka Loop Line — sentido Nishikujō / Osaka (1 tramos) · rumbo del plan: Universal Studios Japan]]></description><MultiGeometry><LineString><tessellate>1</tessellate><coordinates>135.462090,34.668425,0 135.466310,34.682270,0</coordinates></LineString><LineString><tessellate>1</tessellate><coordinates>135.463262,34.672802,0 135.463497,34.673040,0 135.463566,34.672738,0</coordinates></LineString><LineString><tessellate>1</tessellate><coordinates>135.464669,34.677417,0 135.464903,34.677655,0 135.464973,34.677353,0</coordinates></LineString></MultiGeometry></Placemark>
<Placemark><name>d6·5 🚇 06:25 JR Yumesaki (ramal Universal): Nishikujō → Universal City ⇒ Universal Studios Japan</name><styleUrl>#lff0000e86</styleUrl><description><![CDATA[SALE 06:25 de Nishikujō → LLEGA a Universal City · JR Yumesaki (ramal Universal) — sentido Sakurajima (2 tramos) · rumbo del plan: Universal Studios Japan]]></description><MultiGeometry><LineString><tessellate>1</tessellate><coordinates>135.466310,34.682270,0 135.441938,34.669932,0 135.438575,34.667818,0</coordinates></LineString><LineString><tessellate>1</tessellate><coordinates>135.462017,34.679944,0 135.461647,34.679910,0 135.461853,34.680166,0</coordinates></LineString><LineString><tessellate>1</tessellate><coordinates>135.457354,34.677584,0 135.456985,34.677549,0 135.457190,34.677806,0</coordinates></LineString><LineString><tessellate>1</tessellate><coordinates>135.452692,34.675223,0 135.452323,34.675189,0 135.452528,34.675445,0</coordinates></LineString><LineString><tessellate>1</tessellate><coordinates>135.448029,34.672863,0 135.447660,34.672829,0 135.447865,34.673085,0</coordinates></LineString><LineString><tessellate>1</tessellate><coordinates>135.443367,34.670503,0 135.442998,34.670468,0 135.443203,34.670725,0</coordinates></LineString></MultiGeometry></Placemark>
<Placemark><name>d6·6 🚶 Universal City → Universal Studios Japan</name><styleUrl>#lb8636f7a3</styleUrl><description><![CDATA[caminando]]></description><MultiGeometry><LineString><tessellate>1</tessellate><coordinates>135.438709,34.667756,0 135.438709,34.667756,0 135.438834,34.667662,0 135.438854,34.667643,0 135.438774,34.667581,0 135.438768,34.667577,0 135.438788,34.667559,0 135.438796,34.667552,0 135.438607,34.667417,0 135.438079,34.667067,0 135.438026,34.667065,0 135.438000,34.667064,0 135.437972,34.667061,0 135.437953,34.667059,0 135.437908,34.667058,0 135.437768,34.667130,0 135.437752,34.667137,0 135.437739,34.667123,0 135.437535,34.667221,0 135.437325,34.667326,0 135.436485,34.667739,0 135.436474,34.667745,0 135.436041,34.668004,0 135.436176,34.668089,0 135.436207,34.668048,0 135.436255,34.667966,0 135.436300,34.667904,0 135.435911,34.667689,0 135.435840,34.667649,0 135.435805,34.667659,0 135.435267,34.667810,0 135.435178,34.667315,0 135.435142,34.667134,0 135.435116,34.667000,0 135.435109,34.666964,0 135.435105,34.666943,0 135.434988,34.666339,0 135.434978,34.666285,0 135.434471,34.666347,0 135.434344,34.666362,0 135.434339,34.666363,0 135.434312,34.666366,0 135.434055,34.666403,0 135.434003,34.666410,0 135.433976,34.666408,0 135.433951,34.666403,0 135.433926,34.666391,0 135.433895,34.666373,0 135.433064,34.665843,0 135.432988,34.665770,0 135.432982,34.665764,0 135.432914,34.665697,0 135.432907,34.665675,0 135.432911,34.665656,0 135.432915,34.665606,0 135.432924,34.665557,0 135.432926,34.665491,0 135.432917,34.665439,0 135.432884,34.665384,0 135.432875,34.665362,0 135.432852,34.665336,0 135.432821,34.665321,0 135.432759,34.665307,0 135.432698,34.665302,0 135.432625,34.665308,0 135.432597,34.665302,0 135.432536,34.665297,0 135.432479,34.665308,0 135.432436,34.665339,0 135.432407,34.665364,0 135.432408,34.665391,0 135.432360,34.665379,0 135.432324,34.665369,0 135.432293,34.665375,0 135.432282,34.665392,0</coordinates></LineString><LineString><tessellate>1</tessellate><coordinates>135.437020,34.667378,0 135.436884,34.667543,0 135.437123,34.667523,0</coordinates></LineString><LineString><tessellate>1</tessellate><coordinates>135.435391,34.667929,0 135.435258,34.667763,0 135.435190,34.667953,0</coordinates></LineString><LineString><tessellate>1</tessellate><coordinates>135.434338,34.666277,0 135.434141,34.666391,0 135.434373,34.666443,0</coordinates></LineString></MultiGeometry></Placemark>
<Placemark><name>d6·7 🚶 Universal Studios Japan → Super Nintendo World</name><styleUrl>#lb8636f7a3</styleUrl><description><![CDATA[caminando]]></description><MultiGeometry><LineString><tessellate>1</tessellate><coordinates>135.432282,34.665392,0 135.432279,34.665397,0 135.432277,34.665427,0 135.432279,34.665470,0 135.432275,34.665509,0 135.432261,34.665529,0 135.432232,34.665555,0 135.432181,34.665576,0 135.432152,34.665586,0 135.432133,34.665602,0 135.432130,34.665620,0 135.432143,34.665632,0 135.432161,34.665642,0 135.432187,34.665660,0 135.432203,34.665684,0 135.432207,34.665691,0 135.432215,34.665706,0 135.432202,34.665717,0 135.432197,34.665729,0 135.432196,34.665736,0 135.432200,34.665749,0 135.432208,34.665759,0 135.432220,34.665767,0 135.432229,34.665769,0 135.432231,34.665769,0 135.432211,34.665777,0 135.432194,34.665813,0 135.432160,34.665824,0 135.432136,34.665829,0 135.432099,34.665848,0 135.432064,34.665868,0 135.432035,34.665887,0 135.432024,34.665898,0 135.431970,34.665939,0 135.431979,34.665943,0 135.432007,34.665971,0 135.432023,34.666004,0 135.432025,34.666027,0 135.432048,34.666048,0 135.432109,34.666065,0 135.432161,34.666080,0 135.432205,34.666109,0 135.432219,34.666131,0 135.432300,34.666166,0 135.432273,34.666228,0 135.432263,34.666249,0 135.432231,34.666254,0 135.432201,34.666263,0 135.432176,34.666278,0 135.432157,34.666300,0 135.432148,34.666325,0 135.432149,34.666351,0 135.432159,34.666375,0 135.432178,34.666396,0 135.432146,34.666426,0 135.432123,34.666404,0 135.432053,34.666465,0 135.431962,34.666532,0 135.431912,34.666587,0 135.431863,34.666677,0 135.431833,34.666747,0 135.431809,34.666795,0 135.431786,34.666781,0 135.431770,34.666815,0 135.431755,34.666849,0 135.431778,34.666889,0 135.431767,34.666989,0 135.431728,34.667079,0 135.431648,34.667147,0 135.431482,34.667202,0 135.431326,34.667234,0 135.431326,34.667234,0</coordinates></LineString><LineString><tessellate>1</tessellate><coordinates>135.432118,34.666113,0 135.432153,34.666310,0 135.432313,34.666161,0</coordinates></LineString></MultiGeometry></Placemark>
<Placemark><name>d6·8 🚶 Super Nintendo World → Universal City ⇒ hotel</name><styleUrl>#lb8636f7a3</styleUrl><description><![CDATA[caminando · rumbo del plan: hotel]]></description><MultiGeometry><LineString><tessellate>1</tessellate><coordinates>135.431326,34.667234,0 135.431326,34.667234,0 135.431482,34.667202,0 135.431648,34.667147,0 135.431728,34.667079,0 135.431767,34.666989,0 135.431778,34.666889,0 135.431755,34.666849,0 135.431770,34.666815,0 135.431786,34.666781,0 135.431809,34.666795,0 135.431833,34.666747,0 135.431863,34.666677,0 135.431912,34.666587,0 135.431962,34.666532,0 135.432053,34.666465,0 135.432123,34.666404,0 135.432146,34.666426,0 135.432178,34.666396,0 135.432159,34.666375,0 135.432149,34.666351,0 135.432148,34.666325,0 135.432157,34.666300,0 135.432176,34.666278,0 135.432201,34.666263,0 135.432231,34.666254,0 135.432263,34.666249,0 135.432273,34.666228,0 135.432300,34.666166,0 135.432378,34.666184,0 135.432484,34.666215,0 135.432652,34.666278,0 135.432744,34.666181,0 135.433064,34.665843,0 135.433895,34.666373,0 135.433926,34.666391,0 135.433951,34.666403,0 135.433976,34.666408,0 135.434003,34.666410,0 135.434055,34.666403,0 135.434312,34.666366,0 135.434339,34.666363,0 135.434344,34.666362,0 135.434471,34.666347,0 135.434978,34.666285,0 135.434988,34.666339,0 135.435105,34.666943,0 135.435109,34.666964,0 135.435116,34.667000,0 135.435142,34.667134,0 135.435178,34.667315,0 135.435267,34.667810,0 135.435805,34.667659,0 135.435840,34.667649,0 135.435911,34.667689,0 135.436300,34.667904,0 135.436255,34.667966,0 135.436207,34.668048,0 135.436176,34.668089,0 135.436041,34.668004,0 135.436474,34.667745,0 135.436485,34.667739,0 135.437325,34.667326,0 135.437535,34.667221,0 135.437739,34.667123,0 135.437752,34.667137,0 135.437768,34.667130,0 135.437908,34.667058,0 135.437953,34.667059,0 135.437972,34.667061,0 135.438000,34.667064,0 135.438026,34.667065,0 135.438079,34.667067,0 135.438607,34.667417,0 135.438796,34.667552,0 135.438788,34.667559,0 135.438768,34.667577,0 135.438774,34.667581,0 135.438854,34.667643,0 135.438834,34.667662,0 135.438709,34.667756,0</coordinates></LineString><LineString><tessellate>1</tessellate><coordinates>135.432925,34.665861,0 135.433160,34.665904,0 135.433049,34.665728,0</coordinates></LineString><LineString><tessellate>1</tessellate><coordinates>135.435003,34.666950,0 135.435138,34.667115,0 135.435204,34.666924,0</coordinates></LineString><LineString><tessellate>1</tessellate><coordinates>135.436408,34.667874,0 135.436544,34.667710,0 135.436305,34.667730,0</coordinates></LineString></MultiGeometry></Placemark>
<Placemark><name>d6·9 🚇 19:00 JR Yumesaki (ramal Universal): Universal City → Nishikujō ⇒ hotel</name><styleUrl>#lff0000e86</styleUrl><description><![CDATA[SALE 19:00 de Universal City → LLEGA a Nishikujō · JR Yumesaki (ramal Universal) — sentido Nishikujō (2 tramos) · rumbo del plan: hotel]]></description><MultiGeometry><LineString><tessellate>1</tessellate><coordinates>135.438575,34.667818,0 135.441938,34.669932,0 135.466310,34.682270,0</coordinates></LineString><LineString><tessellate>1</tessellate><coordinates>135.442629,34.670434,0 135.442998,34.670468,0 135.442793,34.670212,0</coordinates></LineString><LineString><tessellate>1</tessellate><coordinates>135.447291,34.672794,0 135.447660,34.672829,0 135.447455,34.672572,0</coordinates></LineString><LineString><tessellate>1</tessellate><coordinates>135.451954,34.675155,0 135.452323,34.675189,0 135.452117,34.674933,0</coordinates></LineString><LineString><tessellate>1</tessellate><coordinates>135.456616,34.677515,0 135.456985,34.677549,0 135.456780,34.677293,0</coordinates></LineString><LineString><tessellate>1</tessellate><coordinates>135.461278,34.679875,0 135.461648,34.679910,0 135.461442,34.679653,0</coordinates></LineString></MultiGeometry></Placemark>
<Placemark><name>d6·10 🚇 19:10 JR Osaka Loop Line: Nishikujō → Bentenchō ⇒ hotel</name><styleUrl>#lff0000e86</styleUrl><description><![CDATA[SALE 19:10 de Nishikujō → LLEGA a Bentenchō · JR Osaka Loop Line — sentido hacia Tennōji (1 tramos) · rumbo del plan: hotel]]></description><MultiGeometry><LineString><tessellate>1</tessellate><coordinates>135.466310,34.682270,0 135.462090,34.668425,0</coordinates></LineString><LineString><tessellate>1</tessellate><coordinates>135.465138,34.677894,0 135.464903,34.677655,0 135.464833,34.677957,0</coordinates></LineString><LineString><tessellate>1</tessellate><coordinates>135.463731,34.673279,0 135.463497,34.673040,0 135.463427,34.673342,0</coordinates></LineString></MultiGeometry></Placemark>
<Placemark><name>d6·11 🚇 19:10 Metro Chūō (Osaka): Bentenchō → Sakaisuji-Hommachi ⇒ hotel</name><styleUrl>#lff669a016</styleUrl><description><![CDATA[SALE 19:10 de Bentenchō → LLEGA a Sakaisuji-Hommachi · Metro Chūō (Osaka) — sentido Nagata / Ikoma (4 tramos) · rumbo del plan: hotel]]></description><MultiGeometry><LineString><tessellate>1</tessellate><coordinates>135.462090,34.668425,0 135.473669,34.676271,0 135.488092,34.681360,0 135.498721,34.682018,0 135.506933,34.681875,0</coordinates></LineString><LineString><tessellate>1</tessellate><coordinates>135.466520,34.671595,0 135.466880,34.671671,0 135.466718,34.671394,0</coordinates></LineString><LineString><tessellate>1</tessellate><coordinates>135.471309,34.674840,0 135.471669,34.674916,0 135.471508,34.674639,0</coordinates></LineString><LineString><tessellate>1</tessellate><coordinates>135.476614,34.677451,0 135.476986,34.677441,0 135.476737,34.677212,0</coordinates></LineString><LineString><tessellate>1</tessellate><coordinates>135.482308,34.679460,0 135.482679,34.679450,0 135.482431,34.679221,0</coordinates></LineString><LineString><tessellate>1</tessellate><coordinates>135.488049,34.681488,0 135.488396,34.681379,0 135.488072,34.681228,0</coordinates></LineString><LineString><tessellate>1</tessellate><coordinates>135.494221,34.681870,0 135.494568,34.681761,0 135.494244,34.681611,0</coordinates></LineString><LineString><tessellate>1</tessellate><coordinates>135.500412,34.682119,0 135.500745,34.681983,0 135.500405,34.681859,0</coordinates></LineString></MultiGeometry></Placemark>
<Placemark><name>d6·12 🚶/🚇 Sakaisuji-Hommachi → hotel</name><styleUrl>#l80636f7a2</styleUrl><description><![CDATA[regreso (esquemático)]]></description><LineString><tessellate>1</tessellate><coordinates>135.506933,34.681875,0 135.507500,34.688700,0</coordinates></LineString></Placemark>
</Folder></Document></kml>