<?xml version="1.0" encoding="UTF-8"?>
<kml xmlns="http://www.opengis.net/kml/2.2"><Document><name>mar 13 · Tokio viejo</name><description>Recorrido del día: líneas (gruesa=transporte color oficial, delgada=a pie), ＞ sentido, paradas numeradas con hora y punto estricto.</description><Style id="p1"><IconStyle><scale>0.9</scale><Icon><href>https://maps.google.com/mapfiles/kml/paddle/1.png</href></Icon></IconStyle></Style><Style id="p2"><IconStyle><scale>0.9</scale><Icon><href>https://maps.google.com/mapfiles/kml/paddle/2.png</href></Icon></IconStyle></Style><Style id="p3"><IconStyle><scale>0.9</scale><Icon><href>https://maps.google.com/mapfiles/kml/paddle/3.png</href></Icon></IconStyle></Style><Style id="p4"><IconStyle><scale>0.9</scale><Icon><href>https://maps.google.com/mapfiles/kml/paddle/4.png</href></Icon></IconStyle></Style><Style id="p5"><IconStyle><scale>0.9</scale><Icon><href>https://maps.google.com/mapfiles/kml/paddle/5.png</href></Icon></IconStyle></Style><Style id="p6"><IconStyle><scale>0.9</scale><Icon><href>https://maps.google.com/mapfiles/kml/paddle/6.png</href></Icon></IconStyle></Style><Style id="p7"><IconStyle><scale>0.9</scale><Icon><href>https://maps.google.com/mapfiles/kml/paddle/7.png</href></Icon></IconStyle></Style><Style id="p8"><IconStyle><scale>0.9</scale><Icon><href>https://maps.google.com/mapfiles/kml/paddle/8.png</href></Icon></IconStyle></Style><Style id="p9"><IconStyle><scale>0.9</scale><Icon><href>https://maps.google.com/mapfiles/kml/paddle/9.png</href></Icon></IconStyle></Style><Style id="p10"><IconStyle><scale>0.9</scale><Icon><href>https://maps.google.com/mapfiles/kml/paddle/10.png</href></Icon></IconStyle></Style><Style id="l80636f7a2"><LineStyle><color>80636f7a</color><width>2</width></LineStyle></Style><Style id="lffb76b0d6"><LineStyle><color>ffb76b0d</color><width>6</width></LineStyle></Style><Style id="lff1700806"><LineStyle><color>ff170080</color><width>6</width></LineStyle></Style><Style id="lb8636f7a3"><LineStyle><color>b8636f7a</color><width>3</width></LineStyle></Style><Style id="lff8628526"><LineStyle><color>ff862852</color><width>6</width></LineStyle></Style><Style id="lff934de46"><LineStyle><color>ff934de4</color><width>6</width></LineStyle></Style><Style id="lff1f17e56"><LineStyle><color>ff1f17e5</color><width>6</width></LineStyle></Style><Style id="lffa0501c6"><LineStyle><color>ffa0501c</color><width>6</width></LineStyle></Style><Style id="lff00d4ff6"><LineStyle><color>ff00d4ff</color><width>6</width></LineStyle></Style><Style id="lffaf5c006"><LineStyle><color>ffaf5c00</color><width>6</width></LineStyle></Style><Style id="lff4499006"><LineStyle><color>ff449900</color><width>6</width></LineStyle></Style><Style id="lff2147816"><LineStyle><color>ff214781</color><width>6</width></LineStyle></Style><Style id="lff669a016"><LineStyle><color>ff669a01</color><width>6</width></LineStyle></Style><Style id="lff0000e86"><LineStyle><color>ff0000e8</color><width>6</width></LineStyle></Style><Style id="lff2900d76"><LineStyle><color>ff2900d7</color><width>6</width></LineStyle></Style><Style id="lffa557276"><LineStyle><color>ffa55727</color><width>6</width></LineStyle></Style><Style id="lff1fc38f6"><LineStyle><color>ff1fc38f</color><width>6</width></LineStyle></Style><Style id="lff9933666"><LineStyle><color>ff993366</color><width>6</width></LineStyle></Style><Style id="lff2b4a7a6"><LineStyle><color>ff2b4a7a</color><width>6</width></LineStyle></Style><Style id="lff0c86c76"><LineStyle><color>ff0c86c7</color><width>6</width></LineStyle></Style><Style id="lff225af16"><LineStyle><color>ff225af1</color><width>6</width></LineStyle></Style><Style id="lff0097f36"><LineStyle><color>ff0097f3</color><width>6</width></LineStyle></Style><Style id="lffc36c0f6"><LineStyle><color>ffc36c0f</color><width>6</width></LineStyle></Style><Style id="lff656eec6"><LineStyle><color>ff656eec</color><width>6</width></LineStyle></Style><Style id="lffa0862c6"><LineStyle><color>ffa0862c</color><width>6</width></LineStyle></Style><Style id="lff2f25c96"><LineStyle><color>ff2f25c9</color><width>6</width></LineStyle></Style><Style id="lff32cd9a6"><LineStyle><color>ff32cd9a</color><width>6</width></LineStyle></Style><Style id="lff301be26"><LineStyle><color>ff301be2</color><width>6</width></LineStyle></Style><Style id="lff0388006"><LineStyle><color>ff038800</color><width>6</width></LineStyle></Style><Style id="lff9c46296"><LineStyle><color>ff9c4629</color><width>6</width></LineStyle></Style><Style id="lff1200e66"><LineStyle><color>ff1200e6</color><width>6</width></LineStyle></Style><Style id="lffb7ae9c6"><LineStyle><color>ffb7ae9c</color><width>6</width></LineStyle></Style><Style id="lff207bf46"><LineStyle><color>ff207bf4</color><width>6</width></LineStyle></Style><Folder><name>mar 13 · Tokio viejo</name>
<Placemark><name>1. 05:30 · Sensō-ji (d13)</name><styleUrl>#p1</styleUrl><description><![CDATA[Hora del plan: 05:30. ⏰ SIGUIENTE PUNTO ESTRICTO del día: 05:30 — Konbini ligero (reserva/transporte: NO se puede llegar tarde).]]></description><Point><coordinates>139.795526,35.713403,0</coordinates></Point></Placemark>
<Placemark><name>2. 07:10 · Sensō-ji (d13)</name><styleUrl>#p2</styleUrl><description><![CDATA[Hora del plan: 07:10. ⏰ SIGUIENTE PUNTO ESTRICTO del día: 10:15 — Benitsuru (reserva/transporte: NO se puede llegar tarde).]]></description><Point><coordinates>139.795526,35.713403,0</coordinates></Point></Placemark>
<Placemark><name>3. 08:10 · Tokyo Skytree (d13)</name><styleUrl>#p3</styleUrl><description><![CDATA[Hora del plan: 08:10. ⏰ SIGUIENTE PUNTO ESTRICTO del día: 10:15 — Benitsuru (reserva/transporte: NO se puede llegar tarde).]]></description><Point><coordinates>139.810714,35.710054,0</coordinates></Point></Placemark>
<Placemark><name>4. 14:30 · Parque Ueno (d13)</name><styleUrl>#p4</styleUrl><description><![CDATA[Hora del plan: 14:30. ⏰ SIGUIENTE PUNTO ESTRICTO del día: 15:50 — Museo (reserva/transporte: NO se puede llegar tarde).]]></description><Point><coordinates>139.775968,35.719045,0</coordinates></Point></Placemark>
<Placemark><name>5. 17:10 · Ameyoko (d13)</name><styleUrl>#p5</styleUrl><description><![CDATA[Hora del plan: 17:10. Sin más puntos estrictos hoy después de esta parada.]]></description><Point><coordinates>139.774786,35.711493,0</coordinates></Point></Placemark>
<Placemark><name>d13·1 · traslado: Hotel → Sensō-ji</name><styleUrl>#l80636f7a2</styleUrl><description><![CDATA[traslado del tour/plan (línea recta)]]></description><LineString><tessellate>1</tessellate><coordinates>139.693100,35.694400,0 139.795526,35.713403,0</coordinates></LineString></Placemark>
<Placemark><name>d13·2 · traslado: Sensō-ji → Shinjuku</name><styleUrl>#l80636f7a2</styleUrl><description><![CDATA[conexión (esquemática)]]></description><LineString><tessellate>1</tessellate><coordinates>139.795526,35.713403,0 139.698762,35.688726,0</coordinates></LineString></Placemark>
<Placemark><name>d13·3 🚇 05:45 JR Chūō Line (rápida): Shinjuku → Kanda ⇒ Sensō-ji</name><styleUrl>#lff225af16</styleUrl><description><![CDATA[SALE 05:45 de Shinjuku → LLEGA a Kanda · JR Chūō Line (rápida) — sentido Tokyo (3 tramos) · rumbo del plan: Sensō-ji]]></description><MultiGeometry><LineString><tessellate>1</tessellate><coordinates>139.698762,35.688726,0 139.729482,35.686205,0 139.764244,35.700397,0 139.770698,35.694473,0</coordinates></LineString><LineString><tessellate>1</tessellate><coordinates>139.707220,35.688163,0 139.707543,35.688005,0 139.707188,35.687904,0</coordinates></LineString><LineString><tessellate>1</tessellate><coordinates>139.716001,35.687442,0 139.716325,35.687285,0 139.715970,35.687183,0</coordinates></LineString><LineString><tessellate>1</tessellate><coordinates>139.724782,35.686722,0 139.725106,35.686564,0 139.724751,35.686463,0</coordinates></LineString><LineString><tessellate>1</tessellate><coordinates>139.733067,35.687814,0 139.733443,35.687822,0 139.733209,35.687581,0</coordinates></LineString><LineString><tessellate>1</tessellate><coordinates>139.740963,35.691037,0 139.741339,35.691046,0 139.741105,35.690805,0</coordinates></LineString><LineString><tessellate>1</tessellate><coordinates>139.748859,35.694261,0 139.749235,35.694269,0 139.749001,35.694028,0</coordinates></LineString><LineString><tessellate>1</tessellate><coordinates>139.756755,35.697485,0 139.757131,35.697493,0 139.756897,35.697252,0</coordinates></LineString><LineString><tessellate>1</tessellate><coordinates>139.764718,35.700157,0 139.764826,35.699863,0 139.764481,35.699984,0</coordinates></LineString></MultiGeometry></Placemark>
<Placemark><name>d13·4 🚇 06:00 Metro Ginza Line: Kanda → Asakusa ⇒ Sensō-ji</name><styleUrl>#lff0097f36</styleUrl><description><![CDATA[SALE 06:00 de Kanda → LLEGA a Asakusa · Metro Ginza Line — sentido Asakusa (6 tramos) · rumbo del plan: Sensō-ji]]></description><MultiGeometry><LineString><tessellate>1</tessellate><coordinates>139.770698,35.694473,0 139.771679,35.702936,0 139.773075,35.707311,0 139.777116,35.714041,0 139.782685,35.711387,0 139.790755,35.709836,0 139.796883,35.709333,0</coordinates></LineString><LineString><tessellate>1</tessellate><coordinates>139.771128,35.699556,0 139.771318,35.699821,0 139.771444,35.699531,0</coordinates></LineString><LineString><tessellate>1</tessellate><coordinates>139.772132,35.704870,0 139.772372,35.705107,0 139.772440,35.704804,0</coordinates></LineString><LineString><tessellate>1</tessellate><coordinates>139.774450,35.709895,0 139.774743,35.710088,0 139.774736,35.709781,0</coordinates></LineString><LineString><tessellate>1</tessellate><coordinates>139.777925,35.713806,0 139.778140,35.713554,0 139.777765,35.713582,0</coordinates></LineString><LineString><tessellate>1</tessellate><coordinates>139.783663,35.711332,0 139.783959,35.711142,0 139.783591,35.711079,0</coordinates></LineString><LineString><tessellate>1</tessellate><coordinates>139.790059,35.710103,0 139.790354,35.709913,0 139.789986,35.709850,0</coordinates></LineString></MultiGeometry></Placemark>
<Placemark><name>d13·5 🚶 Asakusa → Sensō-ji</name><styleUrl>#lb8636f7a3</styleUrl><description><![CDATA[caminando]]></description><MultiGeometry><LineString><tessellate>1</tessellate><coordinates>139.796883,35.709333,0 139.796883,35.709333,0 139.796869,35.709343,0 139.797099,35.709643,0 139.797040,35.709672,0 139.796971,35.709706,0 139.796917,35.709733,0 139.796942,35.709771,0 139.796650,35.709802,0 139.796287,35.709835,0 139.796293,35.709865,0 139.796296,35.709889,0 139.796394,35.710649,0 139.796404,35.710730,0 139.796451,35.710766,0 139.796536,35.710759,0 139.796542,35.710793,0 139.796548,35.710828,0 139.796561,35.710900,0 139.796565,35.710922,0 139.796569,35.710946,0 139.796552,35.710949,0 139.796528,35.710952,0 139.796490,35.710958,0 139.796357,35.710973,0 139.796367,35.711066,0 139.796368,35.711077,0 139.796379,35.711189,0 139.796380,35.711199,0 139.796383,35.711228,0 139.796411,35.711498,0 139.796412,35.711507,0 139.796446,35.711832,0 139.796477,35.712136,0 139.796507,35.712423,0 139.796546,35.712798,0 139.796551,35.712846,0 139.796555,35.712893,0 139.796567,35.713031,0 139.796578,35.713141,0 139.796593,35.713306,0 139.796618,35.713568,0 139.796619,35.713581,0 139.796637,35.713742,0 139.796485,35.713754,0 139.796493,35.713852,0 139.796464,35.713855,0 139.796465,35.713864,0 139.796487,35.714071,0 139.796443,35.714075,0 139.796451,35.714165,0 139.796463,35.714277,0 139.796335,35.714286,0 139.796347,35.714395,0 139.796188,35.714408,0 139.795980,35.714424,0 139.795659,35.714450,0 139.795626,35.714452,0 139.795598,35.714447,0 139.795339,35.714395,0 139.795328,35.714393,0 139.795235,35.714374,0 139.795243,35.714329,0 139.795271,35.714142,0 139.795179,35.714133,0 139.795119,35.714078,0 139.795089,35.714022,0 139.795096,35.713911,0 139.795101,35.713818,0 139.795105,35.713759,0 139.795107,35.713730,0 139.795107,35.713721,0 139.795072,35.713655,0 139.795038,35.713611,0 139.795008,35.713571,0 139.794980,35.713451,0 139.794953,35.713339,0 139.794952,35.713328,0 139.794976,35.713318,0 139.794992,35.713310,0 139.795001,35.713301,0 139.795003,35.713310,0 139.795057,35.713301,0 139.795057,35.713301,0</coordinates></LineString><LineString><tessellate>1</tessellate><coordinates>139.796267,35.710866,0 139.796476,35.710764,0 139.796246,35.710698,0</coordinates></LineString><LineString><tessellate>1</tessellate><coordinates>139.796410,35.712480,0 139.796531,35.712653,0 139.796615,35.712466,0</coordinates></LineString><LineString><tessellate>1</tessellate><coordinates>139.796447,35.714302,0 139.796238,35.714404,0 139.796468,35.714470,0</coordinates></LineString></MultiGeometry></Placemark>
<Placemark><name>d13·6 🚶 Sensō-ji → Tokyo Skytree</name><styleUrl>#lb8636f7a3</styleUrl><description><![CDATA[caminando]]></description><MultiGeometry><LineString><tessellate>1</tessellate><coordinates>139.795057,35.713301,0 139.795003,35.713310,0 139.795001,35.713301,0 139.794992,35.713310,0 139.794976,35.713318,0 139.794952,35.713328,0 139.794953,35.713339,0 139.794980,35.713451,0 139.795008,35.713571,0 139.795038,35.713611,0 139.795072,35.713655,0 139.795107,35.713721,0 139.795107,35.713730,0 139.795105,35.713759,0 139.795101,35.713818,0 139.795096,35.713911,0 139.795089,35.714022,0 139.795119,35.714078,0 139.795179,35.714133,0 139.795271,35.714142,0 139.795243,35.714329,0 139.795235,35.714374,0 139.795328,35.714393,0 139.795339,35.714395,0 139.795598,35.714447,0 139.795626,35.714452,0 139.795659,35.714450,0 139.795980,35.714424,0 139.796188,35.714408,0 139.796347,35.714395,0 139.796356,35.714470,0 139.796384,35.714469,0 139.796432,35.714471,0 139.796720,35.714447,0 139.796752,35.714449,0 139.796888,35.714436,0 139.796996,35.714429,0 139.797076,35.714440,0 139.797183,35.714443,0 139.797354,35.714428,0 139.797445,35.714420,0 139.797505,35.714415,0 139.797619,35.714396,0 139.797677,35.714384,0 139.797702,35.714378,0 139.797713,35.714376,0 139.797727,35.714426,0 139.798123,35.714353,0 139.798150,35.714384,0 139.798215,35.714371,0 139.798298,35.714355,0 139.798374,35.714341,0 139.798365,35.714308,0 139.798397,35.714294,0 139.799099,35.714116,0 139.799413,35.714047,0 139.799474,35.714034,0 139.799807,35.713961,0 139.799992,35.713920,0 139.800083,35.713900,0 139.800096,35.713897,0 139.800116,35.713891,0 139.800506,35.713816,0 139.800527,35.713826,0 139.800628,35.713946,0 139.800801,35.714151,0 139.800836,35.714188,0 139.800871,35.714224,0 139.801212,35.714622,0 139.801363,35.714811,0 139.801517,35.714992,0 139.801521,35.715017,0 139.801614,35.714992,0 139.801708,35.714969,0 139.801780,35.714952,0 139.801795,35.714970,0 139.801873,35.714985,0 139.801995,35.714913,0 139.802016,35.714899,0 139.802082,35.714862,0 139.802114,35.714870,0 139.802287,35.714768,0 139.804405,35.713451,0 139.804733,35.713286,0 139.804869,35.713217,0 139.805158,35.713082,0 139.805352,35.712990,0 139.805374,35.712965,0 139.805380,35.712907,0 139.805419,35.712891,0 139.805444,35.712881,0 139.805468,35.712869,0 139.805531,35.712838,0 139.805580,35.712814,0 139.805662,35.712773,0 139.805703,35.712753,0 139.805808,35.712761,0 139.805828,35.712750,0 139.806022,35.712647,0 139.806281,35.712509,0 139.806717,35.712278,0 139.807029,35.712112,0 139.807254,35.711993,0 139.807403,35.711913,0 139.807882,35.711659,0 139.808159,35.711512,0 139.808229,35.711475,0 139.808257,35.711460,0 139.808300,35.711425,0 139.808332,35.711381,0 139.808355,35.711334,0 139.808357,35.711290,0 139.808356,35.711033,0 139.808464,35.711039,0 139.808567,35.711044,0 139.808604,35.711000,0 139.808601,35.710986,0 139.808607,35.710872,0 139.808613,35.710769,0 139.808605,35.710697,0 139.808590,35.710610,0 139.808582,35.710570,0 139.808588,35.710411,0 139.808589,35.710367,0 139.808592,35.710256,0 139.808592,35.710253,0 139.808594,35.710165,0 139.808639,35.710176,0 139.808646,35.709948,0 139.808688,35.709862,0 139.808693,35.709852,0 139.808723,35.709815,0 139.808785,35.709775,0 139.808840,35.709759,0 139.808963,35.709738,0 139.809144,35.709691,0 139.809213,35.709673,0 139.809330,35.709655,0 139.809432,35.709656,0 139.810200,35.709735,0 139.810196,35.709764,0 139.810272,35.709770,0 139.810256,35.709879,0 139.810533,35.709907,0 139.810617,35.709839,0 139.810694,35.709831,0 139.810779,35.709835,0 139.810842,35.709860,0 139.810928,35.709941,0 139.810949,35.709994,0</coordinates></LineString><LineString><tessellate>1</tessellate><coordinates>139.797050,35.714539,0 139.797258,35.714436,0 139.797028,35.714372,0</coordinates></LineString><LineString><tessellate>1</tessellate><coordinates>139.800417,35.713844,0 139.800627,35.713945,0 139.800587,35.713749,0</coordinates></LineString><LineString><tessellate>1</tessellate><coordinates>139.803131,35.714349,0 139.803245,35.714173,0 139.803007,35.714215,0</coordinates></LineString><LineString><tessellate>1</tessellate><coordinates>139.806121,35.712695,0 139.806249,35.712526,0 139.806008,35.712554,0</coordinates></LineString><LineString><tessellate>1</tessellate><coordinates>139.808726,35.710799,0 139.808594,35.710632,0 139.808523,35.710823,0</coordinates></LineString></MultiGeometry></Placemark>
<Placemark><name>d13·7 🚶 Tokyo Skytree → Asakusa ⇒ Parque Ueno</name><styleUrl>#lb8636f7a3</styleUrl><description><![CDATA[caminando · rumbo del plan: Parque Ueno]]></description><MultiGeometry><LineString><tessellate>1</tessellate><coordinates>139.810949,35.709994,0 139.810928,35.709941,0 139.810842,35.709860,0 139.810779,35.709835,0 139.810694,35.709831,0 139.810617,35.709839,0 139.810533,35.709907,0 139.810256,35.709879,0 139.810272,35.709770,0 139.810284,35.709685,0 139.810248,35.709685,0 139.810259,35.709615,0 139.810268,35.709558,0 139.809967,35.709527,0 139.809588,35.709489,0 139.809297,35.709486,0 139.809223,35.709502,0 139.809028,35.709543,0 139.808836,35.709591,0 139.808831,35.709592,0 139.808804,35.709598,0 139.808726,35.709611,0 139.808682,35.709600,0 139.808660,35.709595,0 139.808621,35.709568,0 139.808619,35.709551,0 139.808612,35.709503,0 139.808616,35.709360,0 139.808618,35.709256,0 139.808619,35.709216,0 139.808618,35.709203,0 139.808617,35.709183,0 139.808615,35.709150,0 139.808628,35.708977,0 139.808599,35.708973,0 139.808514,35.708972,0 139.808412,35.708970,0 139.808375,35.708972,0 139.808372,35.708963,0 139.808352,35.708940,0 139.808322,35.708936,0 139.808253,35.708927,0 139.808107,35.708915,0 139.808050,35.708915,0 139.807997,35.708915,0 139.807959,35.708916,0 139.807593,35.708900,0 139.807586,35.708899,0 139.807374,35.708882,0 139.807350,35.708882,0 139.807322,35.708876,0 139.807286,35.708873,0 139.806925,35.708850,0 139.806892,35.708851,0 139.806846,35.708853,0 139.806813,35.708852,0 139.806771,35.708852,0 139.806741,35.708852,0 139.806700,35.708846,0 139.806656,35.708839,0 139.805658,35.708787,0 139.805570,35.708783,0 139.805477,35.708776,0 139.804824,35.708752,0 139.804586,35.708739,0 139.804525,35.708716,0 139.804441,35.708768,0 139.804401,35.708763,0 139.804316,35.708766,0 139.804211,35.708763,0 139.804167,35.708769,0 139.804099,35.708703,0 139.803875,35.708693,0 139.803264,35.708663,0 139.803220,35.708661,0 139.803182,35.708659,0 139.803119,35.708656,0 139.803090,35.708654,0 139.802357,35.708619,0 139.802309,35.708650,0 139.802242,35.708653,0 139.802167,35.708657,0 139.802126,35.708643,0 139.802059,35.708673,0 139.801971,35.708635,0 139.801859,35.708586,0 139.801840,35.708569,0 139.801065,35.708408,0 139.800616,35.708314,0 139.800600,35.708311,0 139.800511,35.708292,0 139.800434,35.708276,0 139.800400,35.708269,0 139.800115,35.708210,0 139.799831,35.708151,0 139.799172,35.708013,0 139.798693,35.707913,0 139.798647,35.707904,0 139.798624,35.707915,0 139.798559,35.707975,0 139.798469,35.707997,0 139.798403,35.708014,0 139.798370,35.708027,0 139.798339,35.707997,0 139.798294,35.707982,0 139.798222,35.707984,0 139.798161,35.708012,0 139.796762,35.708701,0 139.796707,35.708730,0 139.796693,35.708737,0 139.796661,35.708755,0 139.796522,35.708836,0 139.796482,35.708870,0 139.796473,35.708884,0 139.796455,35.708928,0 139.796569,35.709048,0 139.796869,35.709343,0 139.796883,35.709333,0</coordinates></LineString><LineString><tessellate>1</tessellate><coordinates>139.808928,35.709574,0 139.808687,35.709601,0 139.808868,35.709734,0</coordinates></LineString><LineString><tessellate>1</tessellate><coordinates>139.806819,35.708763,0 139.806593,35.708836,0 139.806806,35.708931,0</coordinates></LineString><LineString><tessellate>1</tessellate><coordinates>139.804020,35.708616,0 139.803794,35.708689,0 139.804008,35.708784,0</coordinates></LineString><LineString><tessellate>1</tessellate><coordinates>139.801254,35.708361,0 139.801015,35.708398,0 139.801203,35.708524,0</coordinates></LineString><LineString><tessellate>1</tessellate><coordinates>139.798506,35.707892,0 139.798289,35.707982,0 139.798513,35.708060,0</coordinates></LineString></MultiGeometry></Placemark>
<Placemark><name>d13·8 🚇 11:30 Tobu Skytree Line: Asakusa → Tokyo Skytree ⇒ Parque Ueno</name><styleUrl>#lffc36c0f6</styleUrl><description><![CDATA[SALE 11:30 de Asakusa → LLEGA a Tokyo Skytree · Tobu Skytree Line — sentido hacia Tōbu-Dōbutsu-Kōen (1 tramos) · rumbo del plan: Parque Ueno]]></description><MultiGeometry><LineString><tessellate>1</tessellate><coordinates>139.796883,35.709333,0 139.808490,35.709744,0</coordinates></LineString><LineString><tessellate>1</tessellate><coordinates>139.802339,35.709656,0 139.802686,35.709539,0 139.802353,35.709397,0</coordinates></LineString></MultiGeometry></Placemark>
<Placemark><name>d13·9 🚶 Tokyo Skytree → Oshiage ⇒ Parque Ueno</name><styleUrl>#lb8636f7a3</styleUrl><description><![CDATA[caminando · rumbo del plan: Parque Ueno]]></description><MultiGeometry><LineString><tessellate>1</tessellate><coordinates>139.808490,35.709744,0 139.808490,35.709744,0 139.808528,35.709825,0 139.808522,35.709927,0 139.808607,35.709928,0 139.808598,35.710012,0 139.808594,35.710165,0 139.808639,35.710176,0 139.808745,35.710214,0 139.808939,35.710246,0 139.809043,35.710276,0 139.809310,35.710344,0 139.809507,35.710390,0 139.809631,35.710432,0 139.809762,35.710459,0 139.809910,35.710460,0 139.810188,35.710486,0 139.811185,35.710582,0 139.811197,35.710493,0 139.811202,35.710482,0 139.811229,35.710482,0 139.812120,35.710560,0 139.812455,35.710580,0 139.812691,35.710485,0 139.812891,35.710585,0 139.813044,35.710613,0 139.813114,35.710582,0 139.813127,35.710691,0 139.813160,35.710702,0 139.813170,35.710628,0 139.813176,35.710612,0 139.813191,35.710597,0 139.813208,35.710592,0</coordinates></LineString><LineString><tessellate>1</tessellate><coordinates>139.810545,35.710605,0 139.810776,35.710543,0 139.810569,35.710438,0</coordinates></LineString></MultiGeometry></Placemark>
<Placemark><name>d13·10 🚇 14:00 Toei Asakusa Line: Oshiage → Asakusa ⇒ Parque Ueno</name><styleUrl>#lff656eec6</styleUrl><description><![CDATA[SALE 14:00 de Oshiage → LLEGA a Asakusa · Toei Asakusa Line — sentido Nishi-Magome / Haneda (2 tramos) · rumbo del plan: Parque Ueno]]></description><MultiGeometry><LineString><tessellate>1</tessellate><coordinates>139.813207,35.710591,0 139.804349,35.708561,0 139.796883,35.709333,0</coordinates></LineString><LineString><tessellate>1</tessellate><coordinates>139.808210,35.709311,0 139.807839,35.709361,0 139.808124,35.709561,0</coordinates></LineString><LineString><tessellate>1</tessellate><coordinates>139.802732,35.708597,0 139.802413,35.708761,0 139.802772,35.708855,0</coordinates></LineString></MultiGeometry></Placemark>
<Placemark><name>d13·11 🚇 14:10 Metro Ginza Line: Asakusa → Ueno ⇒ Parque Ueno</name><styleUrl>#lff0097f36</styleUrl><description><![CDATA[SALE 14:10 de Asakusa → LLEGA a Ueno · Metro Ginza Line — sentido Shibuya (3 tramos) · rumbo del plan: Parque Ueno]]></description><MultiGeometry><LineString><tessellate>1</tessellate><coordinates>139.796883,35.709333,0 139.790755,35.709836,0 139.782685,35.711387,0 139.777116,35.714041,0</coordinates></LineString><LineString><tessellate>1</tessellate><coordinates>139.792008,35.709602,0 139.791685,35.709759,0 139.792040,35.709861,0</coordinates></LineString><LineString><tessellate>1</tessellate><coordinates>139.786876,35.710448,0 139.786580,35.710638,0 139.786948,35.710701,0</coordinates></LineString><LineString><tessellate>1</tessellate><coordinates>139.781844,35.711637,0 139.781629,35.711890,0 139.782004,35.711862,0</coordinates></LineString></MultiGeometry></Placemark>
<Placemark><name>d13·12 🚶 Ueno → Parque Ueno</name><styleUrl>#lb8636f7a3</styleUrl><description><![CDATA[caminando]]></description><MultiGeometry><LineString><tessellate>1</tessellate><coordinates>139.777124,35.714011,0 139.777540,35.713813,0 139.777590,35.713881,0 139.777797,35.713782,0 139.777282,35.713006,0 139.777184,35.713050,0 139.777238,35.713130,0 139.777153,35.713168,0 139.777028,35.713223,0 139.776792,35.713327,0 139.776202,35.713587,0 139.776361,35.713826,0 139.776347,35.713878,0 139.776107,35.713991,0 139.776027,35.714027,0 139.775903,35.713901,0 139.775839,35.713802,0 139.775798,35.713719,0 139.775672,35.713450,0 139.775619,35.713327,0 139.775576,35.713243,0 139.775513,35.713117,0 139.775463,35.713041,0 139.775258,35.712752,0 139.775152,35.712637,0 139.775126,35.712609,0 139.775097,35.712561,0 139.774995,35.712604,0 139.774964,35.712552,0 139.774951,35.712532,0 139.774916,35.712467,0 139.774935,35.712461,0 139.774953,35.712493,0 139.774970,35.712519,0 139.774998,35.712516,0 139.775141,35.712737,0 139.775154,35.712757,0 139.775315,35.712955,0 139.775459,35.713154,0 139.775636,35.713494,0 139.775720,35.713716,0 139.775729,35.713783,0 139.775770,35.713872,0 139.775773,35.713878,0 139.775827,35.713972,0 139.775856,35.714024,0 139.775983,35.714209,0 139.775949,35.714236,0 139.775963,35.714383,0 139.776000,35.714554,0 139.775694,35.714699,0 139.775638,35.714725,0 139.775511,35.714783,0 139.775474,35.714800,0 139.775106,35.714969,0 139.775062,35.714989,0 139.775032,35.715039,0 139.775090,35.715147,0 139.775131,35.715201,0 139.775126,35.715243,0 139.775120,35.715280,0 139.775090,35.715375,0 139.775098,35.715481,0 139.775123,35.715608,0 139.775119,35.715617,0 139.775084,35.715647,0 139.775052,35.715678,0 139.775035,35.715728,0 139.775029,35.715812,0 139.775029,35.715858,0 139.775022,35.715899,0 139.774999,35.715951,0 139.774968,35.715994,0 139.774929,35.716030,0 139.774874,35.716055,0 139.774937,35.716166,0 139.774943,35.716176,0 139.775057,35.716345,0 139.775073,35.716368,0 139.775122,35.716442,0 139.775382,35.716823,0 139.775429,35.716849,0 139.775392,35.716974,0 139.775504,35.717135,0 139.775563,35.717184,0 139.775547,35.717208,0 139.775632,35.717335,0 139.775483,35.717417,0 139.775499,35.717439,0 139.775506,35.717449,0 139.775534,35.717493,0 139.775569,35.717543,0 139.775614,35.717609,0 139.775564,35.717631,0 139.775609,35.717695,0 139.775665,35.717771,0 139.775726,35.717853,0 139.775595,35.717917,0 139.775632,35.717970,0 139.775593,35.718014,0 139.775550,35.718077,0 139.775528,35.718120,0 139.775519,35.718166,0 139.775526,35.718236,0 139.775546,35.718310,0 139.775595,35.718385,0 139.775614,35.718416,0 139.775642,35.718441,0 139.775797,35.718537,0 139.775772,35.718575,0 139.775685,35.718707,0 139.775648,35.718759,0 139.775654,35.718921,0 139.775755,35.718936,0 139.775787,35.718996,0 139.775852,35.719095,0</coordinates></LineString><LineString><tessellate>1</tessellate><coordinates>139.776861,35.713201,0 139.776716,35.713361,0 139.776959,35.713349,0</coordinates></LineString><LineString><tessellate>1</tessellate><coordinates>139.775650,35.713137,0 139.775450,35.713023,0 139.775472,35.713221,0</coordinates></LineString><LineString><tessellate>1</tessellate><coordinates>139.775550,35.713550,0 139.775713,35.713698,0 139.775746,35.713500,0</coordinates></LineString><LineString><tessellate>1</tessellate><coordinates>139.774974,35.715202,0 139.775090,35.715377,0 139.775179,35.715192,0</coordinates></LineString><LineString><tessellate>1</tessellate><coordinates>139.775432,35.717211,0 139.775628,35.717329,0 139.775612,35.717130,0</coordinates></LineString></MultiGeometry></Placemark>
<Placemark><name>d13·13 🚶 Parque Ueno → Ameyoko</name><styleUrl>#lb8636f7a3</styleUrl><description><![CDATA[caminando]]></description><MultiGeometry><LineString><tessellate>1</tessellate><coordinates>139.775852,35.719095,0 139.775787,35.718996,0 139.775755,35.718936,0 139.775654,35.718921,0 139.775648,35.718759,0 139.775685,35.718707,0 139.775772,35.718575,0 139.775797,35.718537,0 139.775642,35.718441,0 139.775614,35.718416,0 139.775595,35.718385,0 139.775546,35.718310,0 139.775526,35.718236,0 139.775519,35.718166,0 139.775528,35.718120,0 139.775550,35.718077,0 139.775593,35.718014,0 139.775632,35.717970,0 139.775595,35.717917,0 139.775726,35.717853,0 139.775665,35.717771,0 139.775609,35.717695,0 139.775564,35.717631,0 139.775614,35.717609,0 139.775569,35.717543,0 139.775534,35.717493,0 139.775506,35.717449,0 139.775499,35.717439,0 139.775483,35.717417,0 139.775632,35.717335,0 139.775547,35.717208,0 139.775563,35.717184,0 139.775504,35.717135,0 139.775392,35.716974,0 139.775429,35.716849,0 139.775382,35.716823,0 139.775122,35.716442,0 139.775073,35.716368,0 139.775057,35.716345,0 139.774943,35.716176,0 139.774937,35.716166,0 139.774874,35.716055,0 139.774929,35.716030,0 139.774968,35.715994,0 139.774999,35.715951,0 139.775022,35.715899,0 139.775029,35.715858,0 139.775029,35.715812,0 139.775035,35.715728,0 139.775052,35.715678,0 139.775084,35.715647,0 139.775119,35.715617,0 139.775123,35.715608,0 139.775098,35.715481,0 139.775090,35.715375,0 139.775120,35.715280,0 139.775126,35.715243,0 139.775131,35.715201,0 139.775090,35.715147,0 139.775032,35.715039,0 139.775062,35.714989,0 139.775045,35.714966,0 139.774947,35.714836,0 139.774861,35.714720,0 139.774418,35.714070,0 139.774378,35.714003,0 139.774297,35.713868,0 139.774299,35.713829,0 139.774316,35.713820,0 139.774215,35.713674,0 139.774233,35.713611,0 139.774261,35.713591,0 139.774311,35.713581,0 139.774300,35.713550,0 139.774404,35.713485,0 139.774408,35.713388,0 139.774403,35.713368,0 139.774412,35.713345,0 139.774423,35.713328,0 139.774437,35.713321,0 139.774428,35.713313,0 139.774431,35.712956,0 139.774431,35.712935,0 139.774430,35.712904,0 139.774456,35.712868,0 139.774442,35.712850,0 139.774449,35.712826,0 139.774357,35.712627,0 139.774332,35.712615,0 139.774376,35.712564,0 139.774420,35.712557,0 139.774497,35.712523,0 139.774728,35.712440,0 139.774852,35.712401,0 139.774883,35.712391,0 139.774872,35.712369,0 139.774851,35.712325,0 139.774624,35.711861,0 139.774618,35.711848,0 139.774583,35.711769,0 139.774506,35.711722,0 139.774524,35.711695,0 139.774530,35.711647,0 139.774557,35.711561,0 139.774572,35.711501,0 139.774588,35.711465,0 139.774629,35.711483,0 139.774680,35.711506,0 139.774786,35.711495,0</coordinates></LineString><LineString><tessellate>1</tessellate><coordinates>139.775768,35.717363,0 139.775572,35.717245,0 139.775588,35.717444,0</coordinates></LineString><LineString><tessellate>1</tessellate><coordinates>139.775328,35.715301,0 139.775124,35.715192,0 139.775153,35.715390,0</coordinates></LineString><LineString><tessellate>1</tessellate><coordinates>139.774530,35.713375,0 139.774429,35.713194,0 139.774325,35.713374,0</coordinates></LineString></MultiGeometry></Placemark>
<Placemark><name>d13·14 🚶/🚇 Ameyoko → hotel</name><styleUrl>#l80636f7a2</styleUrl><description><![CDATA[regreso (esquemático)]]></description><LineString><tessellate>1</tessellate><coordinates>139.774786,35.711493,0 139.693100,35.694400,0</coordinates></LineString></Placemark>
</Folder></Document></kml>