<?xml version="1.0" encoding="UTF-8"?>
<kml xmlns="http://www.opengis.net/kml/2.2"><Document><name>dom 11 · Kioto oeste</name><description>Recorrido del día: líneas (gruesa=transporte color oficial, delgada=a pie), ＞ sentido, paradas numeradas con hora y punto estricto.</description><Style id="p1"><IconStyle><scale>0.9</scale><Icon><href>https://maps.google.com/mapfiles/kml/paddle/1.png</href></Icon></IconStyle></Style><Style id="p2"><IconStyle><scale>0.9</scale><Icon><href>https://maps.google.com/mapfiles/kml/paddle/2.png</href></Icon></IconStyle></Style><Style id="p3"><IconStyle><scale>0.9</scale><Icon><href>https://maps.google.com/mapfiles/kml/paddle/3.png</href></Icon></IconStyle></Style><Style id="p4"><IconStyle><scale>0.9</scale><Icon><href>https://maps.google.com/mapfiles/kml/paddle/4.png</href></Icon></IconStyle></Style><Style id="p5"><IconStyle><scale>0.9</scale><Icon><href>https://maps.google.com/mapfiles/kml/paddle/5.png</href></Icon></IconStyle></Style><Style id="p6"><IconStyle><scale>0.9</scale><Icon><href>https://maps.google.com/mapfiles/kml/paddle/6.png</href></Icon></IconStyle></Style><Style id="p7"><IconStyle><scale>0.9</scale><Icon><href>https://maps.google.com/mapfiles/kml/paddle/7.png</href></Icon></IconStyle></Style><Style id="p8"><IconStyle><scale>0.9</scale><Icon><href>https://maps.google.com/mapfiles/kml/paddle/8.png</href></Icon></IconStyle></Style><Style id="p9"><IconStyle><scale>0.9</scale><Icon><href>https://maps.google.com/mapfiles/kml/paddle/9.png</href></Icon></IconStyle></Style><Style id="p10"><IconStyle><scale>0.9</scale><Icon><href>https://maps.google.com/mapfiles/kml/paddle/10.png</href></Icon></IconStyle></Style><Style id="l80636f7a2"><LineStyle><color>80636f7a</color><width>2</width></LineStyle></Style><Style id="lffb76b0d6"><LineStyle><color>ffb76b0d</color><width>6</width></LineStyle></Style><Style id="lff1700806"><LineStyle><color>ff170080</color><width>6</width></LineStyle></Style><Style id="lb8636f7a3"><LineStyle><color>b8636f7a</color><width>3</width></LineStyle></Style><Style id="lff8628526"><LineStyle><color>ff862852</color><width>6</width></LineStyle></Style><Style id="lff934de46"><LineStyle><color>ff934de4</color><width>6</width></LineStyle></Style><Style id="lff1f17e56"><LineStyle><color>ff1f17e5</color><width>6</width></LineStyle></Style><Style id="lffa0501c6"><LineStyle><color>ffa0501c</color><width>6</width></LineStyle></Style><Style id="lff00d4ff6"><LineStyle><color>ff00d4ff</color><width>6</width></LineStyle></Style><Style id="lffaf5c006"><LineStyle><color>ffaf5c00</color><width>6</width></LineStyle></Style><Style id="lff4499006"><LineStyle><color>ff449900</color><width>6</width></LineStyle></Style><Style id="lff2147816"><LineStyle><color>ff214781</color><width>6</width></LineStyle></Style><Style id="lff669a016"><LineStyle><color>ff669a01</color><width>6</width></LineStyle></Style><Style id="lff0000e86"><LineStyle><color>ff0000e8</color><width>6</width></LineStyle></Style><Style id="lff2900d76"><LineStyle><color>ff2900d7</color><width>6</width></LineStyle></Style><Style id="lffa557276"><LineStyle><color>ffa55727</color><width>6</width></LineStyle></Style><Style id="lff1fc38f6"><LineStyle><color>ff1fc38f</color><width>6</width></LineStyle></Style><Style id="lff9933666"><LineStyle><color>ff993366</color><width>6</width></LineStyle></Style><Style id="lff2b4a7a6"><LineStyle><color>ff2b4a7a</color><width>6</width></LineStyle></Style><Style id="lff0c86c76"><LineStyle><color>ff0c86c7</color><width>6</width></LineStyle></Style><Style id="lff225af16"><LineStyle><color>ff225af1</color><width>6</width></LineStyle></Style><Style id="lff0097f36"><LineStyle><color>ff0097f3</color><width>6</width></LineStyle></Style><Style id="lffc36c0f6"><LineStyle><color>ffc36c0f</color><width>6</width></LineStyle></Style><Style id="lff656eec6"><LineStyle><color>ff656eec</color><width>6</width></LineStyle></Style><Style id="lffa0862c6"><LineStyle><color>ffa0862c</color><width>6</width></LineStyle></Style><Style id="lff2f25c96"><LineStyle><color>ff2f25c9</color><width>6</width></LineStyle></Style><Style id="lff32cd9a6"><LineStyle><color>ff32cd9a</color><width>6</width></LineStyle></Style><Style id="lff301be26"><LineStyle><color>ff301be2</color><width>6</width></LineStyle></Style><Style id="lff0388006"><LineStyle><color>ff038800</color><width>6</width></LineStyle></Style><Style id="lff9c46296"><LineStyle><color>ff9c4629</color><width>6</width></LineStyle></Style><Style id="lff1200e66"><LineStyle><color>ff1200e6</color><width>6</width></LineStyle></Style><Style id="lffb7ae9c6"><LineStyle><color>ffb7ae9c</color><width>6</width></LineStyle></Style><Style id="lff207bf46"><LineStyle><color>ff207bf4</color><width>6</width></LineStyle></Style><Folder><name>dom 11 · Kioto oeste</name>
<Placemark><name>1. 05:00 · Fushimi Inari (d11)</name><styleUrl>#p1</styleUrl><description><![CDATA[Hora del plan: 05:00. ⏰ SIGUIENTE PUNTO ESTRICTO del día: 05:00 — Desayuno konbini (reserva/transporte: NO se puede llegar tarde).]]></description><Point><coordinates>135.772730,34.967140,0</coordinates></Point></Placemark>
<Placemark><name>2. 06:15 · Fushimi Inari (d11)</name><styleUrl>#p2</styleUrl><description><![CDATA[Hora del plan: 06:15. ⏰ SIGUIENTE PUNTO ESTRICTO del día: 06:15 — Fushimi Inari (reserva/transporte: NO se puede llegar tarde).]]></description><Point><coordinates>135.772730,34.967140,0</coordinates></Point></Placemark>
<Placemark><name>3. 10:45 · Pabellón Dorado (Kinkaku-ji) (d11)</name><styleUrl>#p3</styleUrl><description><![CDATA[Hora del plan: 10:45. ⏰ SIGUIENTE PUNTO ESTRICTO del día: 14:00 — Castillo de Nijo (reserva/transporte: NO se puede llegar tarde).]]></description><Point><coordinates>135.729537,35.039529,0</coordinates></Point></Placemark>
<Placemark><name>4. 14:00 · Castillo de Nijo (d11)</name><styleUrl>#p4</styleUrl><description><![CDATA[Hora del plan: 14:00. ⏰ SIGUIENTE PUNTO ESTRICTO del día: 14:00 — Castillo de Nijo (reserva/transporte: NO se puede llegar tarde).]]></description><Point><coordinates>135.748537,35.014008,0</coordinates></Point></Placemark>
<Placemark><name>5. 16:00 · Palacio Imperial de Kioto (d11)</name><styleUrl>#p5</styleUrl><description><![CDATA[Hora del plan: 16:00. Sin más puntos estrictos hoy después de esta parada.]]></description><Point><coordinates>135.762345,35.025264,0</coordinates></Point></Placemark>
<Placemark><name>d11·1 · traslado: Hotel → Fushimi Inari</name><styleUrl>#l80636f7a2</styleUrl><description><![CDATA[traslado del tour/plan (línea recta)]]></description><LineString><tessellate>1</tessellate><coordinates>135.759515,34.998313,0 135.772730,34.967140,0</coordinates></LineString></Placemark>
<Placemark><name>d11·2 · traslado: Fushimi Inari → Gojō</name><styleUrl>#l80636f7a2</styleUrl><description><![CDATA[conexión (esquemática)]]></description><LineString><tessellate>1</tessellate><coordinates>135.772730,34.967140,0 135.759700,34.996900,0</coordinates></LineString></Placemark>
<Placemark><name>d11·3 🚇 05:55 Metro Karasuma (Kioto): Gojō → Kyoto ⇒ Fushimi Inari</name><styleUrl>#lff4499006</styleUrl><description><![CDATA[SALE 05:55 de Gojō → LLEGA a Kyoto · Metro Karasuma (Kioto) — sentido Takeda (1 tramos) · rumbo del plan: Fushimi Inari]]></description><MultiGeometry><LineString><tessellate>1</tessellate><coordinates>135.759700,34.996900,0 135.758766,34.985350,0</coordinates></LineString><LineString><tessellate>1</tessellate><coordinates>135.759568,34.993319,0 135.759389,34.993050,0 135.759254,34.993337,0</coordinates></LineString><LineString><tessellate>1</tessellate><coordinates>135.759257,34.989469,0 135.759077,34.989200,0 135.758943,34.989487,0</coordinates></LineString></MultiGeometry></Placemark>
<Placemark><name>d11·4 🚇 06:03 JR Nara Line: Kyoto → Inari ⇒ Fushimi Inari</name><styleUrl>#lff2b4a7a6</styleUrl><description><![CDATA[SALE 06:03 de Kyoto → LLEGA a Inari · JR Nara Line — sentido Nara (solo el LOCAL para en Inari) (2 tramos) · rumbo del plan: Fushimi Inari]]></description><MultiGeometry><LineString><tessellate>1</tessellate><coordinates>135.758766,34.985350,0 135.770080,34.981074,0 135.770843,34.966743,0</coordinates></LineString><LineString><tessellate>1</tessellate><coordinates>135.763949,34.983534,0 135.764190,34.983300,0 135.763818,34.983298,0</coordinates></LineString><LineString><tessellate>1</tessellate><coordinates>135.769373,34.981484,0 135.769615,34.981250,0 135.769242,34.981248,0</coordinates></LineString><LineString><tessellate>1</tessellate><coordinates>135.770462,34.976863,0 135.770320,34.976578,0 135.770147,34.976851,0</coordinates></LineString><LineString><tessellate>1</tessellate><coordinates>135.770724,34.971945,0 135.770581,34.971660,0 135.770409,34.971933,0</coordinates></LineString></MultiGeometry></Placemark>
<Placemark><name>d11·5 🚶 Inari → Fushimi Inari</name><styleUrl>#lb8636f7a3</styleUrl><description><![CDATA[caminando]]></description><LineString><tessellate>1</tessellate><coordinates>135.770948,34.966743,0 135.770947,34.966853,0 135.770945,34.967047,0 135.771036,34.967044,0 135.771868,34.967080,0 135.771982,34.967088,0 135.772272,34.967105,0 135.772469,34.967122,0 135.772479,34.967124,0 135.772529,34.967126,0 135.772589,34.967129,0 135.772714,34.967135,0 135.772730,34.967136,0</coordinates></LineString></Placemark>
<Placemark><name>d11·6 🚶 Fushimi Inari → Kyoto-eki-mae ⇒ Pabellón Dorado (Kinkaku-ji)</name><styleUrl>#lb8636f7a3</styleUrl><description><![CDATA[caminando · rumbo del plan: Pabellón Dorado (Kinkaku-ji)]]></description><MultiGeometry><LineString><tessellate>1</tessellate><coordinates>135.772730,34.967136,0 135.772714,34.967135,0 135.772589,34.967129,0 135.772529,34.967126,0 135.772479,34.967124,0 135.772469,34.967122,0 135.772455,34.967285,0 135.772452,34.967325,0 135.772446,34.967368,0 135.772250,34.967587,0 135.772091,34.967732,0 135.772027,34.967760,0 135.771982,34.967797,0 135.771741,34.967815,0 135.771300,34.967898,0 135.771009,34.967924,0 135.770968,34.967882,0 135.770946,34.967880,0 135.770893,34.967874,0 135.770490,34.967866,0 135.770442,34.967868,0 135.770398,34.967869,0 135.770350,34.967871,0 135.770147,34.967917,0 135.770138,34.967919,0 135.770132,34.967964,0 135.770138,34.968009,0 135.770148,34.968153,0 135.770110,34.968570,0 135.770073,34.968972,0 135.770027,34.969574,0 135.769990,34.970020,0 135.769990,34.970080,0 135.769986,34.970174,0 135.769977,34.970331,0 135.769945,34.970870,0 135.769917,34.971181,0 135.769904,34.971302,0 135.769870,34.971471,0 135.769844,34.971587,0 135.769841,34.971606,0 135.769815,34.971675,0 135.769793,34.971760,0 135.769766,34.971868,0 135.769742,34.971928,0 135.769655,34.972072,0 135.769601,34.972179,0 135.769576,34.972229,0 135.769498,34.972347,0 135.769406,34.972474,0 135.769363,34.972534,0 135.769202,34.972726,0 135.769053,34.972879,0 135.768934,34.972949,0 135.768779,34.973011,0 135.768570,34.973013,0 135.768544,34.972880,0 135.768458,34.972880,0 135.768386,34.972880,0 135.768340,34.972960,0 135.768305,34.972993,0 135.768248,34.972957,0 135.768225,34.972942,0 135.768154,34.972986,0 135.767948,34.972988,0 135.767886,34.972989,0 135.767759,34.972992,0 135.767707,34.972993,0 135.767697,34.972995,0 135.767653,34.973006,0 135.767596,34.973005,0 135.767510,34.973006,0 135.767403,34.973007,0 135.767280,34.973009,0 135.767147,34.973082,0 135.765676,34.973107,0 135.765608,34.973108,0 135.765531,34.973113,0 135.765400,34.973119,0 135.765320,34.973124,0 135.764307,34.973146,0 135.764111,34.973147,0 135.764009,34.973147,0 135.764009,34.973194,0 135.764010,34.973273,0 135.764011,34.973314,0 135.763909,34.973357,0 135.763860,34.973420,0 135.763854,34.973496,0 135.763863,34.973684,0 135.763880,34.974010,0 135.763884,34.974217,0 135.763895,34.974406,0 135.763911,34.974512,0 135.763922,34.974720,0 135.763914,34.974760,0 135.763938,34.975148,0 135.763985,34.975927,0 135.763895,34.975930,0 135.763798,34.975933,0 135.763801,34.975986,0 135.763757,34.976022,0 135.763745,34.976026,0 135.763745,34.976067,0 135.763745,34.976110,0 135.763723,34.976105,0 135.763357,34.976103,0 135.763306,34.976103,0 135.763283,34.976100,0 135.762855,34.976104,0 135.762802,34.976104,0 135.762742,34.976105,0 135.762406,34.976112,0 135.761981,34.976109,0 135.761910,34.976159,0 135.761927,34.976572,0 135.761932,34.976590,0 135.761952,34.977128,0 135.761952,34.977149,0 135.761957,34.977168,0 135.761967,34.977429,0 135.761961,34.977500,0 135.761952,34.977600,0 135.761921,34.977730,0 135.761913,34.977753,0 135.761906,34.977773,0 135.761896,34.977794,0 135.761812,34.977969,0 135.761803,34.977990,0 135.761787,34.978009,0 135.761682,34.978179,0 135.761600,34.978300,0 135.761579,34.978335,0 135.761553,34.978375,0 135.761498,34.978462,0 135.761451,34.978567,0 135.761396,34.978707,0 135.761359,34.978839,0 135.761333,34.978954,0 135.761320,34.979025,0 135.761302,34.979134,0 135.761282,34.979296,0 135.761311,34.979354,0 135.761449,34.979484,0 135.761441,34.979505,0 135.761441,34.979560,0 135.761441,34.979669,0 135.761441,34.979735,0 135.761228,34.979892,0 135.761195,34.980754,0 135.761180,34.981458,0 135.761182,34.981725,0 135.761184,34.981841,0 135.761187,34.981973,0 135.761188,34.982007,0 135.761207,34.982945,0 135.761208,34.983008,0 135.761208,34.983026,0 135.761208,34.983273,0 135.761129,34.983272,0 135.761037,34.983272,0 135.761046,34.983793,0 135.761021,34.983823,0 135.760446,34.983818,0 135.760444,34.983784,0 135.760268,34.983787,0 135.760269,34.983774,0 135.760246,34.983774,0 135.760199,34.983775,0 135.760203,34.983926,0 135.760203,34.983939,0 135.760204,34.984395,0 135.760198,34.984749,0 135.760205,34.984886,0 135.760205,34.984972,0 135.760198,34.985881,0 135.760196,34.986022,0 135.759984,34.986911,0 135.759957,34.987025,0 135.759775,34.987025,0 135.759684,34.987025,0 135.759547,34.987024,0 135.759441,34.987025,0 135.759420,34.987025,0 135.759419,34.987074,0 135.759503,34.987075,0 135.759503,34.987085,0 135.759503,34.987153,0 135.759276,34.987148,0 135.758800,34.987149,0</coordinates></LineString><LineString><tessellate>1</tessellate><coordinates>135.769885,34.970156,0 135.769976,34.970340,0 135.770089,34.970164,0</coordinates></LineString><LineString><tessellate>1</tessellate><coordinates>135.766797,34.973004,0 135.766581,34.973092,0 135.766801,34.973172,0</coordinates></LineString><LineString><tessellate>1</tessellate><coordinates>135.764128,34.975838,0 135.763913,34.975929,0 135.764136,34.976006,0</coordinates></LineString><LineString><tessellate>1</tessellate><coordinates>135.761208,34.979066,0 135.761287,34.979254,0 135.761411,34.979083,0</coordinates></LineString><LineString><tessellate>1</tessellate><coordinates>135.761018,34.983739,0 135.760798,34.983821,0 135.761016,34.983907,0</coordinates></LineString></MultiGeometry></Placemark>
<Placemark><name>d11·7 🚌 09:50 Bus urbano de Kioto: Kyoto-eki-mae → Kinkakuji-michi ⇒ Pabellón Dorado (Kinkaku-ji)</name><styleUrl>#lff1fc38f6</styleUrl><description><![CDATA[SALE 09:50 de Kyoto-eki-mae → LLEGA a Kinkakuji-michi · Bus urbano de Kioto — sentido por Nishiōji-dōri (5 tramos) · rumbo del plan: Pabellón Dorado (Kinkaku-ji)]]></description><MultiGeometry><LineString><tessellate>1</tessellate><coordinates>135.758799,34.986989,0 135.732591,34.987814,0 135.731807,35.004501,0 135.758430,34.984608,0 135.734500,35.031600,0 135.734442,35.040358,0</coordinates></LineString><LineString><tessellate>1</tessellate><coordinates>135.741946,34.987389,0 135.741614,34.987530,0 135.741958,34.987649,0</coordinates></LineString><LineString><tessellate>1</tessellate><coordinates>135.732130,34.994264,0 135.732274,34.994547,0 135.732445,34.994274,0</coordinates></LineString><LineString><tessellate>1</tessellate><coordinates>135.735461,35.001946,0 135.735606,35.001662,0 135.735249,35.001753,0</coordinates></LineString><LineString><tessellate>1</tessellate><coordinates>135.748210,34.992420,0 135.748354,34.992136,0 135.747998,34.992227,0</coordinates></LineString><LineString><tessellate>1</tessellate><coordinates>135.757020,34.987042,0 135.757034,34.987350,0 135.757310,34.987143,0</coordinates></LineString><LineString><tessellate>1</tessellate><coordinates>135.750358,35.000124,0 135.750372,35.000431,0 135.750649,35.000224,0</coordinates></LineString><LineString><tessellate>1</tessellate><coordinates>135.743697,35.013205,0 135.743711,35.013512,0 135.743987,35.013306,0</coordinates></LineString><LineString><tessellate>1</tessellate><coordinates>135.737035,35.026286,0 135.737050,35.026593,0 135.737326,35.026387,0</coordinates></LineString></MultiGeometry></Placemark>
<Placemark><name>d11·8 🚶 Kinkakuji-michi → Pabellón Dorado (Kinkaku-ji)</name><styleUrl>#lb8636f7a3</styleUrl><description><![CDATA[caminando]]></description><MultiGeometry><LineString><tessellate>1</tessellate><coordinates>135.734444,35.040349,0 135.734231,35.040311,0 135.734091,35.040278,0 135.734018,35.040241,0 135.733951,35.040199,0 135.733877,35.040133,0 135.733787,35.040009,0 135.733695,35.039754,0 135.733640,35.039577,0 135.733515,35.039185,0 135.733444,35.039203,0 135.733340,35.039230,0 135.733271,35.039248,0 135.733250,35.039180,0 135.733206,35.039167,0 135.732699,35.039227,0 135.732260,35.039286,0 135.732033,35.039305,0 135.731968,35.039364,0 135.731959,35.039394,0 135.731899,35.039397,0 135.731836,35.039399,0 135.731833,35.039250,0 135.731157,35.039188,0 135.730664,35.039133,0 135.730423,35.039106,0 135.730337,35.039077,0 135.730236,35.039057,0 135.730142,35.039051,0 135.730083,35.039056,0 135.730071,35.039058,0 135.729997,35.039068,0 135.729713,35.039105,0 135.729674,35.039109,0 135.729653,35.039147,0 135.729600,35.039254,0</coordinates></LineString><LineString><tessellate>1</tessellate><coordinates>135.733477,35.039106,0 135.733299,35.039241,0 135.733538,35.039267,0</coordinates></LineString><LineString><tessellate>1</tessellate><coordinates>135.731767,35.039159,0 135.731539,35.039223,0 135.731745,35.039327,0</coordinates></LineString></MultiGeometry></Placemark>
<Placemark><name>d11·9 🚶 Pabellón Dorado (Kinkaku-ji) → Kinkakuji-michi ⇒ Castillo de Nijo</name><styleUrl>#lb8636f7a3</styleUrl><description><![CDATA[caminando · rumbo del plan: Castillo de Nijo]]></description><MultiGeometry><LineString><tessellate>1</tessellate><coordinates>135.729600,35.039254,0 135.729600,35.039254,0 135.729653,35.039147,0 135.729674,35.039109,0 135.729713,35.039105,0 135.729997,35.039068,0 135.730071,35.039058,0 135.730083,35.039056,0 135.730142,35.039051,0 135.730236,35.039057,0 135.730337,35.039077,0 135.730423,35.039106,0 135.730664,35.039133,0 135.731157,35.039188,0 135.731833,35.039250,0 135.731836,35.039399,0 135.731899,35.039397,0 135.731959,35.039394,0 135.731968,35.039364,0 135.732033,35.039305,0 135.732260,35.039286,0 135.732699,35.039227,0 135.733206,35.039167,0 135.733250,35.039180,0 135.733271,35.039248,0 135.733340,35.039230,0 135.733444,35.039203,0 135.733515,35.039185,0 135.733640,35.039577,0 135.733695,35.039754,0 135.733787,35.040009,0 135.733877,35.040133,0 135.733951,35.040199,0 135.734018,35.040241,0 135.734091,35.040278,0 135.734231,35.040311,0 135.734444,35.040349,0</coordinates></LineString><LineString><tessellate>1</tessellate><coordinates>135.731310,35.039287,0 135.731539,35.039223,0 135.731333,35.039119,0</coordinates></LineString><LineString><tessellate>1</tessellate><coordinates>135.733121,35.039375,0 135.733299,35.039241,0 135.733059,35.039215,0</coordinates></LineString></MultiGeometry></Placemark>
<Placemark><name>d11·10 🚌 13:30 Bus urbano de Kioto: Kinkakuji-michi → Nijōjō-mae ⇒ Castillo de Nijo</name><styleUrl>#lff1fc38f6</styleUrl><description><![CDATA[SALE 13:30 de Kinkakuji-michi → LLEGA a Nijōjō-mae · Bus urbano de Kioto — sentido hacia Nijōjō (3 tramos) · rumbo del plan: Castillo de Nijo]]></description><MultiGeometry><LineString><tessellate>1</tessellate><coordinates>135.734442,35.040358,0 135.734500,35.031600,0 135.750916,35.017415,0 135.749717,35.011865,0</coordinates></LineString><LineString><tessellate>1</tessellate><coordinates>135.734630,35.035780,0 135.734474,35.035501,0 135.734315,35.035779,0</coordinates></LineString><LineString><tessellate>1</tessellate><coordinates>135.735182,35.031199,0 135.735301,35.030908,0 135.734954,35.031020,0</coordinates></LineString><LineString><tessellate>1</tessellate><coordinates>135.739248,35.027685,0 135.739368,35.027394,0 135.739020,35.027506,0</coordinates></LineString><LineString><tessellate>1</tessellate><coordinates>135.743315,35.024171,0 135.743435,35.023879,0 135.743087,35.023991,0</coordinates></LineString><LineString><tessellate>1</tessellate><coordinates>135.747382,35.020657,0 135.747501,35.020365,0 135.747154,35.020477,0</coordinates></LineString><LineString><tessellate>1</tessellate><coordinates>135.750964,35.016899,0 135.750750,35.016648,0 135.750654,35.016945,0</coordinates></LineString></MultiGeometry></Placemark>
<Placemark><name>d11·11 🚶 Nijōjō-mae → Castillo de Nijo</name><styleUrl>#lb8636f7a3</styleUrl><description><![CDATA[caminando]]></description><MultiGeometry><LineString><tessellate>1</tessellate><coordinates>135.749734,35.011864,0 135.749727,35.011808,0 135.749748,35.011807,0 135.749832,35.011804,0 135.750145,35.011793,0 135.750489,35.011780,0 135.750502,35.011780,0 135.750523,35.011779,0 135.751182,35.011750,0 135.751352,35.011743,0 135.751414,35.011748,0 135.751423,35.011767,0 135.751428,35.011838,0 135.751432,35.011939,0 135.751423,35.011946,0 135.751423,35.011982,0 135.751438,35.012148,0 135.751437,35.012208,0 135.751423,35.012248,0 135.751421,35.012260,0 135.751421,35.012398,0 135.751428,35.012617,0 135.751429,35.012629,0 135.751439,35.012658,0 135.751454,35.012692,0 135.751455,35.012699,0 135.751457,35.012726,0 135.751312,35.012727,0 135.751313,35.012768,0 135.751314,35.012867,0 135.751288,35.012867,0 135.751256,35.012868,0 135.751130,35.012870,0 135.751104,35.012870,0 135.751007,35.012872,0 135.750685,35.012879,0 135.750708,35.013143,0 135.750657,35.013143,0 135.750623,35.013144,0 135.750553,35.013145,0 135.750517,35.013107,0 135.750477,35.013065,0 135.750321,35.012901,0 135.749881,35.012903,0 135.749791,35.012904,0 135.749764,35.012971,0 135.749735,35.013005,0 135.749725,35.013031,0 135.749717,35.013050,0 135.749673,35.013112,0 135.749631,35.013153,0 135.749554,35.013216,0 135.749496,35.013353,0 135.749511,35.013489,0 135.749520,35.013683,0 135.749463,35.013724,0 135.749247,35.013745,0 135.749232,35.013760,0 135.749227,35.013774,0 135.749193,35.013871,0 135.749160,35.014021,0 135.749168,35.014073,0 135.749199,35.014121,0 135.749208,35.014171,0 135.749179,35.014173,0 135.749151,35.014167,0 135.749058,35.014128,0 135.748994,35.014090,0 135.748955,35.014057,0 135.748906,35.013999,0 135.748839,35.014000,0 135.748833,35.013912,0 135.748755,35.013915,0 135.748748,35.013915,0 135.748606,35.013918,0 135.748535,35.013919,0</coordinates></LineString><LineString><tessellate>1</tessellate><coordinates>135.751316,35.012313,0 135.751424,35.012491,0 135.751520,35.012308,0</coordinates></LineString><LineString><tessellate>1</tessellate><coordinates>135.749747,35.012747,0 135.749775,35.012944,0 135.749941,35.012800,0</coordinates></LineString></MultiGeometry></Placemark>
<Placemark><name>d11·12 🚶 Castillo de Nijo → Nijōjō-mae ⇒ Palacio Imperial de Kioto</name><styleUrl>#lb8636f7a3</styleUrl><description><![CDATA[caminando · rumbo del plan: Palacio Imperial de Kioto]]></description><MultiGeometry><LineString><tessellate>1</tessellate><coordinates>135.748535,35.013919,0 135.748606,35.013918,0 135.748748,35.013915,0 135.748755,35.013915,0 135.748833,35.013912,0 135.748839,35.014000,0 135.748906,35.013999,0 135.748955,35.014057,0 135.748994,35.014090,0 135.749058,35.014128,0 135.749151,35.014167,0 135.749179,35.014173,0 135.749208,35.014171,0 135.749199,35.014121,0 135.749168,35.014073,0 135.749160,35.014021,0 135.749193,35.013871,0 135.749227,35.013774,0 135.749232,35.013760,0 135.749247,35.013745,0 135.749463,35.013724,0 135.749520,35.013683,0 135.749511,35.013489,0 135.749496,35.013353,0 135.749554,35.013216,0 135.749631,35.013153,0 135.749673,35.013112,0 135.749717,35.013050,0 135.749725,35.013031,0 135.749735,35.013005,0 135.749764,35.012971,0 135.749791,35.012904,0 135.749881,35.012903,0 135.750321,35.012901,0 135.750477,35.013065,0 135.750517,35.013107,0 135.750553,35.013145,0 135.750623,35.013144,0 135.750657,35.013143,0 135.750708,35.013143,0 135.750685,35.012879,0 135.751007,35.012872,0 135.751104,35.012870,0 135.751130,35.012870,0 135.751256,35.012868,0 135.751288,35.012867,0 135.751314,35.012867,0 135.751313,35.012768,0 135.751312,35.012727,0 135.751457,35.012726,0 135.751455,35.012699,0 135.751454,35.012692,0 135.751439,35.012658,0 135.751429,35.012629,0 135.751428,35.012617,0 135.751421,35.012398,0 135.751421,35.012260,0 135.751423,35.012248,0 135.751437,35.012208,0 135.751438,35.012148,0 135.751423,35.011982,0 135.751423,35.011946,0 135.751432,35.011939,0 135.751428,35.011838,0 135.751423,35.011767,0 135.751414,35.011748,0 135.751352,35.011743,0 135.751182,35.011750,0 135.750523,35.011779,0 135.750502,35.011780,0 135.750489,35.011780,0 135.750145,35.011793,0 135.749832,35.011804,0 135.749748,35.011807,0 135.749727,35.011808,0 135.749734,35.011864,0</coordinates></LineString><LineString><tessellate>1</tessellate><coordinates>135.749803,35.013142,0 135.749775,35.012944,0 135.749609,35.013089,0</coordinates></LineString><LineString><tessellate>1</tessellate><coordinates>135.751532,35.012669,0 135.751424,35.012491,0 135.751328,35.012673,0</coordinates></LineString></MultiGeometry></Placemark>
<Placemark><name>d11·13 🚇 15:40 Metro Tōzai (Kioto): Nijōjō-mae → Higashiyama ⇒ Palacio Imperial de Kioto</name><styleUrl>#lff0c86c76</styleUrl><description><![CDATA[SALE 15:40 de Nijōjō-mae → LLEGA a Higashiyama · Metro Tōzai (Kioto) — sentido Rokujizō (4 tramos) · rumbo del plan: Palacio Imperial de Kioto]]></description><MultiGeometry><LineString><tessellate>1</tessellate><coordinates>135.749717,35.011865,0 135.759646,35.010824,0 135.768870,35.010899,0 135.773985,35.009291,0 135.779778,35.009434,0</coordinates></LineString><LineString><tessellate>1</tessellate><coordinates>135.755454,35.011394,0 135.755769,35.011230,0 135.755414,35.011137,0</coordinates></LineString><LineString><tessellate>1</tessellate><coordinates>135.761499,35.010969,0 135.761838,35.010841,0 135.761502,35.010709,0</coordinates></LineString><LineString><tessellate>1</tessellate><coordinates>135.767599,35.011018,0 135.767938,35.010891,0 135.767602,35.010758,0</coordinates></LineString><LineString><tessellate>1</tessellate><coordinates>135.773440,35.009601,0 135.773700,35.009381,0 135.773328,35.009358,0</coordinates></LineString></MultiGeometry></Placemark>
<Placemark><name>d11·14 🚶 Higashiyama → Palacio Imperial de Kioto</name><styleUrl>#lb8636f7a3</styleUrl><description><![CDATA[caminando]]></description><MultiGeometry><LineString><tessellate>1</tessellate><coordinates>135.779779,35.009440,0 135.779751,35.009443,0 135.779725,35.009364,0 135.779496,35.009389,0 135.779322,35.009398,0 135.779151,35.009405,0 135.779041,35.009407,0 135.778962,35.009407,0 135.778776,35.009405,0 135.778334,35.009397,0 135.778284,35.009397,0 135.778205,35.009333,0 135.778104,35.009339,0 135.778012,35.009345,0 135.777963,35.009385,0 135.777902,35.009397,0 135.777520,35.009399,0 135.777108,35.009388,0 135.776721,35.009381,0 135.776672,35.009380,0 135.776644,35.009380,0 135.776609,35.009379,0 135.776572,35.009378,0 135.776245,35.009369,0 135.776075,35.009357,0 135.775548,35.009324,0 135.775503,35.009320,0 135.775446,35.009317,0 135.775377,35.009312,0 135.775307,35.009307,0 135.774931,35.009282,0 135.774762,35.009273,0 135.774744,35.009272,0 135.774702,35.009268,0 135.774526,35.009253,0 135.774235,35.009229,0 135.773574,35.009168,0 135.773564,35.009219,0 135.773551,35.009287,0 135.773229,35.009244,0 135.773092,35.009250,0 135.772983,35.009242,0 135.772537,35.009210,0 135.772487,35.009218,0 135.772481,35.009257,0 135.772470,35.009723,0 135.772464,35.009948,0 135.772459,35.010159,0 135.772477,35.010173,0 135.772478,35.010205,0 135.772479,35.010245,0 135.772457,35.010274,0 135.772479,35.010786,0 135.772411,35.010787,0 135.772300,35.010789,0 135.772204,35.010791,0 135.772189,35.010817,0 135.772147,35.010841,0 135.772146,35.010899,0 135.772146,35.011019,0 135.772145,35.011073,0 135.772107,35.011073,0 135.771204,35.011079,0 135.771131,35.011097,0 135.771037,35.011146,0 135.770633,35.011150,0 135.770596,35.011217,0 135.770591,35.011522,0 135.770597,35.011820,0 135.770584,35.012227,0 135.770562,35.012380,0 135.770545,35.012472,0 135.770497,35.012592,0 135.770498,35.012766,0 135.770498,35.012774,0 135.770494,35.012892,0 135.770483,35.012955,0 135.770479,35.012990,0 135.770479,35.013016,0 135.770416,35.013016,0 135.770341,35.013017,0 135.770341,35.013051,0 135.770248,35.013120,0 135.770208,35.013134,0 135.770208,35.013194,0 135.770208,35.013235,0 135.769294,35.013255,0 135.769207,35.013262,0 135.769099,35.013355,0 135.769098,35.013396,0 135.769066,35.013763,0 135.769052,35.014146,0 135.769043,35.014424,0 135.769044,35.014508,0 135.769042,35.014591,0 135.769021,35.015452,0 135.768918,35.015454,0 135.768817,35.015456,0 135.768812,35.015546,0 135.768810,35.015614,0 135.768828,35.016515,0 135.768826,35.016570,0 135.768824,35.016591,0 135.768876,35.017282,0 135.768817,35.017339,0 135.768780,35.017376,0 135.768745,35.017402,0 135.768704,35.017415,0 135.768593,35.017412,0 135.768098,35.017381,0 135.767417,35.017348,0 135.767416,35.017427,0 135.767415,35.017516,0 135.767393,35.017515,0 135.767382,35.017517,0 135.767373,35.017523,0 135.767367,35.017530,0 135.767364,35.017540,0 135.767370,35.017748,0 135.767391,35.018870,0 135.767394,35.019189,0 135.767406,35.020045,0 135.767370,35.020046,0 135.767344,35.020043,0 135.767350,35.020238,0 135.767361,35.020418,0 135.767387,35.021104,0 135.767397,35.021321,0 135.767334,35.021330,0 135.767253,35.021345,0 135.767198,35.021352,0 135.767160,35.021402,0 135.767130,35.021414,0 135.767082,35.023214,0 135.767081,35.023262,0 135.766886,35.023265,0 135.766850,35.023265,0 135.766815,35.023266,0 135.766672,35.023269,0 135.766096,35.023288,0 135.764375,35.023360,0 135.763913,35.023372,0 135.763903,35.023637,0 135.763733,35.023637,0 135.763712,35.023638,0 135.763647,35.023638,0 135.763578,35.023638,0 135.763574,35.023638,0 135.762777,35.023638,0 135.762777,35.023870,0 135.762777,35.024304,0 135.762777,35.024328,0 135.762775,35.024356,0 135.762773,35.024374,0 135.762771,35.024391,0 135.762768,35.024408,0 135.762764,35.024426,0 135.762759,35.024443,0 135.762755,35.024461,0 135.762745,35.024478,0 135.762736,35.024496,0 135.762727,35.024513,0 135.762720,35.024531,0 135.762713,35.024550,0 135.762706,35.024568,0 135.762701,35.024587,0 135.762696,35.024606,0 135.762692,35.024624,0 135.762689,35.024643,0 135.762687,35.024663,0 135.762685,35.024682,0 135.762685,35.024701,0 135.762685,35.024720,0 135.762686,35.024739,0 135.762687,35.024758,0 135.762690,35.024777,0 135.762693,35.024796,0 135.762697,35.024815,0 135.762702,35.024834,0 135.762708,35.024852,0 135.762714,35.024871,0 135.762721,35.024889,0 135.762729,35.024907,0 135.762738,35.024925,0 135.762748,35.024942,0 135.762758,35.024960,0 135.762769,35.024977,0 135.762780,35.024993,0 135.762793,35.025010,0 135.762806,35.025026,0 135.762819,35.025041,0 135.762837,35.025058,0 135.762824,35.025062,0 135.762811,35.025065,0 135.762798,35.025069,0 135.762784,35.025071,0 135.762771,35.025073,0 135.762757,35.025075,0 135.762744,35.025076,0 135.762728,35.025076,0 135.762658,35.025076,0 135.762401,35.025077,0 135.762401,35.025103,0 135.762394,35.025109,0 135.762385,35.025112,0 135.762358,35.025113,0 135.762343,35.025118,0 135.762331,35.025124,0 135.762327,35.025129,0 135.762327,35.025136,0 135.762321,35.025139,0 135.762312,35.025139,0 135.762304,35.025140,0 135.762289,35.025149,0 135.762281,35.025156,0 135.762273,35.025164,0 135.762264,35.025172,0</coordinates></LineString><LineString><tessellate>1</tessellate><coordinates>135.774055,35.009128,0 135.773826,35.009191,0 135.774032,35.009295,0</coordinates></LineString><LineString><tessellate>1</tessellate><coordinates>135.770487,35.011402,0 135.770592,35.011581,0 135.770691,35.011400,0</coordinates></LineString><LineString><tessellate>1</tessellate><coordinates>135.769067,35.015367,0 135.768851,35.015455,0 135.769072,35.015535,0</coordinates></LineString><LineString><tessellate>1</tessellate><coordinates>135.767290,35.019046,0 135.767395,35.019225,0 135.767494,35.019044,0</coordinates></LineString><LineString><tessellate>1</tessellate><coordinates>135.766358,35.023195,0 135.766143,35.023286,0 135.766366,35.023363,0</coordinates></LineString></MultiGeometry></Placemark>
<Placemark><name>d11·15 🚶/🚇 Palacio Imperial de Kioto → hotel</name><styleUrl>#l80636f7a2</styleUrl><description><![CDATA[regreso (esquemático)]]></description><LineString><tessellate>1</tessellate><coordinates>135.762345,35.025264,0 135.759515,34.998313,0</coordinates></LineString></Placemark>
</Folder></Document></kml>