<?xml version="1.0" encoding="UTF-8"?>
<kml xmlns="http://www.opengis.net/kml/2.2"><Document><name>dom 18 · regreso</name><description>Recorrido del día: líneas (gruesa=transporte color oficial, delgada=a pie), ＞ sentido, paradas numeradas con hora y punto estricto.</description><Style id="p1"><IconStyle><scale>0.9</scale><Icon><href>https://maps.google.com/mapfiles/kml/paddle/1.png</href></Icon></IconStyle></Style><Style id="p2"><IconStyle><scale>0.9</scale><Icon><href>https://maps.google.com/mapfiles/kml/paddle/2.png</href></Icon></IconStyle></Style><Style id="p3"><IconStyle><scale>0.9</scale><Icon><href>https://maps.google.com/mapfiles/kml/paddle/3.png</href></Icon></IconStyle></Style><Style id="p4"><IconStyle><scale>0.9</scale><Icon><href>https://maps.google.com/mapfiles/kml/paddle/4.png</href></Icon></IconStyle></Style><Style id="p5"><IconStyle><scale>0.9</scale><Icon><href>https://maps.google.com/mapfiles/kml/paddle/5.png</href></Icon></IconStyle></Style><Style id="p6"><IconStyle><scale>0.9</scale><Icon><href>https://maps.google.com/mapfiles/kml/paddle/6.png</href></Icon></IconStyle></Style><Style id="p7"><IconStyle><scale>0.9</scale><Icon><href>https://maps.google.com/mapfiles/kml/paddle/7.png</href></Icon></IconStyle></Style><Style id="p8"><IconStyle><scale>0.9</scale><Icon><href>https://maps.google.com/mapfiles/kml/paddle/8.png</href></Icon></IconStyle></Style><Style id="p9"><IconStyle><scale>0.9</scale><Icon><href>https://maps.google.com/mapfiles/kml/paddle/9.png</href></Icon></IconStyle></Style><Style id="p10"><IconStyle><scale>0.9</scale><Icon><href>https://maps.google.com/mapfiles/kml/paddle/10.png</href></Icon></IconStyle></Style><Style id="l80636f7a2"><LineStyle><color>80636f7a</color><width>2</width></LineStyle></Style><Style id="lffb76b0d6"><LineStyle><color>ffb76b0d</color><width>6</width></LineStyle></Style><Style id="lff1700806"><LineStyle><color>ff170080</color><width>6</width></LineStyle></Style><Style id="lb8636f7a3"><LineStyle><color>b8636f7a</color><width>3</width></LineStyle></Style><Style id="lff8628526"><LineStyle><color>ff862852</color><width>6</width></LineStyle></Style><Style id="lff934de46"><LineStyle><color>ff934de4</color><width>6</width></LineStyle></Style><Style id="lff1f17e56"><LineStyle><color>ff1f17e5</color><width>6</width></LineStyle></Style><Style id="lffa0501c6"><LineStyle><color>ffa0501c</color><width>6</width></LineStyle></Style><Style id="lff00d4ff6"><LineStyle><color>ff00d4ff</color><width>6</width></LineStyle></Style><Style id="lffaf5c006"><LineStyle><color>ffaf5c00</color><width>6</width></LineStyle></Style><Style id="lff4499006"><LineStyle><color>ff449900</color><width>6</width></LineStyle></Style><Style id="lff2147816"><LineStyle><color>ff214781</color><width>6</width></LineStyle></Style><Style id="lff669a016"><LineStyle><color>ff669a01</color><width>6</width></LineStyle></Style><Style id="lff0000e86"><LineStyle><color>ff0000e8</color><width>6</width></LineStyle></Style><Style id="lff2900d76"><LineStyle><color>ff2900d7</color><width>6</width></LineStyle></Style><Style id="lffa557276"><LineStyle><color>ffa55727</color><width>6</width></LineStyle></Style><Style id="lff1fc38f6"><LineStyle><color>ff1fc38f</color><width>6</width></LineStyle></Style><Style id="lff9933666"><LineStyle><color>ff993366</color><width>6</width></LineStyle></Style><Style id="lff2b4a7a6"><LineStyle><color>ff2b4a7a</color><width>6</width></LineStyle></Style><Style id="lff0c86c76"><LineStyle><color>ff0c86c7</color><width>6</width></LineStyle></Style><Style id="lff225af16"><LineStyle><color>ff225af1</color><width>6</width></LineStyle></Style><Style id="lff0097f36"><LineStyle><color>ff0097f3</color><width>6</width></LineStyle></Style><Style id="lffc36c0f6"><LineStyle><color>ffc36c0f</color><width>6</width></LineStyle></Style><Style id="lff656eec6"><LineStyle><color>ff656eec</color><width>6</width></LineStyle></Style><Style id="lffa0862c6"><LineStyle><color>ffa0862c</color><width>6</width></LineStyle></Style><Style id="lff2f25c96"><LineStyle><color>ff2f25c9</color><width>6</width></LineStyle></Style><Style id="lff32cd9a6"><LineStyle><color>ff32cd9a</color><width>6</width></LineStyle></Style><Style id="lff301be26"><LineStyle><color>ff301be2</color><width>6</width></LineStyle></Style><Style id="lff0388006"><LineStyle><color>ff038800</color><width>6</width></LineStyle></Style><Style id="lff9c46296"><LineStyle><color>ff9c4629</color><width>6</width></LineStyle></Style><Style id="lff1200e66"><LineStyle><color>ff1200e6</color><width>6</width></LineStyle></Style><Style id="lffb7ae9c6"><LineStyle><color>ffb7ae9c</color><width>6</width></LineStyle></Style><Style id="lff207bf46"><LineStyle><color>ff207bf4</color><width>6</width></LineStyle></Style><Folder><name>dom 18 · regreso</name>
<Placemark><name>d18·1 🚶 Hotel → Busta Shinjuku ⇒ hotel</name><styleUrl>#lb8636f7a3</styleUrl><description><![CDATA[caminando · rumbo del plan: hotel]]></description><MultiGeometry><LineString><tessellate>1</tessellate><coordinates>139.693103,35.694399,0 139.693088,35.694372,0 139.693148,35.694243,0 139.693106,35.694173,0 139.693304,35.694117,0 139.693933,35.693938,0 139.693981,35.693923,0 139.694024,35.693910,0 139.694312,35.693827,0 139.694374,35.693809,0 139.694530,35.693766,0 139.694785,35.693696,0 139.694833,35.693653,0 139.694923,35.693625,0 139.695025,35.693590,0 139.695080,35.693575,0 139.695119,35.693563,0 139.695203,35.693584,0 139.695291,35.693558,0 139.695829,35.693402,0 139.696024,35.693345,0 139.696645,35.693165,0 139.696742,35.693136,0 139.696805,35.693112,0 139.696810,35.693109,0 139.696850,35.693074,0 139.696854,35.693071,0 139.696857,35.693013,0 139.696858,35.693007,0 139.696868,35.693004,0 139.697119,35.692981,0 139.697162,35.692900,0 139.697167,35.692896,0 139.697183,35.692881,0 139.697147,35.692869,0 139.697150,35.692864,0 139.697158,35.692850,0 139.697239,35.692870,0 139.697434,35.692718,0 139.697851,35.692378,0 139.697992,35.692258,0 139.698007,35.692215,0 139.698013,35.692182,0 139.698016,35.692171,0 139.698021,35.692144,0 139.698037,35.692120,0 139.698042,35.692053,0 139.698045,35.692011,0 139.698046,35.691997,0 139.698049,35.691968,0 139.698051,35.691944,0 139.698053,35.691924,0 139.698072,35.691662,0 139.698074,35.691642,0 139.698083,35.691518,0 139.698753,35.691560,0 139.698788,35.691555,0 139.698813,35.691547,0 139.698837,35.691538,0 139.698862,35.691522,0 139.698881,35.691505,0 139.698920,35.691506,0 139.698962,35.691509,0 139.699091,35.691517,0 139.699189,35.691522,0 139.699184,35.691064,0 139.699258,35.691052,0 139.699551,35.691010,0 139.699569,35.690861,0 139.699594,35.690681,0 139.699621,35.690591,0 139.699642,35.690449,0 139.699679,35.690198,0 139.699692,35.690115,0 139.699739,35.689780,0 139.699760,35.689662,0 139.699774,35.689665,0 139.699778,35.689652,0 139.699789,35.689608,0 139.699800,35.689565,0 139.699736,35.689554,0 139.699813,35.689275,0 139.700023,35.689313,0 139.700293,35.689360,0 139.700316,35.689269,0 139.700331,35.689215,0 139.700347,35.689154,0 139.700395,35.688955,0 139.700177,35.688914,0 139.700073,35.688883,0 139.700085,35.688860,0 139.700126,35.688773,0 139.700156,35.688749,0 139.700190,35.688751,0 139.700237,35.688760,0 139.700238,35.688754,0 139.700246,35.688721,0 139.700274,35.688604,0 139.700356,35.688268,0 139.700378,35.688172,0 139.700386,35.688162,0 139.700400,35.688145,0 139.700417,35.688127,0 139.700427,35.688117,0 139.700438,35.688106,0 139.700452,35.688093,0 139.700469,35.688082,0 139.700512,35.688088,0 139.700491,35.688111,0 139.700433,35.688173,0 139.700431,35.688181,0 139.700429,35.688189,0 139.700415,35.688248,0 139.700384,35.688376,0</coordinates></LineString><LineString><tessellate>1</tessellate><coordinates>139.695291,35.693647,0 139.695464,35.693508,0 139.695222,35.693489,0</coordinates></LineString><LineString><tessellate>1</tessellate><coordinates>139.697652,35.692659,0 139.697735,35.692472,0 139.697507,35.692540,0</coordinates></LineString><LineString><tessellate>1</tessellate><coordinates>139.699290,35.691365,0 139.699185,35.691186,0 139.699084,35.691367,0</coordinates></LineString><LineString><tessellate>1</tessellate><coordinates>139.699656,35.689333,0 139.699894,35.689290,0 139.699700,35.689168,0</coordinates></LineString></MultiGeometry></Placemark>
<Placemark><name>d18·2 🚌 08:30 Airport Limousine Bus: Busta Shinjuku → Haneda T3 ⇒ hotel</name><styleUrl>#lff207bf46</styleUrl><description><![CDATA[SALE 08:30 de Busta Shinjuku → LLEGA a Haneda T3 · Airport Limousine Bus — sentido Haneda Airport T3 (1 tramos) · rumbo del plan: hotel]]></description><MultiGeometry><LineString><tessellate>1</tessellate><coordinates>139.700362,35.688373,0 139.768652,35.543887,0</coordinates></LineString><LineString><tessellate>1</tessellate><coordinates>139.707975,35.672626,0 139.707949,35.672319,0 139.707678,35.672532,0</coordinates></LineString><LineString><tessellate>1</tessellate><coordinates>139.715563,35.656572,0 139.715537,35.656265,0 139.715266,35.656478,0</coordinates></LineString><LineString><tessellate>1</tessellate><coordinates>139.723150,35.640518,0 139.723125,35.640211,0 139.722854,35.640424,0</coordinates></LineString><LineString><tessellate>1</tessellate><coordinates>139.730738,35.624464,0 139.730713,35.624157,0 139.730442,35.624370,0</coordinates></LineString><LineString><tessellate>1</tessellate><coordinates>139.738326,35.608410,0 139.738301,35.608103,0 139.738030,35.608316,0</coordinates></LineString><LineString><tessellate>1</tessellate><coordinates>139.745914,35.592356,0 139.745889,35.592049,0 139.745618,35.592262,0</coordinates></LineString><LineString><tessellate>1</tessellate><coordinates>139.753502,35.576302,0 139.753477,35.575995,0 139.753206,35.576208,0</coordinates></LineString><LineString><tessellate>1</tessellate><coordinates>139.761090,35.560248,0 139.761065,35.559941,0 139.760794,35.560155,0</coordinates></LineString></MultiGeometry></Placemark>
</Folder></Document></kml>