<?xml version="1.0" encoding="UTF-8"?>
<kml xmlns="http://www.opengis.net/kml/2.2"><Document>
<name>Japón familiar · oct 2026</name>
<description>Todos los puntos del itinerario — generado desde la app del viaje. ⭐ sitios · 🍜 restaurantes (🎋 Take barato / 🌊 Ai medio / 🔴 Shu caro) · 🏨 hoteles.</description>
<Style id="sitio_osaka"><IconStyle><scale>1.1</scale><Icon><href>https://maps.google.com/mapfiles/kml/paddle/red-stars.png</href></Icon></IconStyle></Style>
<Style id="sitio_hiroshima"><IconStyle><scale>1.1</scale><Icon><href>https://maps.google.com/mapfiles/kml/paddle/red-stars.png</href></Icon></IconStyle></Style>
<Style id="sitio_nara"><IconStyle><scale>1.1</scale><Icon><href>https://maps.google.com/mapfiles/kml/paddle/red-stars.png</href></Icon></IconStyle></Style>
<Style id="sitio_kioto"><IconStyle><scale>1.1</scale><Icon><href>https://maps.google.com/mapfiles/kml/paddle/red-stars.png</href></Icon></IconStyle></Style>
<Style id="sitio_tokio"><IconStyle><scale>1.1</scale><Icon><href>https://maps.google.com/mapfiles/kml/paddle/red-stars.png</href></Icon></IconStyle></Style>
<Style id="sitio_fuji"><IconStyle><scale>1.1</scale><Icon><href>https://maps.google.com/mapfiles/kml/paddle/red-stars.png</href></Icon></IconStyle></Style>
<Style id="take"><IconStyle><scale>1.1</scale><Icon><href>https://maps.google.com/mapfiles/kml/paddle/grn-circle.png</href></Icon></IconStyle></Style>
<Style id="ai"><IconStyle><scale>1.1</scale><Icon><href>https://maps.google.com/mapfiles/kml/paddle/blu-circle.png</href></Icon></IconStyle></Style>
<Style id="shu"><IconStyle><scale>1.1</scale><Icon><href>https://maps.google.com/mapfiles/kml/paddle/red-circle.png</href></Icon></IconStyle></Style>
<Style id="resto"><IconStyle><scale>1.1</scale><Icon><href>https://maps.google.com/mapfiles/kml/paddle/wht-circle.png</href></Icon></IconStyle></Style>
<Style id="hotel"><IconStyle><scale>1.1</scale><Icon><href>https://maps.google.com/mapfiles/kml/paddle/ylw-stars.png</href></Icon></IconStyle></Style>
<Style id="aero"><IconStyle><scale>1.1</scale><Icon><href>https://maps.google.com/mapfiles/kml/paddle/purple-square.png</href></Icon></IconStyle></Style>
<Folder><name>1 · Osaka (dom 4 – jue 8)</name>
<Placemark><name>⭐ Castillo de Osaka</name><styleUrl>#sitio_osaka</styleUrl><description><![CDATA[El símbolo de la ciudad: torre de 8 pisos entre fosos y murallas ciclópeas, rodeada de un parque enorme. El museo interior cuenta la era de los unificadores; la vista desde arriba abarca todo Osaka. — EN EL PLAN: dom 4 · 14:15<br/><a href="https://www.google.com/maps/search/?api=1&amp;query=Osaka%20Castle">Abrir en Google Maps</a>]]></description><Point><coordinates>135.525855,34.687257,0</coordinates></Point></Placemark>
<Placemark><name>⭐ Dotonbori</name><styleUrl>#sitio_osaka</styleUrl><description><![CDATA[El canal de neón más famoso de Japón: el corredor de Glico, el cangrejo gigante que se mueve, puestos, barcos y ruido feliz. De noche es otro planeta. — EN EL PLAN: dom 4 · 19:30<br/><a href="https://www.google.com/maps/search/?api=1&amp;query=Dotonbori%20Osaka">Abrir en Google Maps</a>]]></description><Point><coordinates>135.503098,34.668647,0</coordinates></Point></Placemark>
<Placemark><name>⭐ Hōzen-ji</name><styleUrl>#sitio_osaka</styleUrl><description><![CDATA[Templito escondido en un callejón empedrado: el buda Fudō Myōō está cubierto de musgo porque cada visitante le avienta agua al pedir su deseo. — EN EL PLAN: dom 4 · 17:05<br/><a href="https://www.google.com/maps/search/?api=1&amp;query=Hozenji%20Temple%20Osaka">Abrir en Google Maps</a>]]></description><Point><coordinates>135.502468,34.667940,0</coordinates></Point></Placemark>
<Placemark><name>⭐ Namba Yasaka</name><styleUrl>#sitio_osaka</styleUrl><description><![CDATA[El santuario de la cabeza de león gigante: 12 m de fauces abiertas que se tragan la mala suerte. Foto obligada, visita de 20 minutos. — EN EL PLAN: dom 4 · 17:05<br/><a href="https://www.google.com/maps/search/?api=1&amp;query=Namba%20Yasaka%20Shrine%20Osaka">Abrir en Google Maps</a>]]></description><Point><coordinates>135.496704,34.661559,0</coordinates></Point></Placemark>
<Placemark><name>⭐ Shinsekai</name><styleUrl>#sitio_osaka</styleUrl><description><![CDATA[El barrio retro de Osaka: farolitos, kushikatsu, pachinkos y la torre Tsūtenkaku al centro. 'El Nuevo Mundo' que se quedó congelado a mitad del siglo XX — hoy es puro encanto. — EN EL PLAN: jue 8 · 09:30<br/><a href="https://www.google.com/maps/search/?api=1&amp;query=Shinsekai%20Osaka">Abrir en Google Maps</a>]]></description><Point><coordinates>135.505956,34.651601,0</coordinates></Point></Placemark>
<Placemark><name>⭐ Tsūtenkaku</name><styleUrl>#sitio_osaka</styleUrl><description><![CDATA[La torre de 103 m de Shinsekai: mirador, neones de anuncio y el dios Billiken — tócale los pies y pide un deseo. — EN EL PLAN: jue 8 · 09:30<br/><a href="https://www.google.com/maps/search/?api=1&amp;query=Tsutenkaku%20Osaka">Abrir en Google Maps</a>]]></description><Point><coordinates>135.506306,34.652499,0</coordinates></Point></Placemark>
<Placemark><name>⭐ Abeno Harukas</name><styleUrl>#sitio_osaka</styleUrl><description><![CDATA[El rascacielos más alto de Osaka (300 m): el mirador Harukas 300 ocupa los pisos 58–60 con vista de 360° — en día claro se alcanza Kioto y el mar. — EN EL PLAN: jue 8 · 14:00<br/><a href="https://www.google.com/maps/search/?api=1&amp;query=Abeno%20Harukas%20300%20Osaka">Abrir en Google Maps</a>]]></description><Point><coordinates>135.513309,34.646306,0</coordinates></Point></Placemark>
<Placemark><name>⭐ Super Nintendo World</name><styleUrl>#sitio_osaka</styleUrl><description><![CDATA[El mundo de Mario a escala real: entras por un tubo warp, los bloques suenan al golpearlos, Mario Kart es un ride con realidad aumentada y la Power-Up Band convierte el área entera en videojuego. — EN EL PLAN: mar 6 · 08:30<br/><a href="https://www.google.com/maps/search/?api=1&amp;query=Super%20Nintendo%20World%20Osaka">Abrir en Google Maps</a>]]></description><Point><coordinates>135.430323,34.667966,0</coordinates></Point></Placemark>
<Placemark><name>⭐ Universal Studios Japan</name><styleUrl>#sitio_osaka</styleUrl><description><![CDATA[El parque de Universal en Osaka: Nintendo, Harry Potter, Minions, Jaws — y en octubre, ambientación de Halloween. La fila temprana es LA estrategia. — EN EL PLAN: mar 6 · 06:45<br/><a href="https://www.google.com/maps/search/?api=1&amp;query=Universal%20Studios%20Japan">Abrir en Google Maps</a>]]></description><Point><coordinates>135.432319,34.665677,0</coordinates></Point></Placemark>
<Placemark><name>⭐ Parque Tennōji + Keitakuen</name><styleUrl>#sitio_osaka</styleUrl><description><![CDATA[Parque urbano con el jardín japonés Keitakuen al centro: estanque, pinos podados y silencio — un respiro entre Shinsekai y Abeno. — EN EL PLAN: jue 8 · 11:10<br/><a href="https://www.google.com/maps/search/?api=1&amp;query=Keitakuen%20Garden%20Osaka">Abrir en Google Maps</a>]]></description><Point><coordinates>135.511583,34.649657,0</coordinates></Point></Placemark>
<Placemark><name>🍜 Acchichi Honpo</name><styleUrl>#take</styleUrl><description><![CDATA[Takoyaki hecho al momento, de pie en Dotonbori · ¥600 · Nivel 🎋 Take — días: dom 4 · mar 6<br/><a href="https://www.google.com/maps/search/?api=1&amp;query=Acchichi%20Honpo%20Dotonbori%20Osaka">Abrir en Google Maps</a>]]></description><Point><coordinates>135.503199,34.669240,0</coordinates></Point></Placemark>
<Placemark><name>🍜 Kinryu Ramen</name><styleUrl>#take</styleUrl><description><![CDATA[Ramen del dragón dorado, abierto casi siempre · ¥900 · Nivel 🎋 Take — días: dom 4 · mar 6<br/><a href="https://www.google.com/maps/search/?api=1&amp;query=Kinryu%20Ramen%20Dotonbori">Abrir en Google Maps</a>]]></description><Point><coordinates>135.503052,34.668669,0</coordinates></Point></Placemark>
<Placemark><name>🍜 Ichiran Dotonbori</name><styleUrl>#take</styleUrl><description><![CDATA[Tonkotsu en cabina individual — el rito clásico · ¥980–1,320 · Nivel 🎋 Take — días: dom 4 · mar 6 · mié 7<br/><a href="https://www.google.com/maps/search/?api=1&amp;query=Ichiran%20Dotonbori%20Honkan">Abrir en Google Maps</a>]]></description><Point><coordinates>135.503224,34.668422,0</coordinates></Point></Placemark>
<Placemark><name>🍜 Mizuno</name><styleUrl>#ai</styleUrl><description><![CDATA[Okonomiyaki de tradición (1945), fila corta de noche · ¥1,600 · Nivel 🌊 Ai — días: dom 4 · mar 6<br/><a href="https://www.google.com/maps/search/?api=1&amp;query=Okonomiyaki%20Mizuno%20Dotonbori">Abrir en Google Maps</a>]]></description><Point><coordinates>135.503223,34.668355,0</coordinates></Point></Placemark>
<Placemark><name>🍜 Chibo</name><styleUrl>#ai</styleUrl><description><![CDATA[Okonomiyaki con plancha en la mesa · ¥2,000 · Nivel 🌊 Ai — días: dom 4 · mar 6<br/><a href="https://www.google.com/maps/search/?api=1&amp;query=Chibo%20Okonomiyaki%20Dotonbori">Abrir en Google Maps</a>]]></description><Point><coordinates>135.503838,34.668855,0</coordinates></Point></Placemark>
<Placemark><name>🍜 Daruma Dotonbori</name><styleUrl>#ai</styleUrl><description><![CDATA[Kushikatsu (brochetas empanizadas) — regla: NO doble dip · ¥2,500 · Nivel 🌊 Ai — días: dom 4 · mar 6<br/><a href="https://www.google.com/maps/search/?api=1&amp;query=Kushikatsu%20Daruma%20Dotonbori">Abrir en Google Maps</a>]]></description><Point><coordinates>135.502638,34.668835,0</coordinates></Point></Placemark>
<Placemark><name>🍜 Hariju</name><styleUrl>#shu</styleUrl><description><![CDATA[Sukiyaki y shabu de res, casona de 1948 frente al canal · ¥7–10,000 · Nivel 🔴 Shu — días: dom 4 · mar 6<br/><a href="https://www.google.com/maps/search/?api=1&amp;query=Harijyu%20Dotonbori%20Osaka">Abrir en Google Maps</a>]]></description><Point><coordinates>135.500647,34.668541,0</coordinates></Point></Placemark>
<Placemark><name>🍜 Kani Douraku honten</name><styleUrl>#shu</styleUrl><description><![CDATA[Kaiseki de cangrejo — el del letrero gigante que se mueve · ¥6–12,000 · Nivel 🔴 Shu — días: dom 4 · mar 6 · mié 7<br/><a href="https://www.google.com/maps/search/?api=1&amp;query=Kani%20Doraku%20Dotonbori%20Honten">Abrir en Google Maps</a>]]></description><Point><coordinates>135.501487,34.668799,0</coordinates></Point></Placemark>
<Placemark><name>🍜 Matsusakagyu M Dotonbori</name><styleUrl>#shu</styleUrl><description><![CDATA[Yakiniku de res Matsusaka (rival de Kobe) · ¥8–12,000 · Nivel 🔴 Shu — días: dom 4 · mar 6 · mié 7<br/><a href="https://www.google.com/maps/search/?api=1&amp;query=Yakiniku%20M%20Dotonbori">Abrir en Google Maps</a>]]></description><Point><coordinates>135.502594,34.671486,0</coordinates></Point></Placemark>
<Placemark><name>🍜 Yaekatsu</name><styleUrl>#take</styleUrl><description><![CDATA[Kushikatsu de Shinsekai, favorito de locales · ¥1,600 · Nivel 🎋 Take — días: jue 8<br/><a href="https://www.google.com/maps/search/?api=1&amp;query=Yaekatsu%20Shinsekai%20Osaka">Abrir en Google Maps</a>]]></description><Point><coordinates>135.506015,34.649697,0</coordinates></Point></Placemark>
<Placemark><name>🍜 Kushikatsu Tengu</name><styleUrl>#take</styleUrl><description><![CDATA[Kushikatsu clásico del barrio retro · ¥1,800 · Nivel 🎋 Take — días: jue 8<br/><a href="https://www.google.com/maps/search/?api=1&amp;query=Kushikatsu%20Tengu%20Shinsekai">Abrir en Google Maps</a>]]></description><Point><coordinates>135.506058,34.651643,0</coordinates></Point></Placemark>
<Placemark><name>🍜 Daruma (original 1929)</name><styleUrl>#take</styleUrl><description><![CDATA[La casa madre del kushikatsu, donde nació · ¥2,000 · Nivel 🎋 Take — días: jue 8<br/><a href="https://www.google.com/maps/search/?api=1&amp;query=Kushikatsu%20Daruma%20Shinsekai%20Honten">Abrir en Google Maps</a>]]></description><Point><coordinates>135.506203,34.651570,0</coordinates></Point></Placemark>
<Placemark><name>🍜 Matsusakagyu M Namba</name><styleUrl>#ai</styleUrl><description><![CDATA[Yakiniku Matsusaka, sucursal Namba — reservar · ¥8–10,000 · Nivel 🌊 Ai — días: mié 7 · jue 8<br/><a href="https://www.google.com/maps/search/?api=1&amp;query=Yakiniku%20M%20Namba">Abrir en Google Maps</a>]]></description><Point><coordinates>135.502594,34.671486,0</coordinates></Point></Placemark>
<Placemark><name>🍜 Torikizoku</name><styleUrl>#take</styleUrl><description><![CDATA[Yakitori de cadena: TODO a ¥370 el pincho — ideal 10 personas · ¥2,500 · Nivel 🎋 Take — días: mié 7 · vie 16<br/><a href="https://www.google.com/maps/search/?api=1&amp;query=Torikizoku%20Namba">Abrir en Google Maps</a>]]></description><Point><coordinates>135.502786,34.664054,0</coordinates></Point></Placemark>
<Placemark><name>🍜 Kushikatsu Bon</name><styleUrl>#ai</styleUrl><description><![CDATA[Kushikatsu omakase refinado (estrella Michelin) — reservar · ¥6,000 · Nivel 🌊 Ai — días: mié 7<br/><a href="https://www.google.com/maps/search/?api=1&amp;query=Kushikatsu%20Bon%20Osaka">Abrir en Google Maps</a>]]></description><Point><coordinates>135.497225,34.696607,0</coordinates></Point></Placemark>
<Placemark><name>🍜 Misono</name><styleUrl>#shu</styleUrl><description><![CDATA[El INVENTOR del teppanyaki (1945): res Kobe en plancha · ¥12–15,000 · Nivel 🔴 Shu — días: mié 7<br/><a href="https://www.google.com/maps/search/?api=1&amp;query=Misono%20teppanyaki%20Osaka">Abrir en Google Maps</a>]]></description><Point><coordinates>135.499083,34.697864,0</coordinates></Point></Placemark>
<Placemark><name>🍜 CoCo Ichibanya</name><styleUrl>#ai</styleUrl><description><![CDATA[Curry japonés de cadena — apapacho garantizado · ¥1,200 · Nivel 🌊 Ai — días: lun 5<br/><a href="https://www.google.com/maps/search/?api=1&amp;query=CoCo%20Ichibanya%20Kitahama">Abrir en Google Maps</a>]]></description><Point><coordinates>135.494466,34.700697,0</coordinates></Point></Placemark>
<Placemark><name>🍜 Janjan Yokocho</name><styleUrl>#resto</styleUrl><description><![CDATA[Callejón de 20 barras de kushikatsu e izakaya — llegar y escoger · ¥2–3,500 · Nivel 🍴 — días: jue 8<br/><a href="https://www.google.com/maps/search/?api=1&amp;query=Janjan%20Yokocho%20Osaka">Abrir en Google Maps</a>]]></description><Point><coordinates>135.505926,34.649413,0</coordinates></Point></Placemark>
<Placemark><name>🏨 Royal Park Canvas Kitahama (Osaka, 4 noches)</name><styleUrl>#hotel</styleUrl><description><![CDATA[<a href="https://www.google.com/maps/search/?api=1&amp;query=Royal%20Park%20Canvas%20Osaka%20Kitahama">Abrir en Google Maps</a>]]></description><Point><coordinates>135.506923,34.690921,0</coordinates></Point></Placemark>
<Placemark><name>✈️ Osaka Itami (vuelo ANA dom 4, 9:00)</name><styleUrl>#aero</styleUrl><description><![CDATA[<a href="https://www.google.com/maps/search/?api=1&amp;query=Osaka%20Itami%20Airport">Abrir en Google Maps</a>]]></description><Point><coordinates>135.438048,34.786161,0</coordinates></Point></Placemark>
</Folder>
<Folder><name>2 · Hiroshima + Miyajima (lun 5)</name>
<Placemark><name>⭐ Isla de Miyajima</name><styleUrl>#sitio_hiroshima</styleUrl><description><![CDATA[La isla sagrada frente a Hiroshima: el torii flotante, venados sueltos, la calle Omotesando con momiji manju y ostras a la parrilla, y el monte Misen detrás. — EN EL PLAN: lun 5 · 10:15<br/><a href="https://www.google.com/maps/search/?api=1&amp;query=Miyajima%20Island">Abrir en Google Maps</a>]]></description><Point><coordinates>132.305249,34.273211,0</coordinates></Point></Placemark>
<Placemark><name>⭐ Santuario Itsukushima</name><styleUrl>#sitio_hiroshima</styleUrl><description><![CDATA[El santuario sobre pilotes que 'flota' en marea alta, con su torii bermellón de 16 m plantado en el mar — Patrimonio UNESCO. — EN EL PLAN: lun 5 · 10:15<br/><a href="https://www.google.com/maps/search/?api=1&amp;query=Itsukushima%20Shrine%20Miyajima">Abrir en Google Maps</a>]]></description><Point><coordinates>132.319828,34.295990,0</coordinates></Point></Placemark>
<Placemark><name>⭐ Parque Memorial de la Paz</name><styleUrl>#sitio_hiroshima</styleUrl><description><![CDATA[El parque en el hipocentro: el Domo, el cenotafio, el museo, las mil grullas de Sadako y la llama que no se apagará hasta que desaparezca la última arma nuclear. — EN EL PLAN: lun 5 · 14:50<br/><a href="https://www.google.com/maps/search/?api=1&amp;query=Hiroshima%20Peace%20Memorial%20Park">Abrir en Google Maps</a>]]></description><Point><coordinates>132.452201,34.392687,0</coordinates></Point></Placemark>
<Placemark><name>⭐ Domo de la Bomba Atómica</name><styleUrl>#sitio_hiroshima</styleUrl><description><![CDATA[El esqueleto del antiguo Palacio de Exposiciones, dejado EXACTAMENTE como quedó — el edificio en pie más cercano al hipocentro. — EN EL PLAN: lun 5 · 14:50<br/><a href="https://www.google.com/maps/search/?api=1&amp;query=Atomic%20Bomb%20Dome%20Hiroshima">Abrir en Google Maps</a>]]></description><Point><coordinates>132.453592,34.395483,0</coordinates></Point></Placemark>
</Folder>
<Folder><name>3 · Nara (mié 7)</name>
<Placemark><name>⭐ Parque de Nara</name><styleUrl>#sitio_nara</styleUrl><description><![CDATA[El parque donde ~1,300 venados sika viven sueltos y hacen reverencia pidiendo galletas (shika senbei, ¥200). Entre ellos: templos, museos y céspedes infinitos. — EN EL PLAN: mié 7 · 06:30<br/><a href="https://www.google.com/maps/search/?api=1&amp;query=Nara%20Park">Abrir en Google Maps</a>]]></description><Point><coordinates>135.843012,34.685047,0</coordinates></Point></Placemark>
<Placemark><name>⭐ Tōdai-ji</name><styleUrl>#sitio_nara</styleUrl><description><![CDATA[El Gran Buda: 15 m de bronce sentado dentro de uno de los edificios de madera más grandes del mundo. Cruzar la puerta y verlo quita el aliento. — EN EL PLAN: mié 7 · 07:30<br/><a href="https://www.google.com/maps/search/?api=1&amp;query=Todaiji%20Temple%20Nara">Abrir en Google Maps</a>]]></description><Point><coordinates>135.839816,34.688985,0</coordinates></Point></Placemark>
<Placemark><name>⭐ Kasuga Taisha</name><styleUrl>#sitio_nara</styleUrl><description><![CDATA[El santuario de las 3,000 linternas: piedra cubierta de musgo en el sendero, bronce dorado colgando de los pasillos bermellón. — EN EL PLAN: mié 7 · 09:35<br/><a href="https://www.google.com/maps/search/?api=1&amp;query=Kasuga%20Taisha%20Nara">Abrir en Google Maps</a>]]></description><Point><coordinates>135.848472,34.681545,0</coordinates></Point></Placemark>
<Placemark><name>⭐ Kōfuku-ji</name><styleUrl>#sitio_nara</styleUrl><description><![CDATA[La pagoda de 5 pisos que es el ícono de Nara (50 m, la segunda más alta de Japón), con salones llenos de budas Tesoro Nacional. — EN EL PLAN: mié 7 · 10:50<br/><a href="https://www.google.com/maps/search/?api=1&amp;query=Kofukuji%20Nara">Abrir en Google Maps</a>]]></description><Point><coordinates>135.831159,34.683231,0</coordinates></Point></Placemark>
<Placemark><name>⭐ Naramachi</name><styleUrl>#sitio_nara</styleUrl><description><![CDATA[El casco viejo de casitas de madera (machiya): tiendas artesanales, cafés en patios y los monitos rojos colgantes que protegen las casas. — EN EL PLAN: mié 7 · 11:50<br/><a href="https://www.google.com/maps/search/?api=1&amp;query=Naramachi%20Nara">Abrir en Google Maps</a>]]></description><Point><coordinates>135.834834,34.676001,0</coordinates></Point></Placemark>
<Placemark><name>⭐ Jardín Yoshikien</name><styleUrl>#sitio_nara</styleUrl><description><![CDATA[Tres jardines en uno — musgo, estanque y casa de té — gratis para visitantes extranjeros y casi siempre vacío. — EN EL PLAN: mié 7 · 13:45<br/><a href="https://www.google.com/maps/search/?api=1&amp;query=Yoshikien%20Garden%20Nara">Abrir en Google Maps</a>]]></description><Point><coordinates>135.836310,34.685476,0</coordinates></Point></Placemark>
</Folder>
<Folder><name>4 · Kioto (jue 8 – lun 12)</name>
<Placemark><name>⭐ Kiyomizu-dera</name><styleUrl>#sitio_kioto</styleUrl><description><![CDATA[El templo del balcón: una terraza de madera colgada sobre el valle, sostenida por 168 pilares SIN un solo clavo, con Kioto entero de fondo. — EN EL PLAN: vie 9 · 05:00<br/><a href="https://www.google.com/maps/search/?api=1&amp;query=Kiyomizu-dera%20Kyoto">Abrir en Google Maps</a>]]></description><Point><coordinates>135.784661,34.994666,0</coordinates></Point></Placemark>
<Placemark><name>⭐ Sannenzaka y Ninenzaka</name><styleUrl>#sitio_kioto</styleUrl><description><![CDATA[Las dos cuestas empedradas más bonitas de Japón: machiya de madera, cerámica, dulces y faroles — el Kioto de postal. — EN EL PLAN: vie 9 · 07:15<br/><a href="https://www.google.com/maps/search/?api=1&amp;query=Sannenzaka%20Kyoto">Abrir en Google Maps</a>]]></description><Point><coordinates>135.781008,34.996664,0</coordinates></Point></Placemark>
<Placemark><name>⭐ Pagoda Yasaka (Hōkan-ji)</name><styleUrl>#sitio_kioto</styleUrl><description><![CDATA[46 m de madera del siglo XV emergiendo entre callejones — LA foto de Kioto, sobre todo con la luz del atardecer. — EN EL PLAN: vie 9 · 07:15<br/><a href="https://www.google.com/maps/search/?api=1&amp;query=Yasaka%20Pagoda%20Kyoto">Abrir en Google Maps</a>]]></description><Point><coordinates>135.779236,34.998558,0</coordinates></Point></Placemark>
<Placemark><name>⭐ Ryōzen Kannon</name><styleUrl>#sitio_kioto</styleUrl><description><![CDATA[La Kannon blanca de 24 m que vigila Higashiyama desde la ladera — casi nadie entra y es serenísima. — EN EL PLAN: vie 9 · 08:40<br/><a href="https://www.google.com/maps/search/?api=1&amp;query=Ryozen%20Kannon%20Kyoto">Abrir en Google Maps</a>]]></description><Point><coordinates>135.781907,34.999902,0</coordinates></Point></Placemark>
<Placemark><name>⭐ Santuario Yasaka</name><styleUrl>#sitio_kioto</styleUrl><description><![CDATA[El santuario de Gion: linternas que se encienden al anochecer, puertas bermellón, y el paso natural entre el barrio de las geishas y el parque Maruyama. — EN EL PLAN: vie 9 · 08:00<br/><a href="https://www.google.com/maps/search/?api=1&amp;query=Yasaka%20Shrine%20Kyoto">Abrir en Google Maps</a>]]></description><Point><coordinates>135.778553,35.003656,0</coordinates></Point></Placemark>
<Placemark><name>⭐ Sanjūsangen-dō</name><styleUrl>#sitio_kioto</styleUrl><description><![CDATA[Un salón de 120 m con 1,001 Kannon doradas en formación más 28 guardianes — la sala de madera más larga de Japón. Impacta en silencio absoluto. — EN EL PLAN: vie 9 · 09:30<br/><a href="https://www.google.com/maps/search/?api=1&amp;query=Sanjusangendo%20Kyoto">Abrir en Google Maps</a>]]></description><Point><coordinates>135.771713,34.987884,0</coordinates></Point></Placemark>
<Placemark><name>⭐ Bosque de bambú</name><styleUrl>#sitio_kioto</styleUrl><description><![CDATA[El túnel de bambúes de 20 m que se mecen y suenan — ese sonido está catalogado como patrimonio sonoro de Japón. Temprano es un templo; a las 10 am, un andén del metro. — EN EL PLAN: sáb 10 · 05:00<br/><a href="https://www.google.com/maps/search/?api=1&amp;query=Arashiyama%20Bamboo%20Grove%20Kyoto">Abrir en Google Maps</a>]]></description><Point><coordinates>135.671301,35.016819,0</coordinates></Point></Placemark>
<Placemark><name>⭐ Puente Togetsukyō</name><styleUrl>#sitio_kioto</styleUrl><description><![CDATA['El puente que cruza la luna': 155 m sobre el río Katsura, con el monte Arashiyama encendido de colores detrás. — EN EL PLAN: sáb 10 · 07:20<br/><a href="https://www.google.com/maps/search/?api=1&amp;query=Togetsukyo%20Bridge%20Arashiyama">Abrir en Google Maps</a>]]></description><Point><coordinates>135.677775,35.012877,0</coordinates></Point></Placemark>
<Placemark><name>⭐ Tenryū-ji</name><styleUrl>#sitio_kioto</styleUrl><description><![CDATA[El gran templo zen de Arashiyama: su jardín del estanque Sōgenchi lleva 700 años EXACTAMENTE igual, con las montañas 'prestadas' como fondo. UNESCO. — EN EL PLAN: sáb 10 · 08:30<br/><a href="https://www.google.com/maps/search/?api=1&amp;query=Tenryuji%20Temple%20Kyoto">Abrir en Google Maps</a>]]></description><Point><coordinates>135.673765,35.015838,0</coordinates></Point></Placemark>
<Placemark><name>⭐ Monte de los monos (Iwatayama)</name><styleUrl>#sitio_kioto</styleUrl><description><![CDATA[120 macacos japoneses libres en la cima: subes 20 minutos y ELLOS te observan a ti — con la mejor vista panorámica de Kioto de regalo. — EN EL PLAN: sáb 10 · 10:30<br/><a href="https://www.google.com/maps/search/?api=1&amp;query=Iwatayama%20Monkey%20Park%20Kyoto">Abrir en Google Maps</a>]]></description><Point><coordinates>135.676625,35.011395,0</coordinates></Point></Placemark>
<Placemark><name>⭐ Otagi Nenbutsu-ji</name><styleUrl>#sitio_kioto</styleUrl><description><![CDATA[1,200 rakan (discípulos de Buda) de piedra, cada uno con cara distinta: uno ríe, otro bosteza, uno carga un gato, otro un walkman. El rincón más encantador y menos visitado de Kioto. — EN EL PLAN: sáb 10 · 12:10<br/><a href="https://www.google.com/maps/search/?api=1&amp;query=Otagi%20Nenbutsuji%20Kyoto">Abrir en Google Maps</a>]]></description><Point><coordinates>135.661555,35.031143,0</coordinates></Point></Placemark>
<Placemark><name>⭐ Bosque Kimono</name><styleUrl>#sitio_kioto</styleUrl><description><![CDATA[600 columnas de acrílico forradas con telas de kimono teñidas al estilo Kyō-yūzen, iluminadas al anochecer, en plena estación Randen. — EN EL PLAN: sáb 10 · 17:30<br/><a href="https://www.google.com/maps/search/?api=1&amp;query=Kimono%20Forest%20Arashiyama">Abrir en Google Maps</a>]]></description><Point><coordinates>135.678370,35.015268,0</coordinates></Point></Placemark>
<Placemark><name>⭐ Fushimi Inari</name><styleUrl>#sitio_kioto</styleUrl><description><![CDATA[Miles de torii bermellón trepando el monte Inari en túneles infinitos — el lugar más fotografiado de Japón. Hasta el mirador Yotsutsuji: ~45 min de subida. — EN EL PLAN: dom 11 · 05:00<br/><a href="https://www.google.com/maps/search/?api=1&amp;query=Fushimi%20Inari%20Taisha%20Kyoto">Abrir en Google Maps</a>]]></description><Point><coordinates>135.779188,34.967695,0</coordinates></Point></Placemark>
<Placemark><name>⭐ Pabellón Dorado (Kinkaku-ji)</name><styleUrl>#sitio_kioto</styleUrl><description><![CDATA[El pabellón forrado de ORO de verdad reflejándose en su estanque — no existe la foto mala. Paseo circular de ~45 minutos. — EN EL PLAN: dom 11 · 10:45<br/><a href="https://www.google.com/maps/search/?api=1&amp;query=Kinkakuji%20Kyoto">Abrir en Google Maps</a>]]></description><Point><coordinates>135.729243,35.039370,0</coordinates></Point></Placemark>
<Placemark><name>⭐ Castillo de Nijo</name><styleUrl>#sitio_kioto</styleUrl><description><![CDATA[El castillo-palacio del shōgun en Kioto: pisos 'de ruiseñor' que chirrían a propósito para delatar intrusos, puertas doradas y jardines. UNESCO. — EN EL PLAN: dom 11 · 14:00<br/><a href="https://www.google.com/maps/search/?api=1&amp;query=Nijo%20Castle%20Kyoto">Abrir en Google Maps</a>]]></description><Point><coordinates>135.748426,35.014038,0</coordinates></Point></Placemark>
<Placemark><name>⭐ Palacio Imperial de Kioto</name><styleUrl>#sitio_kioto</styleUrl><description><![CDATA[El palacio de los emperadores durante 500 años: salones ceremoniales, puertas según rango y jardines de paseo, en un parque enorme y gratuito. — EN EL PLAN: dom 11 · 16:00<br/><a href="https://www.google.com/maps/search/?api=1&amp;query=Kyoto%20Imperial%20Palace">Abrir en Google Maps</a>]]></description><Point><coordinates>135.762144,35.024098,0</coordinates></Point></Placemark>
<Placemark><name>⭐ Pontocho</name><styleUrl>#sitio_kioto</styleUrl><description><![CDATA[El callejón de 300 m entre Shijo y Sanjo: farolitos, 40 puertas de restaurantes y, con suerte, una geiko caminando a su cita. — EN EL PLAN: jue 8 · 19:30<br/><a href="https://www.google.com/maps/search/?api=1&amp;query=Pontocho%20Kyoto">Abrir en Google Maps</a>]]></description><Point><coordinates>135.771216,35.006428,0</coordinates></Point></Placemark>
<Placemark><name>⭐ Mercado Nishiki</name><styleUrl>#sitio_kioto</styleUrl><description><![CDATA['La cocina de Kioto': 400 m de mercado techado con 130 puestos de encurtidos, tofu, cuchillos, mariscos a la plancha y dulces.<br/><a href="https://www.google.com/maps/search/?api=1&amp;query=Nishiki%20Market%20Kyoto">Abrir en Google Maps</a>]]></description><Point><coordinates>135.764723,35.005026,0</coordinates></Point></Placemark>
<Placemark><name>⭐ Gion</name><styleUrl>#sitio_kioto</styleUrl><description><![CDATA[El barrio de las geishas: casas de té de madera, las calles Hanamikoji y Shirakawa, y al anochecer, geiko y maiko yendo a sus citas. — EN EL PLAN: vie 9 · 09:10<br/><a href="https://www.google.com/maps/search/?api=1&amp;query=Gion%20Kyoto">Abrir en Google Maps</a>]]></description><Point><coordinates>135.777245,35.003782,0</coordinates></Point></Placemark>
<Placemark><name>🍜 Ippudo Nishikikoji</name><styleUrl>#resto</styleUrl><description><![CDATA[Tonkotsu confiable al lado del mercado · ¥1,000 · Nivel 🍴<br/><a href="https://www.google.com/maps/search/?api=1&amp;query=Ippudo%20Nishikikoji%20Kyoto">Abrir en Google Maps</a>]]></description><Point><coordinates>135.773720,35.004393,0</coordinates></Point></Placemark>
<Placemark><name>🍜 Musashi Sushi</name><styleUrl>#take</styleUrl><description><![CDATA[Sushi de banda giratoria en Sanjo, rápido y digno · ¥1,500 · Nivel 🎋 Take — días: dom 11<br/><a href="https://www.google.com/maps/search/?api=1&amp;query=Musashi%20Sushi%20Sanjo%20Kyoto">Abrir en Google Maps</a>]]></description><Point><coordinates>135.768783,35.008960,0</coordinates></Point></Placemark>
<Placemark><name>🍜 Gyukatsu Kyoto Katsugyu</name><styleUrl>#take</styleUrl><description><![CDATA[Res empanizada que tú terminas en piedra caliente · ¥1,900 · Nivel 🎋 Take — días: vie 9<br/><a href="https://www.google.com/maps/search/?api=1&amp;query=Gyukatsu%20Kyoto%20Katsugyu%20Kawaramachi">Abrir en Google Maps</a>]]></description><Point><coordinates>135.764977,35.004193,0</coordinates></Point></Placemark>
<Placemark><name>🍜 Honke Owariya</name><styleUrl>#resto</styleUrl><description><![CDATA[Soba servido desde 1465 — el restaurante más viejo de Kioto · ¥1,400 · Nivel 🍴<br/><a href="https://www.google.com/maps/search/?api=1&amp;query=Honke%20Owariya%20Kyoto">Abrir en Google Maps</a>]]></description><Point><coordinates>135.760149,35.012763,0</coordinates></Point></Placemark>
<Placemark><name>🍜 Tempura Yoshikawa</name><styleUrl>#resto</styleUrl><description><![CDATA[Tempura de barra dentro de un ryokan con jardín — comida · ¥5,000 · Nivel 🍴<br/><a href="https://www.google.com/maps/search/?api=1&amp;query=Tempura%20Yoshikawa%20Kyoto">Abrir en Google Maps</a>]]></description><Point><coordinates>135.764787,35.010343,0</coordinates></Point></Placemark>
<Placemark><name>🍜 Gion Karyo (comida)</name><styleUrl>#resto</styleUrl><description><![CDATA[Kaiseki de entrada a precio de mediodía · ¥6,000 · Nivel 🍴<br/><a href="https://www.google.com/maps/search/?api=1&amp;query=Gion%20Karyo%20Kyoto">Abrir en Google Maps</a>]]></description><Point><coordinates>135.774512,35.001801,0</coordinates></Point></Placemark>
<Placemark><name>🍜 Roan Kikunoi</name><styleUrl>#resto</styleUrl><description><![CDATA[El kaiseki 2★ accesible del grupo Kikunoi — comida · ¥10,000 · Nivel 🍴<br/><a href="https://www.google.com/maps/search/?api=1&amp;query=Roan%20Kikunoi%20Kyoto">Abrir en Google Maps</a>]]></description><Point><coordinates>135.770668,35.003451,0</coordinates></Point></Placemark>
<Placemark><name>🍜 Ramen Kairikiya</name><styleUrl>#take</styleUrl><description><![CDATA[Cadena kiotense de shōyu ramen · ¥900 · Nivel 🎋 Take — días: jue 8<br/><a href="https://www.google.com/maps/search/?api=1&amp;query=Kairikiya%20Kawaramachi%20Kyoto">Abrir en Google Maps</a>]]></description><Point><coordinates>135.769176,35.009242,0</coordinates></Point></Placemark>
<Placemark><name>🍜 Ganko Sushi Sanjo</name><styleUrl>#take</styleUrl><description><![CDATA[Sushi y set menus familiares — aguanta grupos · ¥3,000 · Nivel 🎋 Take — días: jue 8<br/><a href="https://www.google.com/maps/search/?api=1&amp;query=Ganko%20Sushi%20Sanjo%20Kyoto">Abrir en Google Maps</a>]]></description><Point><coordinates>135.770813,35.009098,0</coordinates></Point></Placemark>
<Placemark><name>🍜 Kichi Kichi</name><styleUrl>#ai</styleUrl><description><![CDATA[EL omurice viral del chef Motokichi — reserva: domingos 11:00 am hora Japón, 4 semanas antes; está EN Pontocho · ¥2,700 (chico ¥1,450) · Nivel 🌊 Ai — días: jue 8<br/><a href="https://www.google.com/maps/search/?api=1&amp;query=Kichi%20Kichi%20Omurice%20Kyoto">Abrir en Google Maps</a>]]></description><Point><coordinates>135.770811,35.007279,0</coordinates></Point></Placemark>
<Placemark><name>🍜 Mishima-tei</name><styleUrl>#shu</styleUrl><description><![CDATA[Sukiyaki desde 1873, en la esquina de Teramachi — el olor a historia · ¥9,000 · Nivel 🔴 Shu — días: jue 8 · vie 9<br/><a href="https://www.google.com/maps/search/?api=1&amp;query=Mishima-tei%20Kyoto%20sukiyaki">Abrir en Google Maps</a>]]></description><Point><coordinates>135.767051,35.008541,0</coordinates></Point></Placemark>
<Placemark><name>🍜 Matsuba (nishin soba)</name><styleUrl>#take</styleUrl><description><![CDATA[El soba con arenque que INVENTARON aquí (1861), junto al teatro de Gion · ¥1,500 · Nivel 🎋 Take — días: vie 9<br/><a href="https://www.google.com/maps/search/?api=1&amp;query=Matsuba%20nishin%20soba%20Kyoto">Abrir en Google Maps</a>]]></description><Point><coordinates>135.772278,35.003681,0</coordinates></Point></Placemark>
<Placemark><name>🍜 Menbaka Fire Ramen</name><styleUrl>#take</styleUrl><description><![CDATA[El ramen que te sirven EN LLAMAS — show incluido · ¥1,650 · Nivel 🎋 Take — días: vie 9 · sáb 10<br/><a href="https://www.google.com/maps/search/?api=1&amp;query=Menbaka%20Fire%20Ramen%20Kyoto">Abrir en Google Maps</a>]]></description><Point><coordinates>135.747618,35.017682,0</coordinates></Point></Placemark>
<Placemark><name>🍜 Gyoza Chao Chao</name><styleUrl>#ai</styleUrl><description><![CDATA[Las gyozas crujientes famosas de Kiyamachi · ¥2,500 · Nivel 🌊 Ai — días: vie 9 · sáb 10<br/><a href="https://www.google.com/maps/search/?api=1&amp;query=Chao%20Chao%20Gyoza%20Kyoto">Abrir en Google Maps</a>]]></description><Point><coordinates>135.764977,35.004193,0</coordinates></Point></Placemark>
<Placemark><name>🍜 Kyogoku Kaneyo</name><styleUrl>#ai</styleUrl><description><![CDATA[Unagi (anguila glaseada) centenario, edificio de madera precioso · ¥4,000 · Nivel 🌊 Ai — días: vie 9<br/><a href="https://www.google.com/maps/search/?api=1&amp;query=Kyogoku%20Kaneyo%20Kyoto%20unagi">Abrir en Google Maps</a>]]></description><Point><coordinates>135.767949,35.007592,0</coordinates></Point></Placemark>
<Placemark><name>🍜 Croquetas Nakamuraya</name><styleUrl>#take</styleUrl><description><![CDATA[La croqueta legendaria de Arashiyama — para la mano · ¥400 · Nivel 🎋 Take — días: sáb 10<br/><a href="https://www.google.com/maps/search/?api=1&amp;query=Nakamuraya%20korokke%20Arashiyama">Abrir en Google Maps</a>]]></description><Point><coordinates>135.679948,35.016368,0</coordinates></Point></Placemark>
<Placemark><name>🍜 % Arabica + pan</name><styleUrl>#take</styleUrl><description><![CDATA[EL café con vista al río + pan de la panadería de al lado · ¥1,000 · Nivel 🎋 Take — días: sáb 10<br/><a href="https://www.google.com/maps/search/?api=1&amp;query=%25%20Arabica%20Arashiyama">Abrir en Google Maps</a>]]></description><Point><coordinates>135.676437,35.013542,0</coordinates></Point></Placemark>
<Placemark><name>🍜 Unagi Hirokawa</name><styleUrl>#ai</styleUrl><description><![CDATA[La anguila más famosa de Arashiyama (Michelin) — reservar · ¥4,500 · Nivel 🌊 Ai — días: sáb 10<br/><a href="https://www.google.com/maps/search/?api=1&amp;query=Unagi%20Hirokawa%20Arashiyama">Abrir en Google Maps</a>]]></description><Point><coordinates>135.677242,35.016959,0</coordinates></Point></Placemark>
<Placemark><name>🍜 Shoraian</name><styleUrl>#shu</styleUrl><description><![CDATA[Yudōfu-kaiseki en casa de té colgada sobre el río — reservar · ¥6,000 · Nivel 🔴 Shu — días: sáb 10<br/><a href="https://www.google.com/maps/search/?api=1&amp;query=Shoraian%20Arashiyama">Abrir en Google Maps</a>]]></description><Point><coordinates>135.670132,35.014448,0</coordinates></Point></Placemark>
<Placemark><name>🍜 Kitchō Arashiyama</name><styleUrl>#shu</styleUrl><description><![CDATA[Kaiseki 3★, de los restaurantes más famosos del mundo — apuntado para poder decir que no · ~¥60,000 · Nivel 🔴 Shu — días: sáb 10<br/><a href="https://www.google.com/maps/search/?api=1&amp;query=Kitcho%20Arashiyama">Abrir en Google Maps</a>]]></description><Point><coordinates>135.674655,35.013621,0</coordinates></Point></Placemark>
<Placemark><name>🍜 CoCo Curry</name><styleUrl>#take</styleUrl><description><![CDATA[Curry de cadena — el descanso del paladar · ¥1,000 · Nivel 🎋 Take — días: sáb 10<br/><a href="https://www.google.com/maps/search/?api=1&amp;query=CoCo%20Ichibanya%20Shijo%20Kyoto">Abrir en Google Maps</a>]]></description><Point><coordinates>135.749165,35.002481,0</coordinates></Point></Placemark>
<Placemark><name>🍜 Tenkaippin honten</name><styleUrl>#take</styleUrl><description><![CDATA[El ramen espeso 'kotteri' — la cadena nació en Kioto · ¥1,100 · Nivel 🎋 Take — días: sáb 10<br/><a href="https://www.google.com/maps/search/?api=1&amp;query=Tenkaippin%20Kyoto%20honten">Abrir en Google Maps</a>]]></description><Point><coordinates>135.791572,35.039460,0</coordinates></Point></Placemark>
<Placemark><name>🍜 Shinshindo</name><styleUrl>#take</styleUrl><description><![CDATA[La panadería-café universitaria de 1913 · ¥800 · Nivel 🎋 Take — días: dom 11<br/><a href="https://www.google.com/maps/search/?api=1&amp;query=Shinshindo%20Kyoto">Abrir en Google Maps</a>]]></description><Point><coordinates>135.769507,35.009000,0</coordinates></Point></Placemark>
<Placemark><name>🍜 Ganko Nijo</name><styleUrl>#resto</styleUrl><description><![CDATA[Sushi/kaiseki familiar en villa con JARDÍN de 400 años · ¥4,000 · Nivel 🍴<br/><a href="https://www.google.com/maps/search/?api=1&amp;query=Gankozushi%20Nijoen%20Kyoto">Abrir en Google Maps</a>]]></description><Point><coordinates>135.773720,35.004393,0</coordinates></Point></Placemark>
<Placemark><name>🍜 Kiyamachi</name><styleUrl>#resto</styleUrl><description><![CDATA[La calle de izakayas junto al canal — la versión barata de Pontocho · ¥2,500–4,000 · Nivel 🍴 — días: vie 9<br/><a href="https://www.google.com/maps/search/?api=1&amp;query=Kiyamachi%20street%20Kyoto">Abrir en Google Maps</a>]]></description><Point><coordinates>135.769274,35.000850,0</coordinates></Point></Placemark>
<Placemark><name>🏨 Keio Prelia Karasuma-Gojō (Kioto, 4 noches)</name><styleUrl>#hotel</styleUrl><description><![CDATA[<a href="https://www.google.com/maps/search/?api=1&amp;query=Keio%20Prelia%20Hotel%20Kyoto%20Karasuma%20Gojo">Abrir en Google Maps</a>]]></description><Point><coordinates>135.759478,34.998307,0</coordinates></Point></Placemark>
</Folder>
<Folder><name>5 · Tokio (lun 12 – dom 18)</name>
<Placemark><name>⭐ Omoide Yokocho</name><styleUrl>#sitio_tokio</styleUrl><description><![CDATA[60 barras diminutas de yakitori apretadas en dos callejones con humo, faroles y bancos — el Tokio de 1950 intacto. 'El callejón de los recuerdos'. — EN EL PLAN: lun 12 · 19:30<br/><a href="https://www.google.com/maps/search/?api=1&amp;query=Omoide%20Yokocho%20Shinjuku">Abrir en Google Maps</a>]]></description><Point><coordinates>139.699499,35.693100,0</coordinates></Point></Placemark>
<Placemark><name>⭐ Mirador del Gobierno Metropolitano</name><styleUrl>#sitio_tokio</styleUrl><description><![CDATA[Las torres gemelas del gobierno de Tokio: mirador GRATIS en el piso 45 (202 m) — de noche, el mar de luces; en día claro, el Fuji. — EN EL PLAN: lun 12 · 17:00<br/><a href="https://www.google.com/maps/search/?api=1&amp;query=Tokyo%20Metropolitan%20Government%20Building%20observatory">Abrir en Google Maps</a>]]></description><Point><coordinates>139.691656,35.689733,0</coordinates></Point></Placemark>
<Placemark><name>⭐ Sensō-ji</name><styleUrl>#sitio_tokio</styleUrl><description><![CDATA[El templo más visitado del mundo (~30 millones al año): la puerta Kaminarimon con su farol de 700 kg, la calle Nakamise y el salón de la Kannon dorada. — EN EL PLAN: mar 13 · 05:30<br/><a href="https://www.google.com/maps/search/?api=1&amp;query=Sensoji%20Asakusa%20Tokyo">Abrir en Google Maps</a>]]></description><Point><coordinates>139.796655,35.714765,0</coordinates></Point></Placemark>
<Placemark><name>⭐ Tokyo Skytree</name><styleUrl>#sitio_tokio</styleUrl><description><![CDATA[La torre más alta de Japón (634 m): dos miradores, piso de cristal y la base Solamachi llena de tiendas. En día claro: 70 km de vista. — EN EL PLAN: mar 13 · 08:10<br/><a href="https://www.google.com/maps/search/?api=1&amp;query=Tokyo%20Skytree">Abrir en Google Maps</a>]]></description><Point><coordinates>139.810700,35.710063,0</coordinates></Point></Placemark>
<Placemark><name>⭐ Parque Ueno</name><styleUrl>#sitio_tokio</styleUrl><description><![CDATA[El parque-museo de Tokio: museos nacionales, el zoológico con pandas, templos y los lotos del estanque Shinobazu. — EN EL PLAN: mar 13 · 14:30<br/><a href="https://www.google.com/maps/search/?api=1&amp;query=Ueno%20Park%20Tokyo">Abrir en Google Maps</a>]]></description><Point><coordinates>139.773431,35.714756,0</coordinates></Point></Placemark>
<Placemark><name>⭐ Ameyoko</name><styleUrl>#sitio_tokio</styleUrl><description><![CDATA[El mercado bajo las vías: 400 puestos gritones de mariscos, fruta, tenis y especias — el caos comercial más sabroso de Tokio. — EN EL PLAN: mar 13 · 17:10<br/><a href="https://www.google.com/maps/search/?api=1&amp;query=Ameyoko%20Market%20Ueno">Abrir en Google Maps</a>]]></description><Point><coordinates>139.774626,35.709003,0</coordinates></Point></Placemark>
<Placemark><name>⭐ Santuario Meiji</name><styleUrl>#sitio_tokio</styleUrl><description><![CDATA[Un bosque de 100,000 árboles donados en medio de Tokio, con el santuario del emperador Meiji al centro: torii gigantes de ciprés, barriles de sake y, con suerte, una boda sintoísta. — EN EL PLAN: jue 15 · 05:30<br/><a href="https://www.google.com/maps/search/?api=1&amp;query=Meiji%20Jingu%20Tokyo">Abrir en Google Maps</a>]]></description><Point><coordinates>139.699326,35.676398,0</coordinates></Point></Placemark>
<Placemark><name>⭐ Takeshita Street + Omotesandō</name><styleUrl>#sitio_tokio</styleUrl><description><![CDATA[Los 350 m del kawaii: crepas, calcetas imposibles y adolescentes en su hábitat — y al lado, Omotesandō: la avenida elegante de flagships y arquitectura de autor. — EN EL PLAN: jue 15 · 10:15<br/><a href="https://www.google.com/maps/search/?api=1&amp;query=Takeshita%20Street%20Harajuku">Abrir en Google Maps</a>]]></description><Point><coordinates>139.705182,35.671034,0</coordinates></Point></Placemark>
<Placemark><name>⭐ Cruce de Shibuya</name><styleUrl>#sitio_tokio</styleUrl><description><![CDATA[El cruce peatonal más famoso del mundo: hasta 3,000 personas por luz verde, en 5 direcciones — y nadie choca. Cruzarlo tres veces es parte del rito. — EN EL PLAN: jue 15 · 15:45<br/><a href="https://www.google.com/maps/search/?api=1&amp;query=Shibuya%20Crossing">Abrir en Google Maps</a>]]></description><Point><coordinates>139.700560,35.659482,0</coordinates></Point></Placemark>
<Placemark><name>⭐ Shibuya Sky</name><styleUrl>#sitio_tokio</styleUrl><description><![CDATA[La azotea abierta a 229 m sobre el cruce: esquinas de cristal, hamacas de red mirando al cielo y el atardecer con el Fuji de fondo si el día ayuda. — EN EL PLAN: jue 15 · 16:45<br/><a href="https://www.google.com/maps/search/?api=1&amp;query=Shibuya%20Sky%20observation%20deck">Abrir en Google Maps</a>]]></description><Point><coordinates>139.701985,35.658672,0</coordinates></Point></Placemark>
<Placemark><name>⭐ Tsukiji Outer Market</name><styleUrl>#sitio_tokio</styleUrl><description><![CDATA[El mercado exterior que sobrevivió a la mudanza: 400 puestos de tamagoyaki, atún, uni y cuchillos — el desayuno más rico de Tokio es de pie, puesto por puesto. — EN EL PLAN: sáb 17 · 05:00<br/><a href="https://www.google.com/maps/search/?api=1&amp;query=Tsukiji%20Outer%20Market%20Tokyo">Abrir en Google Maps</a>]]></description><Point><coordinates>139.770252,35.664770,0</coordinates></Point></Placemark>
<Placemark><name>⭐ Ginza</name><styleUrl>#sitio_tokio</styleUrl><description><![CDATA[La milla de oro de Tokio: flagships de 12 pisos, papelerías legendarias (Itoya), galerías y vitrinas que son museos. — EN EL PLAN: sáb 17 · 05:15<br/><a href="https://www.google.com/maps/search/?api=1&amp;query=Ginza%20Tokyo">Abrir en Google Maps</a>]]></description><Point><coordinates>139.766486,35.671223,0</coordinates></Point></Placemark>
<Placemark><name>⭐ Torre de Tokio</name><styleUrl>#sitio_tokio</styleUrl><description><![CDATA[La torre roja y blanca de 333 m — 9 m más alta que la Eiffel que imita — con mirador a 150 m y un cariño de los tokiotas que el Skytree no le quita. — EN EL PLAN: sáb 17 · 12:20<br/><a href="https://www.google.com/maps/search/?api=1&amp;query=Tokyo%20Tower">Abrir en Google Maps</a>]]></description><Point><coordinates>139.745433,35.658580,0</coordinates></Point></Placemark>
<Placemark><name>⭐ Zōjō-ji</name><styleUrl>#sitio_tokio</styleUrl><description><![CDATA[El gran templo a los pies de la Torre de Tokio: la puerta Sangedatsumon (1622) y las filas de jizō con gorritos rojos que conmueven. — EN EL PLAN: sáb 17 · 12:20<br/><a href="https://www.google.com/maps/search/?api=1&amp;query=Zojoji%20Temple%20Tokyo">Abrir en Google Maps</a>]]></description><Point><coordinates>139.748293,35.657479,0</coordinates></Point></Placemark>
<Placemark><name>⭐ teamLab Planets</name><styleUrl>#sitio_tokio</styleUrl><description><![CDATA[El museo donde el arte te toca: caminas descalzo por agua con koi de luz, cuartos infinitos de flores y esferas que responden a tu paso. — EN EL PLAN: vie 16 · 10:30<br/><a href="https://www.google.com/maps/search/?api=1&amp;query=teamLab%20Planets%20Toyosu%20Tokyo">Abrir en Google Maps</a>]]></description><Point><coordinates>139.789774,35.649121,0</coordinates></Point></Placemark>
<Placemark><name>⭐ Akihabara</name><styleUrl>#sitio_tokio</styleUrl><description><![CDATA[La 'Ciudad Eléctrica': edificios de 8 pisos de anime, retro-games, figuras, maid cafés y arcades en cada cuadra. — EN EL PLAN: vie 16 · 14:15 · sáb 17 · 14:00<br/><a href="https://www.google.com/maps/search/?api=1&amp;query=Akihabara%20Tokyo">Abrir en Google Maps</a>]]></description><Point><coordinates>139.771370,35.699647,0</coordinates></Point></Placemark>
<Placemark><name>🍜 Fuunji</name><styleUrl>#take</styleUrl><description><![CDATA[EL tsukemen (fideos para remojar) — 8 min del hotel, fila 30–45 min que vale cada minuto · ¥1,100 · Nivel 🎋 Take — días: lun 12<br/><a href="https://www.google.com/maps/search/?api=1&amp;query=Fuunji%20Shinjuku">Abrir en Google Maps</a>]]></description><Point><coordinates>139.696639,35.686834,0</coordinates></Point></Placemark>
<Placemark><name>🍜 Ichiran Shinjuku</name><styleUrl>#take</styleUrl><description><![CDATA[Abierto 24 h — el seguro a cualquier hora · ¥980–1,320 · Nivel 🎋 Take — días: lun 12 · jue 15<br/><a href="https://www.google.com/maps/search/?api=1&amp;query=Ichiran%20Shinjuku">Abrir en Google Maps</a>]]></description><Point><coordinates>139.702805,35.690586,0</coordinates></Point></Placemark>
<Placemark><name>🍜 Shin Udon</name><styleUrl>#take</styleUrl><description><![CDATA[Udon artesanal con tempura — fila corta si van temprano · ¥1,200 · Nivel 🎋 Take — días: lun 12<br/><a href="https://www.google.com/maps/search/?api=1&amp;query=Shin%20Udon%20Shinjuku">Abrir en Google Maps</a>]]></description><Point><coordinates>139.697001,35.686489,0</coordinates></Point></Placemark>
<Placemark><name>🍜 Konjiki Hototogisu</name><styleUrl>#ai</styleUrl><description><![CDATA[Ramen de almeja con estrella de precio justo · ¥1,500 · Nivel 🌊 Ai — días: lun 12<br/><a href="https://www.google.com/maps/search/?api=1&amp;query=Konjiki%20Hototogisu%20Shinjuku">Abrir en Google Maps</a>]]></description><Point><coordinates>139.708292,35.688784,0</coordinates></Point></Placemark>
<Placemark><name>🍜 Tsunahachi (comida)</name><styleUrl>#ai</styleUrl><description><![CDATA[Tempura desde 1924, honten de Shinjuku · ¥1,800 · Nivel 🌊 Ai — días: lun 12<br/><a href="https://www.google.com/maps/search/?api=1&amp;query=Tsunahachi%20Shinjuku%20honten">Abrir en Google Maps</a>]]></description><Point><coordinates>139.703487,35.690846,0</coordinates></Point></Placemark>
<Placemark><name>🍜 Katsukura</name><styleUrl>#ai</styleUrl><description><![CDATA[Tonkatsu de Kioto en Takashimaya — muele tu propio ajonjolí · ¥1,900 · Nivel 🌊 Ai — días: lun 12<br/><a href="https://www.google.com/maps/search/?api=1&amp;query=Katsukura%20Takashimaya%20Shinjuku">Abrir en Google Maps</a>]]></description><Point><coordinates>139.702122,35.687631,0</coordinates></Point></Placemark>
<Placemark><name>🍜 Kabuto</name><styleUrl>#ai</styleUrl><description><![CDATA[Anguila a la parrilla desde 1948, barra de 12 asientos en Omoide · ¥3,000 · Nivel 🌊 Ai — días: lun 12<br/><a href="https://www.google.com/maps/search/?api=1&amp;query=Kabuto%20unagi%20Omoide%20Yokocho">Abrir en Google Maps</a>]]></description><Point><coordinates>139.699522,35.693115,0</coordinates></Point></Placemark>
<Placemark><name>🍜 NY Bar (Park Hyatt)</name><styleUrl>#shu</styleUrl><description><![CDATA[El bar de Lost in Translation, piso 52 — código de vestir suave · ¥3,000/copa · Nivel 🔴 Shu — días: lun 12<br/><a href="https://www.google.com/maps/search/?api=1&amp;query=New%20York%20Bar%20Park%20Hyatt%20Tokyo">Abrir en Google Maps</a>]]></description><Point><coordinates>139.690401,35.686113,0</coordinates></Point></Placemark>
<Placemark><name>🍜 Ichiran Ueno</name><styleUrl>#take</styleUrl><description><![CDATA[La cabina de siempre, versión Ueno · ¥1,000 · Nivel 🎋 Take — días: mar 13<br/><a href="https://www.google.com/maps/search/?api=1&amp;query=Ichiran%20Ueno">Abrir en Google Maps</a>]]></description><Point><coordinates>139.775231,35.712406,0</coordinates></Point></Placemark>
<Placemark><name>🍜 Daikokuya</name><styleUrl>#ai</styleUrl><description><![CDATA[Tendon (tempura sobre arroz) desde 1887 — LA fila de Asakusa · ¥2,200 · Nivel 🌊 Ai — días: mar 13<br/><a href="https://www.google.com/maps/search/?api=1&amp;query=Daikokuya%20Tempura%20Asakusa">Abrir en Google Maps</a>]]></description><Point><coordinates>139.795570,35.712738,0</coordinates></Point></Placemark>
<Placemark><name>🍜 Tonkatsu Isen honten</name><styleUrl>#ai</styleUrl><description><![CDATA[Institución del tonkatsu en Ueno, edificio con historia · ¥3,000 · Nivel 🌊 Ai — días: mar 13<br/><a href="https://www.google.com/maps/search/?api=1&amp;query=Isen%20honten%20Ueno%20tonkatsu">Abrir en Google Maps</a>]]></description><Point><coordinates>139.772196,35.707470,0</coordinates></Point></Placemark>
<Placemark><name>🍜 Unagi Izuei</name><styleUrl>#shu</styleUrl><description><![CDATA[Anguila con vista al estanque de Ueno, 290 años · ¥6,000 · Nivel 🔴 Shu — días: mar 13<br/><a href="https://www.google.com/maps/search/?api=1&amp;query=Izuei%20Ueno%20unagi">Abrir en Google Maps</a>]]></description><Point><coordinates>139.772691,35.709671,0</coordinates></Point></Placemark>
<Placemark><name>🍜 Tempura Nakasei</name><styleUrl>#shu</styleUrl><description><![CDATA[Tempura de Asakusa desde 1870 · ¥7,000 · Nivel 🔴 Shu — días: mar 13<br/><a href="https://www.google.com/maps/search/?api=1&amp;query=Nakasei%20tempura%20Asakusa">Abrir en Google Maps</a>]]></description><Point><coordinates>139.794593,35.712591,0</coordinates></Point></Placemark>
<Placemark><name>🍜 Sukiyaki Imahan</name><styleUrl>#ai</styleUrl><description><![CDATA[El sukiyaki formal de Asakusa (1895) · ¥10,000+ · Nivel 🌊 Ai — días: mar 13 · sáb 17<br/><a href="https://www.google.com/maps/search/?api=1&amp;query=Asakusa%20Imahan%20sukiyaki">Abrir en Google Maps</a>]]></description><Point><coordinates>139.792229,35.713935,0</coordinates></Point></Placemark>
<Placemark><name>🍜 Tonkatsu Bairin</name><styleUrl>#ai</styleUrl><description><![CDATA[El tonkatsu de Ginza desde 1927 — inventó la salsa · ¥2,500 · Nivel 🌊 Ai — días: mié 14 · sáb 17<br/><a href="https://www.google.com/maps/search/?api=1&amp;query=Ginza%20Bairin%20tonkatsu">Abrir en Google Maps</a>]]></description><Point><coordinates>139.762748,35.669586,0</coordinates></Point></Placemark>
<Placemark><name>🍜 Ginza Lion</name><styleUrl>#ai</styleUrl><description><![CDATA[La cervecería más vieja de Japón (1934), salón art déco intacto · ¥3,500 · Nivel 🌊 Ai — días: mié 14 · sáb 17<br/><a href="https://www.google.com/maps/search/?api=1&amp;query=Ginza%20Lion%20Beer%20Hall">Abrir en Google Maps</a>]]></description><Point><coordinates>139.763159,35.669202,0</coordinates></Point></Placemark>
<Placemark><name>🍜 Sushi no Midori</name><styleUrl>#ai</styleUrl><description><![CDATA[La mejor relación calidad/precio del sushi de Tokio — por eso la fila · ¥4,000 · Nivel 🌊 Ai — días: mié 14 · sáb 17<br/><a href="https://www.google.com/maps/search/?api=1&amp;query=Sushi%20no%20Midori%20Ginza">Abrir en Google Maps</a>]]></description><Point><coordinates>139.759658,35.670440,0</coordinates></Point></Placemark>
<Placemark><name>🍜 Tempura con estrella</name><styleUrl>#shu</styleUrl><description><![CDATA[Barra de tempura estrellada (Kondo y similares) — reservar · ¥15,000 · Nivel 🔴 Shu — días: mié 14<br/><a href="https://www.google.com/maps/search/?api=1&amp;query=Tempura%20Kondo%20Ginza">Abrir en Google Maps</a>]]></description><Point><coordinates>139.763179,35.671170,0</coordinates></Point></Placemark>
<Placemark><name>🍜 Harajuku Gyozarō</name><styleUrl>#take</styleUrl><description><![CDATA[6 gyozas perfectas a precio de risa — la fila avanza rápido · ¥800 · Nivel 🎋 Take — días: jue 15<br/><a href="https://www.google.com/maps/search/?api=1&amp;query=Harajuku%20Gyozaro">Abrir en Google Maps</a>]]></description><Point><coordinates>139.706103,35.667502,0</coordinates></Point></Placemark>
<Placemark><name>🍜 Afuri</name><styleUrl>#take</styleUrl><description><![CDATA[Ramen de yuzu — ligero, cítrico, moderno · ¥1,400 · Nivel 🎋 Take — días: jue 15<br/><a href="https://www.google.com/maps/search/?api=1&amp;query=Afuri%20Harajuku">Abrir en Google Maps</a>]]></description><Point><coordinates>139.703802,35.673005,0</coordinates></Point></Placemark>
<Placemark><name>🍜 Luke's Lobster</name><styleUrl>#ai</styleUrl><description><![CDATA[Lobster roll de culto en Cat Street · ¥1,500 · Nivel 🌊 Ai — días: jue 15<br/><a href="https://www.google.com/maps/search/?api=1&amp;query=Luke%27s%20Lobster%20Omotesando">Abrir en Google Maps</a>]]></description><Point><coordinates>139.704508,35.665503,0</coordinates></Point></Placemark>
<Placemark><name>🍜 Golden Brown</name><styleUrl>#ai</styleUrl><description><![CDATA[Hamburguesa artesanal japonesa · ¥1,800 · Nivel 🌊 Ai — días: jue 15<br/><a href="https://www.google.com/maps/search/?api=1&amp;query=Golden%20Brown%20burger%20Omotesando">Abrir en Google Maps</a>]]></description><Point><coordinates>139.708838,35.667408,0</coordinates></Point></Placemark>
<Placemark><name>🍜 bills</name><styleUrl>#ai</styleUrl><description><![CDATA[Los hotcakes 'más famosos del mundo', versión Omotesandō · ¥2,200 · Nivel 🌊 Ai — días: jue 15<br/><a href="https://www.google.com/maps/search/?api=1&amp;query=bills%20Omotesando">Abrir en Google Maps</a>]]></description><Point><coordinates>139.705781,35.668582,0</coordinates></Point></Placemark>
<Placemark><name>🍜 Gyukatsu Motomura</name><styleUrl>#shu</styleUrl><description><![CDATA[El gyukatsu de las filas eternas — vale si avanza · ¥2,200 · Nivel 🔴 Shu — días: jue 15<br/><a href="https://www.google.com/maps/search/?api=1&amp;query=Gyukatsu%20Motomura%20Shibuya">Abrir en Google Maps</a>]]></description><Point><coordinates>139.706156,35.655358,0</coordinates></Point></Placemark>
<Placemark><name>🍜 Maisen</name><styleUrl>#shu</styleUrl><description><![CDATA[Tonkatsu en una ex-casa de baños — el clásico de Omotesandō · ¥3,000 · Nivel 🔴 Shu — días: jue 15<br/><a href="https://www.google.com/maps/search/?api=1&amp;query=Maisen%20Aoyama%20tonkatsu">Abrir en Google Maps</a>]]></description><Point><coordinates>139.711536,35.667925,0</coordinates></Point></Placemark>
<Placemark><name>🍜 Uobei</name><styleUrl>#take</styleUrl><description><![CDATA[Sushi que llega en riel a tu pantalla — los primos chicos felices · ¥1,500/persona · Nivel 🎋 Take — días: jue 15<br/><a href="https://www.google.com/maps/search/?api=1&amp;query=Uobei%20Shibuya">Abrir en Google Maps</a>]]></description><Point><coordinates>139.697921,35.659435,0</coordinates></Point></Placemark>
<Placemark><name>🍜 Genki Sushi</name><styleUrl>#take</styleUrl><description><![CDATA[El hermano de Uobei, mismo sistema · ¥1,800 · Nivel 🎋 Take — días: jue 15<br/><a href="https://www.google.com/maps/search/?api=1&amp;query=Genki%20Sushi%20Shibuya">Abrir en Google Maps</a>]]></description><Point><coordinates>139.696522,35.647418,0</coordinates></Point></Placemark>
<Placemark><name>🍜 Nabezo Shibuya</name><styleUrl>#ai</styleUrl><description><![CDATA[Shabu-shabu tabehōdai — mesas grandes · ¥4,500 · Nivel 🌊 Ai — días: jue 15<br/><a href="https://www.google.com/maps/search/?api=1&amp;query=Nabezo%20Shibuya">Abrir en Google Maps</a>]]></description><Point><coordinates>139.700209,35.661171,0</coordinates></Point></Placemark>
<Placemark><name>🍜 Han no Daidokoro (entrada)</name><styleUrl>#ai</styleUrl><description><![CDATA[Yakiniku de calidad, curso corto · ¥6,000 · Nivel 🌊 Ai — días: jue 15<br/><a href="https://www.google.com/maps/search/?api=1&amp;query=Han%20no%20Daidokoro%20Shibuya">Abrir en Google Maps</a>]]></description><Point><coordinates>139.697958,35.659255,0</coordinates></Point></Placemark>
<Placemark><name>🍜 Han no Daidokoro curso</name><styleUrl>#shu</styleUrl><description><![CDATA[El curso completo de wagyu — a 5 min esa noche · ¥10,000 · Nivel 🔴 Shu — días: jue 15<br/><a href="https://www.google.com/maps/search/?api=1&amp;query=Han%20no%20Daidokoro%20Bettei%20Shibuya">Abrir en Google Maps</a>]]></description><Point><coordinates>139.697958,35.659255,0</coordinates></Point></Placemark>
<Placemark><name>🍜 Ushigoro S</name><styleUrl>#shu</styleUrl><description><![CDATA[EL yakiniku premium — privados elegantes, reservar semanas antes · ¥15,000 · Nivel 🔴 Shu — días: jue 15<br/><a href="https://www.google.com/maps/search/?api=1&amp;query=Ushigoro%20S%20Shibuya">Abrir en Google Maps</a>]]></description><Point><coordinates>139.705963,35.690985,0</coordinates></Point></Placemark>
<Placemark><name>🍜 Uoya-Itcho</name><styleUrl>#take</styleUrl><description><![CDATA[Izakaya grande de pescado — acomoda mesa de 10 · ¥3,500 · Nivel 🎋 Take — días: vie 16<br/><a href="https://www.google.com/maps/search/?api=1&amp;query=Uoya%20Itcho%20Shinjuku">Abrir en Google Maps</a>]]></description><Point><coordinates>139.707505,35.691030,0</coordinates></Point></Placemark>
<Placemark><name>🍜 Gyukaku</name><styleUrl>#ai</styleUrl><description><![CDATA[Yakiniku de cadena confiable, mesas amplias · ¥4,000 · Nivel 🌊 Ai — días: vie 16<br/><a href="https://www.google.com/maps/search/?api=1&amp;query=Gyu-Kaku%20Shinjuku">Abrir en Google Maps</a>]]></description><Point><coordinates>139.701282,35.694387,0</coordinates></Point></Placemark>
<Placemark><name>🍜 Nabezo Shinjuku</name><styleUrl>#ai</styleUrl><description><![CDATA[Tabehōdai de shabu y sukiyaki — hecho para grupos · ¥4,500 · Nivel 🌊 Ai — días: vie 16<br/><a href="https://www.google.com/maps/search/?api=1&amp;query=Nabezo%20Shinjuku">Abrir en Google Maps</a>]]></description><Point><coordinates>139.740806,35.668070,0</coordinates></Point></Placemark>
<Placemark><name>🍜 Imahan shabu</name><styleUrl>#ai</styleUrl><description><![CDATA[El shabu de la casa de 1895, versión moderna · ¥6,000 · Nivel 🌊 Ai — días: vie 16<br/><a href="https://www.google.com/maps/search/?api=1&amp;query=Imahan%20Shinjuku">Abrir en Google Maps</a>]]></description><Point><coordinates>139.691502,35.691344,0</coordinates></Point></Placemark>
<Placemark><name>🍜 Jojoen</name><styleUrl>#shu</styleUrl><description><![CDATA[Yakiniku premium con privados para 10 — reservar desde México · ¥8–12,000 · Nivel 🔴 Shu — días: vie 16<br/><a href="https://www.google.com/maps/search/?api=1&amp;query=Jojoen%20Shinjuku">Abrir en Google Maps</a>]]></description><Point><coordinates>139.701963,35.691254,0</coordinates></Point></Placemark>
<Placemark><name>🍜 NY Grill (Park Hyatt)</name><styleUrl>#shu</styleUrl><description><![CDATA[El piso 52: steak, jazz en vivo y todo Tokio abajo · ¥15,000+ · Nivel 🔴 Shu — días: vie 16<br/><a href="https://www.google.com/maps/search/?api=1&amp;query=New%20York%20Grill%20Park%20Hyatt%20Tokyo">Abrir en Google Maps</a>]]></description><Point><coordinates>139.690739,35.685500,0</coordinates></Point></Placemark>
<Placemark><name>🍜 Kagari</name><styleUrl>#take</styleUrl><description><![CDATA[Tori-paitan (caldo de pollo cremoso) — Bib Gourmand, fila rápida · ¥1,500 · Nivel 🎋 Take — días: sáb 17<br/><a href="https://www.google.com/maps/search/?api=1&amp;query=Kagari%20Ginza">Abrir en Google Maps</a>]]></description><Point><coordinates>139.761332,35.671202,0</coordinates></Point></Placemark>
<Placemark><name>🍜 Gonpachi</name><styleUrl>#take</styleUrl><description><![CDATA['El restaurante de Kill Bill' — turístico y divertidísimo · ¥5,000 · Nivel 🎋 Take — días: sáb 17<br/><a href="https://www.google.com/maps/search/?api=1&amp;query=Gonpachi%20Nishi-Azabu">Abrir en Google Maps</a>]]></description><Point><coordinates>139.723580,35.660174,0</coordinates></Point></Placemark>
<Placemark><name>🍜 Shibuya Yokocho</name><styleUrl>#resto</styleUrl><description><![CDATA[19 mini-barras regionales en fila, en Miyashita Park · ¥2,500–4,000 · Nivel 🍴 — días: jue 15<br/><a href="https://www.google.com/maps/search/?api=1&amp;query=Shibuya%20Yokocho%20Miyashita%20Park">Abrir en Google Maps</a>]]></description><Point><coordinates>139.701785,35.660607,0</coordinates></Point></Placemark>
<Placemark><name>🍜 Golden Gai</name><styleUrl>#resto</styleUrl><description><![CDATA[200 barras de 5 asientos — para la sobremesa, los 10 se dispersan solos · ¥1,000–2,000/bar · Nivel 🍴 — días: vie 16<br/><a href="https://www.google.com/maps/search/?api=1&amp;query=Golden%20Gai%20Shinjuku">Abrir en Google Maps</a>]]></description><Point><coordinates>139.704761,35.694112,0</coordinates></Point></Placemark>
<Placemark><name>🏨 Rose Garden Shinjuku (Tokio, 6 noches)</name><styleUrl>#hotel</styleUrl><description><![CDATA[<a href="https://www.google.com/maps/search/?api=1&amp;query=Hotel%20Rose%20Garden%20Shinjuku%20Tokyo">Abrir en Google Maps</a>]]></description><Point><coordinates>139.693706,35.694452,0</coordinates></Point></Placemark>
<Placemark><name>✈️ Haneda T3 (llegada dom 4 · salida dom 18)</name><styleUrl>#aero</styleUrl><description><![CDATA[<a href="https://www.google.com/maps/search/?api=1&amp;query=Haneda%20Airport%20Terminal%203">Abrir en Google Maps</a>]]></description><Point><coordinates>139.768155,35.543913,0</coordinates></Point></Placemark>
</Folder>
<Folder><name>6 · Excursiones (Hakone · Kamakura · Fuji · Disney)</name>
<Placemark><name>⭐ Teleférico de Hakone</name><styleUrl>#sitio_fuji</styleUrl><description><![CDATA[Cabinas cada minuto cruzando sobre el valle volcánico, con el Fuji apareciendo a la derecha si el cielo abre. — EN EL PLAN: mié 14 · 08:00<br/><a href="https://www.google.com/maps/search/?api=1&amp;query=Hakone%20Ropeway">Abrir en Google Maps</a>]]></description><Point><coordinates>139.015041,35.244427,0</coordinates></Point></Placemark>
<Placemark><name>⭐ Ōwakudani</name><styleUrl>#sitio_fuji</styleUrl><description><![CDATA[El 'Gran Valle Hirviente': fumarolas, olor a azufre y los huevos negros cocidos en las pozas — la leyenda dice que cada uno alarga la vida 7 años. — EN EL PLAN: mié 14 · 08:00<br/><a href="https://www.google.com/maps/search/?api=1&amp;query=Owakudani%20Hakone">Abrir en Google Maps</a>]]></description><Point><coordinates>139.019354,35.243449,0</coordinates></Point></Placemark>
<Placemark><name>⭐ Lago Ashi</name><styleUrl>#sitio_fuji</styleUrl><description><![CDATA[El lago del cráter con el torii de Hakone saliendo del agua y barcos 'piratas' cruzándolo — la postal del Fuji cuando está despejado. — EN EL PLAN: mié 14 · 08:00<br/><a href="https://www.google.com/maps/search/?api=1&amp;query=Lake%20Ashi%20Hakone">Abrir en Google Maps</a>]]></description><Point><coordinates>139.003463,35.209567,0</coordinates></Point></Placemark>
<Placemark><name>⭐ Monte Fuji</name><styleUrl>#sitio_fuji</styleUrl><description><![CDATA[La montaña perfecta: 3,776 m de cono volcánico visible desde 100 km. Verla despejada es lotería — en octubre, las mañanas dan la mejor probabilidad. — EN EL PLAN: mié 14 · 08:00 · vie 16 · 06:00<br/><a href="https://www.google.com/maps/search/?api=1&amp;query=Mount%20Fuji">Abrir en Google Maps</a>]]></description><Point><coordinates>138.727363,35.360625,0</coordinates></Point></Placemark>
<Placemark><name>⭐ Santuario de Hakone (Motomiya)</name><styleUrl>#sitio_fuji</styleUrl><description><![CDATA[El santuario del torii en el agua: se hace fila en el embarcadero para LA foto, y el bosque de cedros gigantes detrás vale la subida. — EN EL PLAN: mié 14 · 08:00<br/><a href="https://www.google.com/maps/search/?api=1&amp;query=Hakone%20Shrine">Abrir en Google Maps</a>]]></description><Point><coordinates>139.025378,35.204826,0</coordinates></Point></Placemark>
<Placemark><name>⭐ Gran Buda de Kamakura</name><styleUrl>#sitio_fuji</styleUrl><description><![CDATA[11 m y 121 toneladas de bronce meditando al aire libre desde hace 770 años, con las montañas de Kamakura detrás. Se puede entrar (¥50). — EN EL PLAN: vie 16 · 07:00<br/><a href="https://www.google.com/maps/search/?api=1&amp;query=Kotokuin%20Great%20Buddha%20Kamakura">Abrir en Google Maps</a>]]></description><Point><coordinates>139.535744,35.316814,0</coordinates></Point></Placemark>
<Placemark><name>⭐ Hase-dera (Kamakura)</name><styleUrl>#sitio_fuji</styleUrl><description><![CDATA[El templo de las hortensias y la Kannon dorada de 9 m — la escultura de madera más grande de Japón — con terraza al mar de Kamakura. — EN EL PLAN: vie 16 · 08:40<br/><a href="https://www.google.com/maps/search/?api=1&amp;query=Hasedera%20Kamakura">Abrir en Google Maps</a>]]></description><Point><coordinates>139.533063,35.312464,0</coordinates></Point></Placemark>
<Placemark><name>⭐ Lago Kawaguchiko</name><styleUrl>#sitio_fuji</styleUrl><description><![CDATA[El lago con la vista más famosa del Fuji: la ribera norte lo refleja entero, con los momiji encendidos en otoño. — EN EL PLAN: jue 15 · 21:15 · vie 16 · 07:00<br/><a href="https://www.google.com/maps/search/?api=1&amp;query=Lake%20Kawaguchiko">Abrir en Google Maps</a>]]></description><Point><coordinates>138.751779,35.517095,0</coordinates></Point></Placemark>
<Placemark><name>⭐ Pagoda Chureito</name><styleUrl>#sitio_fuji</styleUrl><description><![CDATA[La pagoda de 5 pisos con el Fuji de fondo — LA foto de Japón. Son 398 escalones para ganársela.<br/><a href="https://www.google.com/maps/search/?api=1&amp;query=Chureito%20Pagoda%20Fujiyoshida">Abrir en Google Maps</a>]]></description><Point><coordinates>138.801385,35.501263,0</coordinates></Point></Placemark>
<Placemark><name>⭐ Tokyo Disneyland</name><styleUrl>#sitio_fuji</styleUrl><description><![CDATA[El Disney japonés: famoso por su nivel de detalle obsesivo, su popcorn de sabores y ser el parque con más visitantes repetidores del mundo. — EN EL PLAN: jue 15 · 05:30<br/><a href="https://www.google.com/maps/search/?api=1&amp;query=Tokyo%20Disneyland">Abrir en Google Maps</a>]]></description><Point><coordinates>139.880394,35.632896,0</coordinates></Point></Placemark>
</Folder>
</Document></kml>