<?xml version="1.0" encoding="UTF-8"?>
<kml xmlns="http://www.opengis.net/kml/2.2"><Document><name>jue 8 · → Kioto</name><description>Recorrido del día: gruesa=transporte (color oficial) · delgada=a pie · ＞ sentido · paradas con hora y punto estricto · coordenadas Google.</description><Style id="p1"><IconStyle><scale>0.9</scale><Icon><href>https://maps.google.com/mapfiles/kml/paddle/1.png</href></Icon></IconStyle></Style><Style id="p2"><IconStyle><scale>0.9</scale><Icon><href>https://maps.google.com/mapfiles/kml/paddle/2.png</href></Icon></IconStyle></Style><Style id="p3"><IconStyle><scale>0.9</scale><Icon><href>https://maps.google.com/mapfiles/kml/paddle/3.png</href></Icon></IconStyle></Style><Style id="p4"><IconStyle><scale>0.9</scale><Icon><href>https://maps.google.com/mapfiles/kml/paddle/4.png</href></Icon></IconStyle></Style><Style id="p5"><IconStyle><scale>0.9</scale><Icon><href>https://maps.google.com/mapfiles/kml/paddle/5.png</href></Icon></IconStyle></Style><Style id="p6"><IconStyle><scale>0.9</scale><Icon><href>https://maps.google.com/mapfiles/kml/paddle/6.png</href></Icon></IconStyle></Style><Style id="p7"><IconStyle><scale>0.9</scale><Icon><href>https://maps.google.com/mapfiles/kml/paddle/7.png</href></Icon></IconStyle></Style><Style id="p8"><IconStyle><scale>0.9</scale><Icon><href>https://maps.google.com/mapfiles/kml/paddle/8.png</href></Icon></IconStyle></Style><Style id="p9"><IconStyle><scale>0.9</scale><Icon><href>https://maps.google.com/mapfiles/kml/paddle/9.png</href></Icon></IconStyle></Style><Style id="p10"><IconStyle><scale>0.9</scale><Icon><href>https://maps.google.com/mapfiles/kml/paddle/10.png</href></Icon></IconStyle></Style><Style id="lffb76b0d6"><LineStyle><color>ffb76b0d</color><width>6</width></LineStyle></Style><Style id="lff1700806"><LineStyle><color>ff170080</color><width>6</width></LineStyle></Style><Style id="lb8636f7a3"><LineStyle><color>b8636f7a</color><width>3</width></LineStyle></Style><Style id="lff8628526"><LineStyle><color>ff862852</color><width>6</width></LineStyle></Style><Style id="lff934de46"><LineStyle><color>ff934de4</color><width>6</width></LineStyle></Style><Style id="lff1f17e56"><LineStyle><color>ff1f17e5</color><width>6</width></LineStyle></Style><Style id="lffa0501c6"><LineStyle><color>ffa0501c</color><width>6</width></LineStyle></Style><Style id="lff00d4ff6"><LineStyle><color>ff00d4ff</color><width>6</width></LineStyle></Style><Style id="lffaf5c006"><LineStyle><color>ffaf5c00</color><width>6</width></LineStyle></Style><Style id="lff4499006"><LineStyle><color>ff449900</color><width>6</width></LineStyle></Style><Style id="lff2147816"><LineStyle><color>ff214781</color><width>6</width></LineStyle></Style><Style id="lff669a016"><LineStyle><color>ff669a01</color><width>6</width></LineStyle></Style><Style id="lff0000e86"><LineStyle><color>ff0000e8</color><width>6</width></LineStyle></Style><Style id="lff2900d76"><LineStyle><color>ff2900d7</color><width>6</width></LineStyle></Style><Style id="lffa557276"><LineStyle><color>ffa55727</color><width>6</width></LineStyle></Style><Style id="lff1fc38f6"><LineStyle><color>ff1fc38f</color><width>6</width></LineStyle></Style><Style id="lff9933666"><LineStyle><color>ff993366</color><width>6</width></LineStyle></Style><Style id="lff2b4a7a6"><LineStyle><color>ff2b4a7a</color><width>6</width></LineStyle></Style><Style id="lff0c86c76"><LineStyle><color>ff0c86c7</color><width>6</width></LineStyle></Style><Style id="lff225af16"><LineStyle><color>ff225af1</color><width>6</width></LineStyle></Style><Style id="lff0097f36"><LineStyle><color>ff0097f3</color><width>6</width></LineStyle></Style><Style id="lffc36c0f6"><LineStyle><color>ffc36c0f</color><width>6</width></LineStyle></Style><Style id="lff656eec6"><LineStyle><color>ff656eec</color><width>6</width></LineStyle></Style><Style id="lffa0862c6"><LineStyle><color>ffa0862c</color><width>6</width></LineStyle></Style><Style id="lff2f25c96"><LineStyle><color>ff2f25c9</color><width>6</width></LineStyle></Style><Style id="lff32cd9a6"><LineStyle><color>ff32cd9a</color><width>6</width></LineStyle></Style><Style id="lff301be26"><LineStyle><color>ff301be2</color><width>6</width></LineStyle></Style><Style id="lff0388006"><LineStyle><color>ff038800</color><width>6</width></LineStyle></Style><Style id="lff9c46296"><LineStyle><color>ff9c4629</color><width>6</width></LineStyle></Style><Style id="lff1200e66"><LineStyle><color>ff1200e6</color><width>6</width></LineStyle></Style><Style id="lffb7ae9c6"><LineStyle><color>ffb7ae9c</color><width>6</width></LineStyle></Style><Style id="lff207bf46"><LineStyle><color>ff207bf4</color><width>6</width></LineStyle></Style><Folder><name>jue 8 · → Kioto</name>
<Placemark><name>1. 09:30 · Shinsekai (d8)</name><styleUrl>#p1</styleUrl><description><![CDATA[Hora del plan: 09:30. ⏰ SIGUIENTE PUNTO ESTRICTO del día: 14:00 — Mirador Abeno Harukas (reserva/transporte: NO se puede llegar tarde).]]></description><Point><coordinates>135.505956,34.651601,0</coordinates></Point></Placemark>
<Placemark><name>2. 09:30 · Tsūtenkaku (d8)</name><styleUrl>#p2</styleUrl><description><![CDATA[Hora del plan: 09:30. ⏰ SIGUIENTE PUNTO ESTRICTO del día: 14:00 — Mirador Abeno Harukas (reserva/transporte: NO se puede llegar tarde).]]></description><Point><coordinates>135.506306,34.652499,0</coordinates></Point></Placemark>
<Placemark><name>3. 11:10 · Parque Tennōji + Keitakuen (d8)</name><styleUrl>#p3</styleUrl><description><![CDATA[Hora del plan: 11:10. ⏰ SIGUIENTE PUNTO ESTRICTO del día: 14:00 — Mirador Abeno Harukas (reserva/transporte: NO se puede llegar tarde).]]></description><Point><coordinates>135.511583,34.649657,0</coordinates></Point></Placemark>
<Placemark><name>4. 14:00 · Abeno Harukas (d8)</name><styleUrl>#p4</styleUrl><description><![CDATA[Hora del plan: 14:00. ⏰ SIGUIENTE PUNTO ESTRICTO del día: 14:00 — Mirador Abeno Harukas (reserva/transporte: NO se puede llegar tarde).]]></description><Point><coordinates>135.513309,34.646306,0</coordinates></Point></Placemark>
<Placemark><name>d8·1 🚇 09:15 Metro Sakaisuji: Kitahama → Ebisuchō ⇒ Shinsekai</name><styleUrl>#lff2147816</styleUrl><description><![CDATA[SALE 09:15 de Kitahama → LLEGA a Ebisuchō · Metro Sakaisuji — sentido Tengachaya (4 tramos) · rumbo del plan: Shinsekai]]></description><MultiGeometry><LineString><tessellate>1</tessellate><coordinates>135.506652,34.691696,0 135.506976,34.681829,0 135.506331,34.674460,0 135.506120,34.666968,0 135.505636,34.655631,0</coordinates></LineString><LineString><tessellate>1</tessellate><coordinates>135.506969,34.686824,0 135.506821,34.686541,0 135.506655,34.686817,0</coordinates></LineString><LineString><tessellate>1</tessellate><coordinates>135.507118,34.681656,0 135.506937,34.681387,0 135.506805,34.681675,0</coordinates></LineString><LineString><tessellate>1</tessellate><coordinates>135.506668,34.676513,0 135.506487,34.676244,0 135.506355,34.676532,0</coordinates></LineString><LineString><tessellate>1</tessellate><coordinates>135.506401,34.671369,0 135.506236,34.671093,0 135.506087,34.671375,0</coordinates></LineString><LineString><tessellate>1</tessellate><coordinates>135.506244,34.666212,0 135.506076,34.665938,0 135.505931,34.666221,0</coordinates></LineString><LineString><tessellate>1</tessellate><coordinates>135.506025,34.661058,0 135.505856,34.660784,0 135.505711,34.661067,0</coordinates></LineString></MultiGeometry></Placemark>
<Placemark><name>d8·2 🚶 Ebisuchō → Shinsekai</name><styleUrl>#lb8636f7a3</styleUrl><description><![CDATA[caminando]]></description><MultiGeometry><LineString><tessellate>1</tessellate><coordinates>135.505643,34.655631,0 135.505639,34.655554,0 135.505730,34.655548,0 135.505728,34.655516,0 135.505748,34.655501,0 135.505747,34.655467,0 135.505747,34.655436,0 135.505745,34.655380,0 135.505743,34.655346,0 135.505742,34.655316,0 135.505721,34.655310,0 135.505715,34.655292,0 135.505698,34.654903,0 135.505657,34.654679,0 135.505654,34.654667,0 135.505737,34.654537,0 135.505707,34.654440,0 135.505689,34.654375,0 135.505683,34.654357,0 135.505735,34.654346,0 135.505737,34.654345,0 135.505759,34.654341,0 135.505688,34.654269,0 135.505703,34.654220,0 135.505744,34.654084,0 135.505842,34.653778,0 135.505984,34.653328,0 135.506175,34.652738,0 135.506177,34.652728,0 135.506196,34.652729,0 135.506202,34.652705,0 135.506236,34.652707,0 135.506296,34.652703,0 135.506343,34.652696,0 135.506332,34.652654,0 135.506257,34.652432,0 135.506243,34.652390,0 135.506124,34.652052,0 135.505965,34.651599,0 135.505956,34.651601,0</coordinates></LineString><LineString><tessellate>1</tessellate><coordinates>135.505937,34.653811,0 135.505894,34.653615,0 135.505740,34.653768,0</coordinates></LineString></MultiGeometry></Placemark>
<Placemark><name>d8·3 🚶 Tsūtenkaku → Parque Tennōji + Keitakuen</name><styleUrl>#lb8636f7a3</styleUrl><description><![CDATA[caminando]]></description><MultiGeometry><LineString><tessellate>1</tessellate><coordinates>135.506282,34.652505,0 135.506257,34.652432,0 135.506243,34.652390,0 135.506124,34.652052,0 135.505965,34.651599,0 135.506172,34.651550,0 135.506739,34.651413,0 135.506574,34.650943,0 135.506860,34.650880,0 135.506876,34.650876,0 135.507034,34.650843,0 135.507069,34.650835,0 135.507101,34.650828,0 135.507336,34.650814,0 135.507359,34.650741,0 135.507374,34.650703,0 135.507403,34.650664,0 135.507481,34.650617,0 135.507582,34.650616,0 135.507670,34.650654,0 135.507724,34.650724,0 135.507833,34.650700,0 135.508777,34.650479,0 135.509388,34.650339,0 135.509423,34.650332,0 135.509472,34.650329,0 135.509568,34.650305,0 135.509608,34.650339,0 135.509635,34.650333,0 135.509759,34.650303,0 135.509782,34.650298,0 135.509909,34.650267,0 135.509949,34.650208,0 135.510044,34.650194,0 135.509959,34.649769,0 135.509960,34.649654,0 135.510114,34.649559,0 135.510269,34.649503,0 135.510305,34.649490,0 135.510473,34.649493,0 135.510525,34.649497,0 135.510583,34.649512,0 135.510590,34.649514,0 135.510597,34.649516,0 135.510675,34.649537,0 135.510689,34.649567,0 135.510818,34.649657,0 135.510956,34.649774,0 135.510988,34.649816,0 135.511049,34.649929,0 135.511104,34.650096,0 135.511255,34.650114,0 135.511279,34.650110,0 135.511326,34.650081,0 135.511347,34.650072,0 135.511395,34.650073,0 135.511448,34.650071,0 135.511507,34.650051,0 135.511586,34.650054,0 135.511645,34.650031,0 135.511670,34.650020,0 135.511723,34.649999,0 135.511758,34.649995,0 135.511791,34.649991,0 135.511801,34.649962,0 135.511802,34.649936,0 135.511804,34.649916,0 135.511792,34.649889,0 135.511792,34.649862,0 135.511802,34.649841,0</coordinates></LineString><LineString><tessellate>1</tessellate><coordinates>135.506774,34.651212,0 135.506616,34.651063,0 135.506579,34.651259,0</coordinates></LineString><LineString><tessellate>1</tessellate><coordinates>135.508373,34.650661,0 135.508555,34.650531,0 135.508318,34.650499,0</coordinates></LineString><LineString><tessellate>1</tessellate><coordinates>135.509948,34.649766,0 135.510062,34.649591,0 135.509827,34.649631,0</coordinates></LineString></MultiGeometry></Placemark>
<Placemark><name>d8·4 🚶 Parque Tennōji + Keitakuen → Abeno Harukas</name><styleUrl>#lb8636f7a3</styleUrl><description><![CDATA[caminando]]></description><MultiGeometry><LineString><tessellate>1</tessellate><coordinates>135.511802,34.649841,0 135.511792,34.649862,0 135.511792,34.649889,0 135.511804,34.649916,0 135.511802,34.649936,0 135.511801,34.649962,0 135.511791,34.649991,0 135.511758,34.649995,0 135.511723,34.649999,0 135.511670,34.650020,0 135.511645,34.650031,0 135.511586,34.650054,0 135.511507,34.650051,0 135.511448,34.650071,0 135.511395,34.650073,0 135.511347,34.650072,0 135.511326,34.650081,0 135.511279,34.650110,0 135.511255,34.650114,0 135.511104,34.650096,0 135.511049,34.649929,0 135.510988,34.649816,0 135.510956,34.649774,0 135.510818,34.649657,0 135.510689,34.649567,0 135.510675,34.649537,0 135.510597,34.649516,0 135.510590,34.649514,0 135.510583,34.649512,0 135.510525,34.649497,0 135.510473,34.649493,0 135.510305,34.649490,0 135.510358,34.649370,0 135.510404,34.649308,0 135.510471,34.649246,0 135.510520,34.649230,0 135.510675,34.649175,0 135.510683,34.649038,0 135.510736,34.649026,0 135.510928,34.648981,0 135.510867,34.648783,0 135.510945,34.648767,0 135.511238,34.648704,0 135.512078,34.648494,0 135.512017,34.648259,0 135.512311,34.648192,0 135.512439,34.648165,0 135.512629,34.648123,0 135.512882,34.648073,0 135.513010,34.648028,0 135.512954,34.647942,0 135.512959,34.647895,0 135.512963,34.647827,0 135.512967,34.647731,0 135.512969,34.647694,0 135.512964,34.647668,0 135.513003,34.647630,0 135.513006,34.647599,0 135.512907,34.647022,0 135.512907,34.646989,0 135.512895,34.646927,0 135.512833,34.646895,0 135.512858,34.646861,0 135.512939,34.646899,0 135.513028,34.646915,0 135.513107,34.646906,0 135.513171,34.646881,0 135.513228,34.646835,0 135.513255,34.646804,0 135.513269,34.646769,0 135.513275,34.646729,0 135.513253,34.646587,0 135.513234,34.646507,0 135.513251,34.646436,0 135.513350,34.646410,0</coordinates></LineString><LineString><tessellate>1</tessellate><coordinates>135.510772,34.649248,0 135.510681,34.649064,0 135.510570,34.649240,0</coordinates></LineString><LineString><tessellate>1</tessellate><coordinates>135.512531,34.648229,0 135.512719,34.648105,0 135.512484,34.648065,0</coordinates></LineString></MultiGeometry></Placemark>
<Placemark><name>d8·5 🚇 15:45 Metro Midosuji: Tennōji → Yodoyabashi ⇒ hotel</name><styleUrl>#lff1f17e56</styleUrl><description><![CDATA[SALE 15:45 de Tennōji → LLEGA a Yodoyabashi · Metro Midosuji — sentido Shin-Osaka / Senri-Chūō (6 tramos) · rumbo del plan: hotel]]></description><MultiGeometry><LineString><tessellate>1</tessellate><coordinates>135.513869,34.647310,0 135.503507,34.648838,0 135.497845,34.655911,0 135.500342,34.667098,0 135.500377,34.675057,0 135.498829,34.682007,0 135.501053,34.692261,0</coordinates></LineString><LineString><tessellate>1</tessellate><coordinates>135.507039,34.648186,0 135.506735,34.648362,0 135.507094,34.648441,0</coordinates></LineString><LineString><tessellate>1</tessellate><coordinates>135.501369,34.651273,0 135.501314,34.651577,0 135.501631,34.651417,0</coordinates></LineString><LineString><tessellate>1</tessellate><coordinates>135.497805,34.656450,0 135.498021,34.656700,0 135.498114,34.656403,0</coordinates></LineString><LineString><tessellate>1</tessellate><coordinates>135.499123,34.662353,0 135.499339,34.662603,0 135.499432,34.662306,0</coordinates></LineString><LineString><tessellate>1</tessellate><coordinates>135.500191,34.668252,0 135.500349,34.668530,0 135.500504,34.668251,0</coordinates></LineString><LineString><tessellate>1</tessellate><coordinates>135.500217,34.674255,0 135.500375,34.674533,0 135.500531,34.674254,0</coordinates></LineString><LineString><tessellate>1</tessellate><coordinates>135.499084,34.680148,0 135.499177,34.680446,0 135.499393,34.680195,0</coordinates></LineString><LineString><tessellate>1</tessellate><coordinates>135.499558,34.686101,0 135.499772,34.686353,0 135.499867,34.686055,0</coordinates></LineString></MultiGeometry></Placemark>
<Placemark><name>d8·6 🚇 16:35 Metro Midosuji: Yodoyabashi → Umeda ⇒ hotel</name><styleUrl>#lff1f17e56</styleUrl><description><![CDATA[SALE 16:35 de Yodoyabashi → LLEGA a Umeda · Metro Midosuji — sentido Shin-Osaka / Senri-Chūō (1 tramos) · rumbo del plan: hotel]]></description><MultiGeometry><LineString><tessellate>1</tessellate><coordinates>135.501053,34.692261,0 135.498427,34.705027,0</coordinates></LineString><LineString><tessellate>1</tessellate><coordinates>135.500079,34.696220,0 135.500178,34.696517,0 135.500389,34.696264,0</coordinates></LineString><LineString><tessellate>1</tessellate><coordinates>135.499204,34.700475,0 135.499302,34.700772,0 135.499514,34.700519,0</coordinates></LineString></MultiGeometry></Placemark>
<Placemark><name>d8·7 🚇 17:07 HARUKA Limited Express: Osaka (Umekita) → Kyoto ⇒ hotel</name><styleUrl>#lffa557276</styleUrl><description><![CDATA[SALE 17:07 de Osaka (Umekita) → LLEGA a Kyoto · HARUKA Limited Express — sentido Kyoto (Ltd. Exp. HARUKA) (2 tramos) · rumbo del plan: hotel]]></description><MultiGeometry><LineString><tessellate>1</tessellate><coordinates>135.498427,34.705027,0 135.497888,34.733485,0 135.758767,34.985849,0</coordinates></LineString><LineString><tessellate>1</tessellate><coordinates>135.506663,34.742175,0 135.507002,34.742302,0 135.506902,34.742006,0</coordinates></LineString><LineString><tessellate>1</tessellate><coordinates>135.538134,34.772618,0 135.538472,34.772745,0 135.538372,34.772449,0</coordinates></LineString><LineString><tessellate>1</tessellate><coordinates>135.569604,34.803061,0 135.569943,34.803189,0 135.569843,34.802892,0</coordinates></LineString><LineString><tessellate>1</tessellate><coordinates>135.601075,34.833505,0 135.601413,34.833632,0 135.601314,34.833336,0</coordinates></LineString><LineString><tessellate>1</tessellate><coordinates>135.632545,34.863948,0 135.632884,34.864075,0 135.632784,34.863779,0</coordinates></LineString><LineString><tessellate>1</tessellate><coordinates>135.664016,34.894391,0 135.664355,34.894519,0 135.664255,34.894222,0</coordinates></LineString><LineString><tessellate>1</tessellate><coordinates>135.695486,34.924835,0 135.695825,34.924962,0 135.695726,34.924666,0</coordinates></LineString><LineString><tessellate>1</tessellate><coordinates>135.726957,34.955278,0 135.727296,34.955406,0 135.727196,34.955109,0</coordinates></LineString></MultiGeometry></Placemark>
<Placemark><name>d8·8 🚇 17:40 Metro Karasuma (Kioto): Kyoto → Gojō ⇒ hotel</name><styleUrl>#lff4499006</styleUrl><description><![CDATA[SALE 17:40 de Kyoto → LLEGA a Gojō · Metro Karasuma (Kioto) — sentido Kokusaikaikan (1 tramos) · rumbo del plan: hotel]]></description><MultiGeometry><LineString><tessellate>1</tessellate><coordinates>135.758767,34.985849,0 135.759718,34.995434,0</coordinates></LineString><LineString><tessellate>1</tessellate><coordinates>135.759058,34.990374,0 135.759242,34.990642,0 135.759372,34.990353,0</coordinates></LineString></MultiGeometry></Placemark>
</Folder></Document></kml>