<?xml version="1.0" encoding="UTF-8"?>
<kml xmlns="http://www.opengis.net/kml/2.2"><Document><name>sáb 17 · Tsukiji</name><description>Recorrido del día: gruesa=transporte (color oficial) · delgada=a pie · ＞ sentido · paradas numeradas con hora y punto estricto.</description><Style id="p1"><IconStyle><scale>0.9</scale><Icon><href>https://maps.google.com/mapfiles/kml/paddle/1.png</href></Icon></IconStyle></Style><Style id="p2"><IconStyle><scale>0.9</scale><Icon><href>https://maps.google.com/mapfiles/kml/paddle/2.png</href></Icon></IconStyle></Style><Style id="p3"><IconStyle><scale>0.9</scale><Icon><href>https://maps.google.com/mapfiles/kml/paddle/3.png</href></Icon></IconStyle></Style><Style id="p4"><IconStyle><scale>0.9</scale><Icon><href>https://maps.google.com/mapfiles/kml/paddle/4.png</href></Icon></IconStyle></Style><Style id="p5"><IconStyle><scale>0.9</scale><Icon><href>https://maps.google.com/mapfiles/kml/paddle/5.png</href></Icon></IconStyle></Style><Style id="p6"><IconStyle><scale>0.9</scale><Icon><href>https://maps.google.com/mapfiles/kml/paddle/6.png</href></Icon></IconStyle></Style><Style id="p7"><IconStyle><scale>0.9</scale><Icon><href>https://maps.google.com/mapfiles/kml/paddle/7.png</href></Icon></IconStyle></Style><Style id="p8"><IconStyle><scale>0.9</scale><Icon><href>https://maps.google.com/mapfiles/kml/paddle/8.png</href></Icon></IconStyle></Style><Style id="p9"><IconStyle><scale>0.9</scale><Icon><href>https://maps.google.com/mapfiles/kml/paddle/9.png</href></Icon></IconStyle></Style><Style id="p10"><IconStyle><scale>0.9</scale><Icon><href>https://maps.google.com/mapfiles/kml/paddle/10.png</href></Icon></IconStyle></Style><Style id="lffb76b0d6"><LineStyle><color>ffb76b0d</color><width>6</width></LineStyle></Style><Style id="lff1700806"><LineStyle><color>ff170080</color><width>6</width></LineStyle></Style><Style id="lb8636f7a3"><LineStyle><color>b8636f7a</color><width>3</width></LineStyle></Style><Style id="lff8628526"><LineStyle><color>ff862852</color><width>6</width></LineStyle></Style><Style id="lff934de46"><LineStyle><color>ff934de4</color><width>6</width></LineStyle></Style><Style id="lff1f17e56"><LineStyle><color>ff1f17e5</color><width>6</width></LineStyle></Style><Style id="lffa0501c6"><LineStyle><color>ffa0501c</color><width>6</width></LineStyle></Style><Style id="lff00d4ff6"><LineStyle><color>ff00d4ff</color><width>6</width></LineStyle></Style><Style id="lffaf5c006"><LineStyle><color>ffaf5c00</color><width>6</width></LineStyle></Style><Style id="lff4499006"><LineStyle><color>ff449900</color><width>6</width></LineStyle></Style><Style id="lff2147816"><LineStyle><color>ff214781</color><width>6</width></LineStyle></Style><Style id="lff669a016"><LineStyle><color>ff669a01</color><width>6</width></LineStyle></Style><Style id="lff0000e86"><LineStyle><color>ff0000e8</color><width>6</width></LineStyle></Style><Style id="lff2900d76"><LineStyle><color>ff2900d7</color><width>6</width></LineStyle></Style><Style id="lffa557276"><LineStyle><color>ffa55727</color><width>6</width></LineStyle></Style><Style id="lff1fc38f6"><LineStyle><color>ff1fc38f</color><width>6</width></LineStyle></Style><Style id="lff9933666"><LineStyle><color>ff993366</color><width>6</width></LineStyle></Style><Style id="lff2b4a7a6"><LineStyle><color>ff2b4a7a</color><width>6</width></LineStyle></Style><Style id="lff0c86c76"><LineStyle><color>ff0c86c7</color><width>6</width></LineStyle></Style><Style id="lff225af16"><LineStyle><color>ff225af1</color><width>6</width></LineStyle></Style><Style id="lff0097f36"><LineStyle><color>ff0097f3</color><width>6</width></LineStyle></Style><Style id="lffc36c0f6"><LineStyle><color>ffc36c0f</color><width>6</width></LineStyle></Style><Style id="lff656eec6"><LineStyle><color>ff656eec</color><width>6</width></LineStyle></Style><Style id="lffa0862c6"><LineStyle><color>ffa0862c</color><width>6</width></LineStyle></Style><Style id="lff2f25c96"><LineStyle><color>ff2f25c9</color><width>6</width></LineStyle></Style><Style id="lff32cd9a6"><LineStyle><color>ff32cd9a</color><width>6</width></LineStyle></Style><Style id="lff301be26"><LineStyle><color>ff301be2</color><width>6</width></LineStyle></Style><Style id="lff0388006"><LineStyle><color>ff038800</color><width>6</width></LineStyle></Style><Style id="lff9c46296"><LineStyle><color>ff9c4629</color><width>6</width></LineStyle></Style><Style id="lff1200e66"><LineStyle><color>ff1200e6</color><width>6</width></LineStyle></Style><Style id="lffb7ae9c6"><LineStyle><color>ffb7ae9c</color><width>6</width></LineStyle></Style><Style id="lff207bf46"><LineStyle><color>ff207bf4</color><width>6</width></LineStyle></Style><Folder><name>sáb 17 · Tsukiji</name>
<Placemark><name>1. 05:00 · Tsukiji Outer Market (d17)</name><styleUrl>#p1</styleUrl><description><![CDATA[Hora del plan: 05:00. ⏰ SIGUIENTE PUNTO ESTRICTO del día: 05:00 — Arriba (reserva/transporte: NO se puede llegar tarde).]]></description><Point><coordinates>139.770473,35.665388,0</coordinates></Point></Placemark>
<Placemark><name>2. 05:15 · Ginza (d17)</name><styleUrl>#p2</styleUrl><description><![CDATA[Hora del plan: 05:15. ⏰ SIGUIENTE PUNTO ESTRICTO del día: 09:00 — Jardín Hamarikyu (reserva/transporte: NO se puede llegar tarde).]]></description><Point><coordinates>139.765000,35.671700,0</coordinates></Point></Placemark>
<Placemark><name>3. 06:00 · Tsukiji Outer Market (d17)</name><styleUrl>#p3</styleUrl><description><![CDATA[Hora del plan: 06:00. ⏰ SIGUIENTE PUNTO ESTRICTO del día: 09:00 — Jardín Hamarikyu (reserva/transporte: NO se puede llegar tarde).]]></description><Point><coordinates>139.770473,35.665388,0</coordinates></Point></Placemark>
<Placemark><name>4. 10:15 · Ginza (d17)</name><styleUrl>#p4</styleUrl><description><![CDATA[Hora del plan: 10:15. Sin más puntos estrictos hoy después de esta parada.]]></description><Point><coordinates>139.765000,35.671700,0</coordinates></Point></Placemark>
<Placemark><name>5. 12:20 · Torre de Tokio (d17)</name><styleUrl>#p5</styleUrl><description><![CDATA[Hora del plan: 12:20. Sin más puntos estrictos hoy después de esta parada.]]></description><Point><coordinates>139.745536,35.658449,0</coordinates></Point></Placemark>
<Placemark><name>6. 12:20 · Zōjō-ji (d17)</name><styleUrl>#p6</styleUrl><description><![CDATA[Hora del plan: 12:20. Sin más puntos estrictos hoy después de esta parada.]]></description><Point><coordinates>139.748343,35.657278,0</coordinates></Point></Placemark>
<Placemark><name>7. 13:50 · Ginza (d17)</name><styleUrl>#p7</styleUrl><description><![CDATA[Hora del plan: 13:50. Sin más puntos estrictos hoy después de esta parada.]]></description><Point><coordinates>139.765000,35.671700,0</coordinates></Point></Placemark>
<Placemark><name>8. 14:00 · Akihabara (d17)</name><styleUrl>#p8</styleUrl><description><![CDATA[Hora del plan: 14:00. Sin más puntos estrictos hoy después de esta parada.]]></description><Point><coordinates>139.774368,35.701893,0</coordinates></Point></Placemark>
<Placemark><name>d17·1 🚇 05:15 Metro Marunouchi Line: Shinjuku → Ginza</name><styleUrl>#lff1200e66</styleUrl><description><![CDATA[SALE 05:15 de Shinjuku → LLEGA a Ginza · Metro Marunouchi Line — sentido Ikebukuro (8 tramos)]]></description><MultiGeometry><LineString><tessellate>1</tessellate><coordinates>139.698762,35.688726,0 139.705768,35.692525,0 139.710508,35.688790,0 139.720172,35.687747,0 139.729482,35.686205,0 139.736872,35.677076,0 139.743426,35.673689,0 139.751057,35.673854,0 139.764050,35.671850,0</coordinates></LineString><LineString><tessellate>1</tessellate><coordinates>139.705680,35.692775,0 139.705815,35.692488,0 139.705459,35.692588,0</coordinates></LineString><LineString><tessellate>1</tessellate><coordinates>139.712128,35.688746,0 139.712445,35.688581,0 139.712086,35.688489,0</coordinates></LineString><LineString><tessellate>1</tessellate><coordinates>139.720532,35.687820,0 139.720835,35.687637,0 139.720469,35.687565,0</coordinates></LineString><LineString><tessellate>1</tessellate><coordinates>139.728834,35.686445,0 139.729137,35.686262,0 139.728771,35.686190,0</coordinates></LineString><LineString><tessellate>1</tessellate><coordinates>139.733908,35.680973,0 139.733964,35.680669,0 139.733643,35.680830,0</coordinates></LineString><LineString><tessellate>1</tessellate><coordinates>139.739375,35.675936,0 139.739579,35.675677,0 139.739206,35.675716,0</coordinates></LineString><LineString><tessellate>1</tessellate><coordinates>139.746998,35.673896,0 139.747343,35.673774,0 139.747006,35.673637,0</coordinates></LineString><LineString><tessellate>1</tessellate><coordinates>139.755422,35.673313,0 139.755728,35.673134,0 139.755364,35.673058,0</coordinates></LineString></MultiGeometry></Placemark>
<Placemark><name>d17·2 🚇 05:32 Metro Hibiya Line: Ginza → Tsukiji ⇒ Tsukiji Outer Market</name><styleUrl>#lffb7ae9c6</styleUrl><description><![CDATA[SALE 05:32 de Ginza → LLEGA a Tsukiji · Metro Hibiya Line — sentido Kita-Senju (2 tramos) · rumbo del plan: Tsukiji Outer Market]]></description><MultiGeometry><LineString><tessellate>1</tessellate><coordinates>139.764050,35.671850,0 139.768029,35.670913,0 139.772592,35.668085,0</coordinates></LineString><LineString><tessellate>1</tessellate><coordinates>139.768484,35.670793,0 139.768660,35.670521,0 139.768293,35.670586,0</coordinates></LineString></MultiGeometry></Placemark>
<Placemark><name>d17·3 🚶 Tsukiji → Tsukiji Outer Market</name><styleUrl>#lb8636f7a3</styleUrl><description><![CDATA[caminando]]></description><MultiGeometry><LineString><tessellate>1</tessellate><coordinates>139.772554,35.668109,0 139.772078,35.667613,0 139.771965,35.667703,0 139.771946,35.667718,0 139.771762,35.667585,0 139.771711,35.667551,0 139.771699,35.667541,0 139.771671,35.667504,0 139.771576,35.667430,0 139.771771,35.667265,0 139.771674,35.667188,0 139.771688,35.667175,0 139.771570,35.667089,0 139.771064,35.666698,0 139.770975,35.666628,0 139.770922,35.666579,0 139.770908,35.666545,0 139.770908,35.666519,0 139.770918,35.666487,0 139.770860,35.666472,0 139.770828,35.666450,0 139.770727,35.666379,0 139.770656,35.666329,0 139.770625,35.666283,0 139.770597,35.666285,0 139.770570,35.666284,0 139.770541,35.666274,0 139.770511,35.666261,0 139.770482,35.666241,0 139.770339,35.666129,0 139.770318,35.666112,0 139.770525,35.665913,0 139.770850,35.665612,0 139.770515,35.665352,0</coordinates></LineString><LineString><tessellate>1</tessellate><coordinates>139.771436,35.666870,0 139.771205,35.666807,0 139.771295,35.666992,0</coordinates></LineString></MultiGeometry></Placemark>
<Placemark><name>d17·4 🚶 Tsukiji Outer Market → Ginza</name><styleUrl>#lb8636f7a3</styleUrl><description><![CDATA[caminando]]></description><MultiGeometry><LineString><tessellate>1</tessellate><coordinates>139.770515,35.665352,0 139.770850,35.665612,0 139.770525,35.665913,0 139.770318,35.666112,0 139.770339,35.666129,0 139.770482,35.666241,0 139.770511,35.666261,0 139.770541,35.666274,0 139.770570,35.666284,0 139.770541,35.666325,0 139.770508,35.666358,0 139.770425,35.666440,0 139.770388,35.666478,0 139.770355,35.666490,0 139.770382,35.666533,0 139.770382,35.666559,0 139.770374,35.666591,0 139.770343,35.666625,0 139.769666,35.667188,0 139.769642,35.667206,0 139.769607,35.667233,0 139.769573,35.667260,0 139.769545,35.667282,0 139.769523,35.667310,0 139.769464,35.667360,0 139.769163,35.667615,0 139.769134,35.667626,0 139.769112,35.667642,0 139.769084,35.667663,0 139.769071,35.667685,0 139.768692,35.667999,0 139.768670,35.668007,0 139.768618,35.668024,0 139.768593,35.668056,0 139.768566,35.668094,0 139.768540,35.668127,0 139.768253,35.668370,0 139.768243,35.668377,0 139.768207,35.668400,0 139.768152,35.668434,0 139.768117,35.668445,0 139.768116,35.668469,0 139.768104,35.668505,0 139.767734,35.668812,0 139.767714,35.668837,0 139.767693,35.668856,0 139.767664,35.668882,0 139.767640,35.668914,0 139.767432,35.669097,0 139.767412,35.669115,0 139.767382,35.669142,0 139.767189,35.669314,0 139.767155,35.669323,0 139.767129,35.669329,0 139.767071,35.669330,0 139.767037,35.669323,0 139.767015,35.669341,0 139.766993,35.669360,0 139.766817,35.669505,0 139.766761,35.669547,0 139.766739,35.669564,0 139.766753,35.669595,0 139.766753,35.669636,0 139.766749,35.669648,0 139.766739,35.669684,0 139.766556,35.669838,0 139.766550,35.669842,0 139.766512,35.669874,0 139.766484,35.669898,0 139.766448,35.669929,0 139.766361,35.670005,0 139.766055,35.670271,0 139.766023,35.670299,0 139.765973,35.670335,0 139.765930,35.670365,0 139.765908,35.670388,0 139.765902,35.670403,0 139.765513,35.670695,0 139.765503,35.670703,0 139.765480,35.670720,0 139.765454,35.670740,0 139.765435,35.670755,0 139.765212,35.670921,0 139.765222,35.670928,0 139.765210,35.670938,0 139.765175,35.670967,0 139.765285,35.671071,0 139.765113,35.671191,0 139.765037,35.671185,0 139.765017,35.671199,0 139.765015,35.671200,0 139.764941,35.671257,0 139.764786,35.671376,0 139.764825,35.671414,0 139.764843,35.671431,0 139.764865,35.671451,0 139.764904,35.671488,0 139.764866,35.671519,0 139.764866,35.671549,0 139.764775,35.671616,0 139.764761,35.671626,0 139.764907,35.671765,0</coordinates></LineString><LineString><tessellate>1</tessellate><coordinates>139.769962,35.666822,0 139.769881,35.667009,0 139.770109,35.666940,0</coordinates></LineString><LineString><tessellate>1</tessellate><coordinates>139.768047,35.668432,0 139.767966,35.668620,0 139.768194,35.668551,0</coordinates></LineString><LineString><tessellate>1</tessellate><coordinates>139.766192,35.670029,0 139.766116,35.670218,0 139.766342,35.670144,0</coordinates></LineString></MultiGeometry></Placemark>
<Placemark><name>d17·5 🚶 Ginza → Tsukiji ⇒ Torre de Tokio</name><styleUrl>#lb8636f7a3</styleUrl><description><![CDATA[caminando · rumbo del plan: Torre de Tokio]]></description><MultiGeometry><LineString><tessellate>1</tessellate><coordinates>139.764907,35.671765,0 139.765460,35.672292,0 139.765470,35.672285,0 139.765748,35.672092,0 139.765756,35.672050,0 139.765780,35.672032,0 139.765818,35.672003,0 139.765869,35.671966,0 139.765899,35.671943,0 139.765929,35.671921,0 139.765960,35.671947,0 139.766391,35.671646,0 139.766427,35.671616,0 139.766465,35.671590,0 139.766467,35.671552,0 139.766873,35.671291,0 139.766881,35.671274,0 139.766896,35.671265,0 139.766917,35.671251,0 139.766951,35.671229,0 139.766965,35.671221,0 139.766985,35.671218,0 139.767141,35.671116,0 139.767174,35.671094,0 139.767211,35.671071,0 139.767446,35.670922,0 139.767459,35.670908,0 139.767457,35.670892,0 139.767481,35.670875,0 139.767501,35.670862,0 139.767527,35.670844,0 139.767553,35.670824,0 139.767565,35.670825,0 139.767592,35.670815,0 139.767751,35.670713,0 139.767764,35.670694,0 139.767767,35.670689,0 139.767766,35.670663,0 139.767706,35.670597,0 139.767725,35.670586,0 139.767775,35.670556,0 139.767980,35.670436,0 139.768025,35.670406,0 139.768043,35.670395,0 139.768061,35.670416,0 139.768088,35.670426,0 139.768124,35.670426,0 139.768144,35.670419,0 139.768812,35.669928,0 139.768857,35.669894,0 139.768867,35.669862,0 139.768891,35.669850,0 139.768921,35.669829,0 139.768945,35.669812,0 139.768961,35.669800,0 139.768989,35.669797,0 139.769172,35.669665,0 139.769198,35.669646,0 139.769232,35.669623,0 139.769396,35.669507,0 139.769407,35.669482,0 139.769414,35.669467,0 139.769443,35.669460,0 139.769466,35.669442,0 139.769487,35.669427,0 139.769526,35.669399,0 139.769806,35.669199,0 139.769828,35.669183,0 139.769853,35.669161,0 139.769882,35.669138,0 139.769911,35.669107,0 139.769945,35.669107,0 139.770832,35.668476,0 139.770848,35.668454,0 139.770839,35.668426,0 139.770899,35.668378,0 139.770962,35.668328,0 139.770976,35.668339,0 139.771005,35.668344,0 139.771036,35.668339,0 139.771866,35.667758,0 139.771881,35.667736,0 139.771881,35.667692,0 139.771863,35.667676,0 139.771711,35.667578,0 139.771711,35.667551,0 139.771762,35.667585,0 139.771946,35.667718,0 139.771965,35.667703,0 139.772078,35.667613,0 139.772554,35.668109,0</coordinates></LineString><LineString><tessellate>1</tessellate><coordinates>139.766770,35.671445,0 139.766887,35.671270,0 139.766649,35.671309,0</coordinates></LineString><LineString><tessellate>1</tessellate><coordinates>139.768912,35.670059,0 139.768867,35.669863,0 139.768712,35.670017,0</coordinates></LineString><LineString><tessellate>1</tessellate><coordinates>139.770846,35.668537,0 139.770933,35.668351,0 139.770703,35.668416,0</coordinates></LineString></MultiGeometry></Placemark>
<Placemark><name>d17·6 🚇 12:00 Metro Hibiya Line: Tsukiji → Kamiyachō ⇒ Torre de Tokio</name><styleUrl>#lffb7ae9c6</styleUrl><description><![CDATA[SALE 12:00 de Tsukiji → LLEGA a Kamiyachō · Metro Hibiya Line — sentido Naka-Meguro (6 tramos) · rumbo del plan: Torre de Tokio]]></description><MultiGeometry><LineString><tessellate>1</tessellate><coordinates>139.772592,35.668085,0 139.768029,35.670913,0 139.764050,35.671850,0 139.761069,35.674108,0 139.751057,35.673854,0 139.747765,35.667469,0 139.745048,35.662964,0</coordinates></LineString><LineString><tessellate>1</tessellate><coordinates>139.767638,35.670869,0 139.767355,35.671072,0 139.767726,35.671119,0</coordinates></LineString><LineString><tessellate>1</tessellate><coordinates>139.762000,35.673225,0 139.761858,35.673510,0 139.762216,35.673416,0</coordinates></LineString><LineString><tessellate>1</tessellate><coordinates>139.756066,35.673851,0 139.755721,35.673972,0 139.756057,35.674111,0</coordinates></LineString><LineString><tessellate>1</tessellate><coordinates>139.750652,35.672734,0 139.750373,35.672528,0 139.750359,35.672835,0</coordinates></LineString><LineString><tessellate>1</tessellate><coordinates>139.748155,35.667890,0 139.747876,35.667684,0 139.747862,35.667991,0</coordinates></LineString></MultiGeometry></Placemark>
<Placemark><name>d17·7 🚶 Kamiyachō → Torre de Tokio</name><styleUrl>#lb8636f7a3</styleUrl><description><![CDATA[caminando]]></description><MultiGeometry><LineString><tessellate>1</tessellate><coordinates>139.745008,35.662989,0 139.744901,35.662877,0 139.744845,35.662912,0 139.744829,35.662895,0 139.744572,35.662622,0 139.744381,35.662418,0 139.744342,35.662386,0 139.744311,35.662362,0 139.744116,35.662145,0 139.744187,35.662106,0 139.744284,35.662052,0 139.744352,35.662014,0 139.744346,35.661984,0 139.744275,35.661894,0 139.744209,35.661810,0 139.744085,35.661662,0 139.743999,35.661577,0 139.743766,35.661269,0 139.743701,35.661178,0 139.743686,35.661153,0 139.743504,35.660900,0 139.743478,35.660854,0 139.743463,35.660827,0 139.743354,35.660648,0 139.743294,35.660522,0 139.743192,35.660264,0 139.743161,35.660165,0 139.743153,35.660132,0 139.743141,35.660085,0 139.743136,35.660058,0 139.743136,35.660038,0 139.743141,35.660019,0 139.743170,35.659991,0 139.743187,35.659983,0 139.743200,35.659977,0 139.743252,35.659959,0 139.743904,35.659857,0 139.744101,35.659820,0 139.744276,35.659807,0 139.744315,35.659786,0 139.744346,35.659766,0 139.744380,35.659697,0 139.744352,35.659653,0 139.744318,35.659601,0 139.744587,35.659486,0 139.744975,35.659314,0 139.744934,35.659199,0 139.744716,35.658772,0 139.744720,35.658743,0 139.744851,35.658620,0 139.744884,35.658582,0 139.744990,35.658441,0 139.745071,35.658349,0 139.745224,35.658248,0 139.745265,35.658217,0</coordinates></LineString><LineString><tessellate>1</tessellate><coordinates>139.743989,35.661404,0 139.743786,35.661295,0 139.743814,35.661493,0</coordinates></LineString><LineString><tessellate>1</tessellate><coordinates>139.743951,35.659916,0 139.744161,35.659816,0 139.743932,35.659748,0</coordinates></LineString></MultiGeometry></Placemark>
<Placemark><name>d17·8 🚶 Torre de Tokio → Zōjō-ji</name><styleUrl>#lb8636f7a3</styleUrl><description><![CDATA[caminando]]></description><MultiGeometry><LineString><tessellate>1</tessellate><coordinates>139.745265,35.658217,0 139.745468,35.658060,0 139.745687,35.657939,0 139.745669,35.658001,0 139.745676,35.658041,0 139.745884,35.658250,0 139.745987,35.658338,0 139.746095,35.658467,0 139.746126,35.658546,0 139.746248,35.658654,0 139.746312,35.658623,0 139.746392,35.658587,0 139.746868,35.658417,0 139.746889,35.658362,0 139.746917,35.658344,0 139.746963,35.658340,0 139.747071,35.658327,0 139.747139,35.658316,0 139.747122,35.658211,0 139.747132,35.658193,0 139.747136,35.658186,0 139.747142,35.658175,0 139.747140,35.658155,0 139.747139,35.658139,0 139.747136,35.658110,0 139.747290,35.658120,0 139.747674,35.658143,0 139.748596,35.658017,0 139.748814,35.657987,0 139.748812,35.657978,0 139.748811,35.657975,0 139.748782,35.657979,0 139.748771,35.657958,0 139.748745,35.657889,0 139.748671,35.657890,0 139.748604,35.657892,0 139.748544,35.657945,0 139.748537,35.657940,0 139.748521,35.657931,0 139.748497,35.657735,0 139.748853,35.657699,0 139.748831,35.657551,0 139.748618,35.657571,0 139.748605,35.657472,0 139.748729,35.657460,0 139.748705,35.657297,0 139.748583,35.657308,0 139.748575,35.657255,0</coordinates></LineString><LineString><tessellate>1</tessellate><coordinates>139.746622,35.658597,0 139.746783,35.658447,0 139.746539,35.658443,0</coordinates></LineString><LineString><tessellate>1</tessellate><coordinates>139.748453,35.658122,0 139.748653,35.658009,0 139.748418,35.657956,0</coordinates></LineString></MultiGeometry></Placemark>
<Placemark><name>d17·9 🚶 Zōjō-ji → Kamiyachō ⇒ Ginza</name><styleUrl>#lb8636f7a3</styleUrl><description><![CDATA[caminando · rumbo del plan: Ginza]]></description><MultiGeometry><LineString><tessellate>1</tessellate><coordinates>139.748575,35.657255,0 139.748583,35.657308,0 139.748705,35.657297,0 139.748729,35.657460,0 139.748605,35.657472,0 139.748618,35.657571,0 139.748831,35.657551,0 139.748853,35.657699,0 139.748497,35.657735,0 139.748521,35.657931,0 139.748537,35.657940,0 139.748544,35.657945,0 139.748604,35.657892,0 139.748671,35.657890,0 139.748745,35.657889,0 139.748771,35.657958,0 139.748782,35.657979,0 139.748811,35.657975,0 139.748812,35.657978,0 139.748814,35.657987,0 139.748596,35.658017,0 139.747674,35.658143,0 139.747290,35.658120,0 139.747136,35.658110,0 139.747139,35.658139,0 139.747140,35.658155,0 139.747142,35.658175,0 139.747136,35.658186,0 139.747132,35.658193,0 139.747122,35.658211,0 139.747139,35.658316,0 139.747071,35.658327,0 139.746963,35.658340,0 139.746917,35.658344,0 139.746889,35.658362,0 139.746868,35.658417,0 139.746879,35.658483,0 139.746891,35.658539,0 139.746706,35.658601,0 139.746411,35.658716,0 139.745906,35.658957,0 139.745796,35.659016,0 139.745341,35.659261,0 139.744380,35.659697,0 139.744346,35.659766,0 139.744315,35.659786,0 139.744276,35.659807,0 139.744101,35.659820,0 139.743904,35.659857,0 139.743252,35.659959,0 139.743200,35.659977,0 139.743187,35.659983,0 139.743170,35.659991,0 139.743141,35.660019,0 139.743136,35.660038,0 139.743136,35.660058,0 139.743141,35.660085,0 139.743153,35.660132,0 139.743161,35.660165,0 139.743192,35.660264,0 139.743294,35.660522,0 139.743354,35.660648,0 139.743463,35.660827,0 139.743478,35.660854,0 139.743504,35.660900,0 139.743686,35.661153,0 139.743701,35.661178,0 139.743766,35.661269,0 139.743999,35.661577,0 139.744085,35.661662,0 139.744209,35.661810,0 139.744275,35.661894,0 139.744346,35.661984,0 139.744352,35.662014,0 139.744284,35.662052,0 139.744187,35.662106,0 139.744116,35.662145,0 139.744311,35.662362,0 139.744342,35.662386,0 139.744381,35.662418,0 139.744572,35.662622,0 139.744829,35.662895,0 139.744845,35.662912,0 139.744901,35.662877,0 139.745008,35.662989,0</coordinates></LineString><LineString><tessellate>1</tessellate><coordinates>139.748433,35.657954,0 139.748233,35.658067,0 139.748467,35.658120,0</coordinates></LineString><LineString><tessellate>1</tessellate><coordinates>139.746318,35.658663,0 139.746180,35.658826,0 139.746422,35.658808,0</coordinates></LineString><LineString><tessellate>1</tessellate><coordinates>139.744103,35.659733,0 139.743911,35.659856,0 139.744149,35.659897,0</coordinates></LineString><LineString><tessellate>1</tessellate><coordinates>139.743650,35.661275,0 139.743853,35.661384,0 139.743824,35.661186,0</coordinates></LineString></MultiGeometry></Placemark>
<Placemark><name>d17·10 🚇 13:50 Metro Hibiya Line: Kamiyachō → Ginza</name><styleUrl>#lffb7ae9c6</styleUrl><description><![CDATA[SALE 13:50 de Kamiyachō → LLEGA a Ginza · Metro Hibiya Line — sentido Kita-Senju (4 tramos)]]></description><MultiGeometry><LineString><tessellate>1</tessellate><coordinates>139.745048,35.662964,0 139.747765,35.667469,0 139.751057,35.673854,0 139.761069,35.674108,0 139.764050,35.671850,0</coordinates></LineString><LineString><tessellate>1</tessellate><coordinates>139.747294,35.666981,0 139.747587,35.667174,0 139.747578,35.666866,0</coordinates></LineString><LineString><tessellate>1</tessellate><coordinates>139.749559,35.671285,0 139.749838,35.671491,0 139.749852,35.671184,0</coordinates></LineString><LineString><tessellate>1</tessellate><coordinates>139.753313,35.674042,0 139.753658,35.673920,0 139.753323,35.673782,0</coordinates></LineString><LineString><tessellate>1</tessellate><coordinates>139.759048,35.674187,0 139.759394,35.674065,0 139.759058,35.673927,0</coordinates></LineString></MultiGeometry></Placemark>
</Folder></Document></kml>