<?xml version="1.0" encoding="UTF-8"?>
<kml xmlns="http://www.opengis.net/kml/2.2"><Document><name>jue 15 · Shibuya</name><description>Recorrido del día: gruesa=transporte (color oficial) · delgada=a pie · ＞ sentido · paradas con hora y punto estricto · coordenadas Google.</description><Style id="p1"><IconStyle><scale>0.9</scale><Icon><href>https://maps.google.com/mapfiles/kml/paddle/1.png</href></Icon></IconStyle></Style><Style id="p2"><IconStyle><scale>0.9</scale><Icon><href>https://maps.google.com/mapfiles/kml/paddle/2.png</href></Icon></IconStyle></Style><Style id="p3"><IconStyle><scale>0.9</scale><Icon><href>https://maps.google.com/mapfiles/kml/paddle/3.png</href></Icon></IconStyle></Style><Style id="p4"><IconStyle><scale>0.9</scale><Icon><href>https://maps.google.com/mapfiles/kml/paddle/4.png</href></Icon></IconStyle></Style><Style id="p5"><IconStyle><scale>0.9</scale><Icon><href>https://maps.google.com/mapfiles/kml/paddle/5.png</href></Icon></IconStyle></Style><Style id="p6"><IconStyle><scale>0.9</scale><Icon><href>https://maps.google.com/mapfiles/kml/paddle/6.png</href></Icon></IconStyle></Style><Style id="p7"><IconStyle><scale>0.9</scale><Icon><href>https://maps.google.com/mapfiles/kml/paddle/7.png</href></Icon></IconStyle></Style><Style id="p8"><IconStyle><scale>0.9</scale><Icon><href>https://maps.google.com/mapfiles/kml/paddle/8.png</href></Icon></IconStyle></Style><Style id="p9"><IconStyle><scale>0.9</scale><Icon><href>https://maps.google.com/mapfiles/kml/paddle/9.png</href></Icon></IconStyle></Style><Style id="p10"><IconStyle><scale>0.9</scale><Icon><href>https://maps.google.com/mapfiles/kml/paddle/10.png</href></Icon></IconStyle></Style><Style id="lffb76b0d6"><LineStyle><color>ffb76b0d</color><width>6</width></LineStyle></Style><Style id="lff1700806"><LineStyle><color>ff170080</color><width>6</width></LineStyle></Style><Style id="lb8636f7a3"><LineStyle><color>b8636f7a</color><width>3</width></LineStyle></Style><Style id="lff8628526"><LineStyle><color>ff862852</color><width>6</width></LineStyle></Style><Style id="lff934de46"><LineStyle><color>ff934de4</color><width>6</width></LineStyle></Style><Style id="lff1f17e56"><LineStyle><color>ff1f17e5</color><width>6</width></LineStyle></Style><Style id="lffa0501c6"><LineStyle><color>ffa0501c</color><width>6</width></LineStyle></Style><Style id="lff00d4ff6"><LineStyle><color>ff00d4ff</color><width>6</width></LineStyle></Style><Style id="lffaf5c006"><LineStyle><color>ffaf5c00</color><width>6</width></LineStyle></Style><Style id="lff4499006"><LineStyle><color>ff449900</color><width>6</width></LineStyle></Style><Style id="lff2147816"><LineStyle><color>ff214781</color><width>6</width></LineStyle></Style><Style id="lff669a016"><LineStyle><color>ff669a01</color><width>6</width></LineStyle></Style><Style id="lff0000e86"><LineStyle><color>ff0000e8</color><width>6</width></LineStyle></Style><Style id="lff2900d76"><LineStyle><color>ff2900d7</color><width>6</width></LineStyle></Style><Style id="lffa557276"><LineStyle><color>ffa55727</color><width>6</width></LineStyle></Style><Style id="lff1fc38f6"><LineStyle><color>ff1fc38f</color><width>6</width></LineStyle></Style><Style id="lff9933666"><LineStyle><color>ff993366</color><width>6</width></LineStyle></Style><Style id="lff2b4a7a6"><LineStyle><color>ff2b4a7a</color><width>6</width></LineStyle></Style><Style id="lff0c86c76"><LineStyle><color>ff0c86c7</color><width>6</width></LineStyle></Style><Style id="lff225af16"><LineStyle><color>ff225af1</color><width>6</width></LineStyle></Style><Style id="lff0097f36"><LineStyle><color>ff0097f3</color><width>6</width></LineStyle></Style><Style id="lffc36c0f6"><LineStyle><color>ffc36c0f</color><width>6</width></LineStyle></Style><Style id="lff656eec6"><LineStyle><color>ff656eec</color><width>6</width></LineStyle></Style><Style id="lffa0862c6"><LineStyle><color>ffa0862c</color><width>6</width></LineStyle></Style><Style id="lff2f25c96"><LineStyle><color>ff2f25c9</color><width>6</width></LineStyle></Style><Style id="lff32cd9a6"><LineStyle><color>ff32cd9a</color><width>6</width></LineStyle></Style><Style id="lff301be26"><LineStyle><color>ff301be2</color><width>6</width></LineStyle></Style><Style id="lff0388006"><LineStyle><color>ff038800</color><width>6</width></LineStyle></Style><Style id="lff9c46296"><LineStyle><color>ff9c4629</color><width>6</width></LineStyle></Style><Style id="lff1200e66"><LineStyle><color>ff1200e6</color><width>6</width></LineStyle></Style><Style id="lffb7ae9c6"><LineStyle><color>ffb7ae9c</color><width>6</width></LineStyle></Style><Style id="lff207bf46"><LineStyle><color>ff207bf4</color><width>6</width></LineStyle></Style><Folder><name>jue 15 · Shibuya</name>
<Placemark><name>1. 05:30 · Santuario Meiji (d15)</name><styleUrl>#p1</styleUrl><description><![CDATA[Hora del plan: 05:30. ⏰ SIGUIENTE PUNTO ESTRICTO del día: 05:30 — Arriba (reserva/transporte: NO se puede llegar tarde).]]></description><Point><coordinates>139.699326,35.676398,0</coordinates></Point></Placemark>
<Placemark><name>2. 05:30 · Tokyo Disneyland (d15)</name><styleUrl>#p2</styleUrl><description><![CDATA[Hora del plan: 05:30. ⏰ SIGUIENTE PUNTO ESTRICTO del día: 05:30 — Arriba (reserva/transporte: NO se puede llegar tarde).]]></description><Point><coordinates>139.880394,35.632896,0</coordinates></Point></Placemark>
<Placemark><name>3. 06:00 · Santuario Meiji (d15)</name><styleUrl>#p3</styleUrl><description><![CDATA[Hora del plan: 06:00. ⏰ SIGUIENTE PUNTO ESTRICTO del día: 06:00 — Santuario Meiji (reserva/transporte: NO se puede llegar tarde).]]></description><Point><coordinates>139.699326,35.676398,0</coordinates></Point></Placemark>
<Placemark><name>4. 10:15 · Takeshita Street + Omotesandō (d15)</name><styleUrl>#p4</styleUrl><description><![CDATA[Hora del plan: 10:15. ⏰ SIGUIENTE PUNTO ESTRICTO del día: 13:30 — Animales ☕ (reserva/transporte: NO se puede llegar tarde).]]></description><Point><coordinates>139.705182,35.671034,0</coordinates></Point></Placemark>
<Placemark><name>5. 15:45 · Cruce de Shibuya (d15)</name><styleUrl>#p5</styleUrl><description><![CDATA[Hora del plan: 15:45. ⏰ SIGUIENTE PUNTO ESTRICTO del día: 16:45 — Shibuya Sky (reserva/transporte: NO se puede llegar tarde).]]></description><Point><coordinates>139.700560,35.659482,0</coordinates></Point></Placemark>
<Placemark><name>6. 16:45 · Shibuya Sky (d15)</name><styleUrl>#p6</styleUrl><description><![CDATA[Hora del plan: 16:45. ⏰ SIGUIENTE PUNTO ESTRICTO del día: 16:45 — Shibuya Sky (reserva/transporte: NO se puede llegar tarde).]]></description><Point><coordinates>139.701985,35.658672,0</coordinates></Point></Placemark>
<Placemark><name>d15·1 🚶 Hotel → Santuario Meiji</name><styleUrl>#lb8636f7a3</styleUrl><description><![CDATA[caminando]]></description><MultiGeometry><LineString><tessellate>1</tessellate><coordinates>139.693676,35.694462,0 139.693581,35.694278,0 139.694093,35.694118,0 139.694149,35.694103,0 139.694444,35.694022,0 139.694871,35.693898,0 139.694990,35.693863,0 139.695283,35.693784,0 139.695256,35.693718,0 139.695222,35.693643,0 139.695207,35.693608,0 139.695203,35.693584,0 139.695291,35.693558,0 139.695829,35.693402,0 139.696024,35.693345,0 139.696645,35.693165,0 139.696742,35.693136,0 139.696805,35.693112,0 139.696810,35.693109,0 139.696850,35.693074,0 139.696854,35.693071,0 139.696857,35.693013,0 139.696858,35.693007,0 139.696868,35.693004,0 139.697119,35.692981,0 139.697162,35.692900,0 139.697167,35.692896,0 139.697183,35.692881,0 139.697147,35.692869,0 139.697150,35.692864,0 139.697158,35.692850,0 139.697239,35.692870,0 139.697434,35.692718,0 139.697851,35.692378,0 139.697992,35.692258,0 139.698007,35.692215,0 139.698013,35.692182,0 139.698016,35.692171,0 139.698021,35.692144,0 139.698037,35.692120,0 139.698042,35.692053,0 139.698045,35.692011,0 139.698046,35.691997,0 139.698049,35.691968,0 139.698051,35.691944,0 139.698053,35.691924,0 139.698072,35.691662,0 139.698074,35.691642,0 139.698083,35.691518,0 139.698091,35.691413,0 139.698029,35.691344,0 139.698031,35.691300,0 139.698033,35.691266,0 139.698041,35.691125,0 139.698046,35.691035,0 139.698085,35.691024,0 139.698113,35.691005,0 139.698126,35.690983,0 139.698131,35.690962,0 139.698174,35.690379,0 139.698182,35.690321,0 139.698197,35.690279,0 139.698249,35.690233,0 139.698265,35.690220,0 139.698478,35.690160,0 139.698482,35.690095,0 139.698530,35.690064,0 139.698539,35.690002,0 139.698558,35.689870,0 139.698578,35.689727,0 139.698600,35.689573,0 139.698621,35.689430,0 139.698631,35.689353,0 139.698668,35.689128,0 139.698704,35.688896,0 139.698726,35.688790,0 139.698766,35.688729,0 139.698733,35.688680,0 139.698702,35.688659,0 139.698749,35.688578,0 139.698810,35.688475,0 139.698857,35.688398,0 139.698949,35.688399,0 139.698993,35.688337,0 139.699036,35.688250,0 139.699073,35.688155,0 139.699096,35.688095,0 139.699241,35.687692,0 139.699424,35.687135,0 139.699458,35.687055,0 139.699525,35.686901,0 139.699602,35.686694,0 139.699697,35.686529,0 139.699913,35.686274,0 139.700583,35.685705,0 139.700612,35.685665,0 139.700676,35.685607,0 139.700717,35.685569,0 139.700752,35.685537,0 139.700790,35.685503,0 139.700857,35.685441,0 139.700841,35.685404,0 139.700874,35.685370,0 139.700950,35.685284,0 139.700979,35.685246,0 139.701019,35.685198,0 139.701062,35.685073,0 139.701163,35.684790,0 139.701187,35.684721,0 139.701260,35.684513,0 139.701428,35.683899,0 139.701507,35.683596,0 139.701514,35.683570,0 139.701503,35.683543,0 139.701488,35.683537,0 139.701504,35.683454,0 139.701520,35.683377,0 139.701572,35.683301,0 139.701580,35.683270,0 139.701622,35.683112,0 139.701654,35.682941,0 139.701673,35.682945,0 139.701689,35.682873,0 139.701684,35.682847,0 139.701681,35.682836,0 139.701674,35.682800,0 139.701638,35.682767,0 139.701612,35.682759,0 139.701624,35.682715,0 139.701638,35.682663,0 139.701686,35.682655,0 139.701733,35.682623,0 139.701802,35.682432,0 139.702099,35.681555,0 139.702153,35.681405,0 139.702177,35.681342,0 139.702358,35.680805,0 139.702382,35.680753,0 139.702431,35.680703,0 139.702538,35.680617,0 139.702629,35.680560,0 139.702724,35.680514,0 139.702792,35.680466,0 139.702861,35.680404,0 139.702900,35.680360,0 139.702938,35.680194,0 139.702904,35.680152,0 139.702820,35.680116,0 139.702732,35.680076,0 139.702702,35.680064,0 139.702661,35.680042,0 139.702754,35.680008,0 139.702526,35.679828,0 139.702240,35.679386,0 139.702120,35.679134,0 139.702001,35.679107,0 139.701516,35.679154,0 139.701417,35.679178,0 139.701018,35.678885,0 139.700644,35.678504,0 139.700369,35.678117,0 139.700455,35.677769,0 139.700567,35.677467,0 139.700617,35.677353,0 139.700806,35.676918,0 139.700770,35.676911,0 139.700684,35.676884,0 139.700525,35.676704,0 139.700314,35.676550,0 139.700184,35.676507,0 139.700258,35.675925,0 139.700268,35.675847,0 139.700273,35.675811,0 139.700298,35.675639,0 139.700252,35.675636,0 139.700072,35.675629,0 139.699454,35.675603,0 139.699426,35.675869,0</coordinates></LineString><LineString><tessellate>1</tessellate><coordinates>139.697463,35.692813,0 139.697547,35.692626,0 139.697318,35.692694,0</coordinates></LineString><LineString><tessellate>1</tessellate><coordinates>139.698786,35.689003,0 139.698722,35.688811,0 139.698583,35.688975,0</coordinates></LineString><LineString><tessellate>1</tessellate><coordinates>139.700944,35.685437,0 139.700983,35.685241,0 139.700774,35.685343,0</coordinates></LineString><LineString><tessellate>1</tessellate><coordinates>139.702239,35.681475,0 139.702198,35.681279,0 139.702041,35.681430,0</coordinates></LineString><LineString><tessellate>1</tessellate><coordinates>139.700842,35.678616,0 139.700643,35.678502,0 139.700665,35.678700,0</coordinates></LineString></MultiGeometry></Placemark>
<Placemark><name>d15·2 🚇 05:30 JR Chūō Line (rápida): Shinjuku → Tokyo ⇒ Santuario Meiji</name><styleUrl>#lff225af16</styleUrl><description><![CDATA[SALE 05:30 de Shinjuku → LLEGA a Tokyo · JR Chūō Line (rápida) — sentido Tokyo (4 tramos) · rumbo del plan: Santuario Meiji]]></description><MultiGeometry><LineString><tessellate>1</tessellate><coordinates>139.698762,35.688726,0 139.729482,35.686205,0 139.764440,35.699717,0 139.770698,35.694473,0 139.764615,35.677700,0</coordinates></LineString><LineString><tessellate>1</tessellate><coordinates>139.709482,35.687977,0 139.709806,35.687820,0 139.709451,35.687718,0</coordinates></LineString><LineString><tessellate>1</tessellate><coordinates>139.720526,35.687071,0 139.720849,35.686914,0 139.720494,35.686812,0</coordinates></LineString><LineString><tessellate>1</tessellate><coordinates>139.731296,35.687050,0 139.731672,35.687051,0 139.731432,35.686815,0</coordinates></LineString><LineString><tessellate>1</tessellate><coordinates>139.741330,35.690929,0 139.741706,35.690930,0 139.741466,35.690693,0</coordinates></LineString><LineString><tessellate>1</tessellate><coordinates>139.751365,35.694807,0 139.751741,35.694809,0 139.751500,35.694572,0</coordinates></LineString><LineString><tessellate>1</tessellate><coordinates>139.761399,35.698686,0 139.761775,35.698687,0 139.761535,35.698451,0</coordinates></LineString><LineString><tessellate>1</tessellate><coordinates>139.770009,35.695236,0 139.770134,35.694946,0 139.769782,35.695055,0</coordinates></LineString><LineString><tessellate>1</tessellate><coordinates>139.768021,35.686634,0 139.767772,35.686404,0 139.767716,35.686708,0</coordinates></LineString></MultiGeometry></Placemark>
<Placemark><name>d15·3 🚇 05:30 JR Keiyo Line: Tokyo → Maihama ⇒ Santuario Meiji</name><styleUrl>#lff2f25c96</styleUrl><description><![CDATA[SALE 05:30 de Tokyo → LLEGA a Maihama · JR Keiyo Line — sentido Soga (6 tramos) · rumbo del plan: Santuario Meiji]]></description><MultiGeometry><LineString><tessellate>1</tessellate><coordinates>139.764615,35.677700,0 139.776469,35.674006,0 139.792284,35.668191,0 139.817251,35.658703,0 139.826463,35.645085,0 139.860845,35.644679,0 139.776085,35.616744,0</coordinates></LineString><LineString><tessellate>1</tessellate><coordinates>139.785165,35.670951,0 139.785411,35.670718,0 139.785035,35.670714,0</coordinates></LineString><LineString><tessellate>1</tessellate><coordinates>139.805601,35.663274,0 139.805843,35.663038,0 139.805467,35.663038,0</coordinates></LineString><LineString><tessellate>1</tessellate><coordinates>139.822022,35.651918,0 139.822048,35.651611,0 139.821744,35.651792,0</coordinates></LineString><LineString><tessellate>1</tessellate><coordinates>139.839488,35.645061,0 139.839826,35.644927,0 139.839484,35.644801,0</coordinates></LineString><LineString><tessellate>1</tessellate><coordinates>139.859867,35.644216,0 139.859492,35.644233,0 139.859749,35.644457,0</coordinates></LineString><LineString><tessellate>1</tessellate><coordinates>139.839016,35.637344,0 139.838640,35.637360,0 139.838897,35.637585,0</coordinates></LineString><LineString><tessellate>1</tessellate><coordinates>139.818164,35.630472,0 139.817789,35.630488,0 139.818045,35.630713,0</coordinates></LineString><LineString><tessellate>1</tessellate><coordinates>139.797312,35.623600,0 139.796937,35.623616,0 139.797194,35.623841,0</coordinates></LineString></MultiGeometry></Placemark>
<Placemark><name>d15·4 🚇 05:50 JR Yamanote Line: Shinjuku → Harajuku ⇒ Santuario Meiji</name><styleUrl>#lff32cd9a6</styleUrl><description><![CDATA[SALE 05:50 de Shinjuku → LLEGA a Harajuku · JR Yamanote Line — sentido uchi-mawari, vía Shibuya (2 tramos) · rumbo del plan: Santuario Meiji]]></description><MultiGeometry><LineString><tessellate>1</tessellate><coordinates>139.698762,35.688726,0 139.702056,35.683033,0 139.702466,35.670090,0</coordinates></LineString><LineString><tessellate>1</tessellate><coordinates>139.701276,35.684684,0 139.701278,35.684377,0 139.700989,35.684573,0</coordinates></LineString><LineString><tessellate>1</tessellate><coordinates>139.702311,35.679992,0 139.702161,35.679709,0 139.701993,35.679985,0</coordinates></LineString><LineString><tessellate>1</tessellate><coordinates>139.702464,35.675182,0 139.702314,35.674900,0 139.702146,35.675175,0</coordinates></LineString></MultiGeometry></Placemark>
<Placemark><name>d15·5 🚶 Harajuku → Santuario Meiji</name><styleUrl>#lb8636f7a3</styleUrl><description><![CDATA[caminando]]></description><MultiGeometry><LineString><tessellate>1</tessellate><coordinates>139.702523,35.670074,0 139.702488,35.669992,0 139.702309,35.669998,0 139.702292,35.669999,0 139.702283,35.669999,0 139.702178,35.669846,0 139.702126,35.669840,0 139.702083,35.669839,0 139.702108,35.670041,0 139.702149,35.670798,0 139.702213,35.671145,0 139.702362,35.671704,0 139.702561,35.672181,0 139.702735,35.672597,0 139.702528,35.672631,0 139.702593,35.672820,0 139.702668,35.673006,0 139.702598,35.673153,0 139.702207,35.673303,0 139.702117,35.673325,0 139.701984,35.673363,0 139.701867,35.673382,0 139.701851,35.673545,0 139.701784,35.673848,0 139.701737,35.673973,0 139.701686,35.674049,0 139.701726,35.674162,0 139.701787,35.674252,0 139.701867,35.674385,0 139.701904,35.674435,0 139.701874,35.674483,0 139.701868,35.674567,0 139.701883,35.674660,0 139.701868,35.674821,0 139.701839,35.674992,0 139.701804,35.675060,0 139.701732,35.675259,0 139.701582,35.675288,0 139.701413,35.675321,0 139.701090,35.675525,0 139.700928,35.675628,0 139.700773,35.675677,0 139.700699,35.675675,0 139.700499,35.675661,0 139.700430,35.675653,0 139.700298,35.675639,0 139.700252,35.675636,0 139.700072,35.675629,0 139.699454,35.675603,0 139.699426,35.675869,0</coordinates></LineString><LineString><tessellate>1</tessellate><coordinates>139.702172,35.671387,0 139.702320,35.671546,0 139.702373,35.671351,0</coordinates></LineString><LineString><tessellate>1</tessellate><coordinates>139.702333,35.673185,0 139.702151,35.673317,0 139.702391,35.673346,0</coordinates></LineString><LineString><tessellate>1</tessellate><coordinates>139.701893,35.675141,0 139.701702,35.675265,0 139.701941,35.675305,0</coordinates></LineString></MultiGeometry></Placemark>
<Placemark><name>d15·6 🚶 Santuario Meiji → Takeshita Street + Omotesandō</name><styleUrl>#lb8636f7a3</styleUrl><description><![CDATA[caminando]]></description><MultiGeometry><LineString><tessellate>1</tessellate><coordinates>139.699426,35.675869,0 139.699426,35.675869,0 139.699454,35.675603,0 139.700072,35.675629,0 139.700252,35.675636,0 139.700298,35.675639,0 139.700430,35.675653,0 139.700499,35.675661,0 139.700699,35.675675,0 139.700773,35.675677,0 139.700928,35.675628,0 139.701090,35.675525,0 139.701413,35.675321,0 139.701582,35.675288,0 139.701732,35.675259,0 139.701804,35.675060,0 139.701839,35.674992,0 139.701868,35.674821,0 139.701883,35.674660,0 139.701868,35.674567,0 139.701874,35.674483,0 139.701904,35.674435,0 139.701867,35.674385,0 139.701787,35.674252,0 139.701726,35.674162,0 139.701686,35.674049,0 139.701737,35.673973,0 139.701784,35.673848,0 139.701851,35.673545,0 139.701867,35.673382,0 139.701984,35.673363,0 139.702117,35.673325,0 139.702207,35.673303,0 139.702598,35.673153,0 139.702668,35.673006,0 139.702593,35.672820,0 139.702528,35.672631,0 139.702735,35.672597,0 139.702561,35.672181,0 139.702362,35.671704,0 139.702213,35.671145,0 139.702149,35.670798,0 139.702108,35.670041,0 139.702083,35.669839,0 139.702126,35.669840,0 139.702178,35.669846,0 139.702275,35.669837,0 139.702586,35.669808,0 139.702656,35.669820,0 139.702628,35.669736,0 139.702689,35.669731,0 139.702811,35.669719,0 139.702873,35.669714,0 139.702907,35.669710,0 139.702935,35.669926,0 139.702981,35.669916,0 139.703016,35.669894,0 139.703044,35.669865,0 139.703073,35.669882,0 139.703187,35.669755,0 139.703310,35.669824,0 139.703425,35.669822,0 139.703591,35.669864,0 139.703636,35.669872,0 139.703722,35.669894,0 139.703879,35.669935,0 139.703984,35.669965,0 139.704020,35.669973,0 139.704028,35.669952,0 139.704125,35.670007,0 139.704249,35.670102,0 139.704286,35.670132,0 139.704330,35.670187,0 139.704470,35.670462,0 139.704511,35.670608,0 139.704694,35.670577,0 139.704879,35.670751,0 139.705179,35.671035,0 139.705182,35.671034,0</coordinates></LineString><LineString><tessellate>1</tessellate><coordinates>139.701820,35.675313,0 139.701784,35.675116,0 139.701622,35.675265,0</coordinates></LineString><LineString><tessellate>1</tessellate><coordinates>139.702382,35.673329,0 139.702538,35.673176,0 139.702295,35.673176,0</coordinates></LineString><LineString><tessellate>1</tessellate><coordinates>139.702327,35.671201,0 139.702193,35.671035,0 139.702124,35.671226,0</coordinates></LineString><LineString><tessellate>1</tessellate><coordinates>139.703065,35.670033,0 139.703113,35.669838,0 139.702899,35.669933,0</coordinates></LineString></MultiGeometry></Placemark>
<Placemark><name>d15·7 🚶 Takeshita Street + Omotesandō → Harajuku ⇒ Cruce de Shibuya</name><styleUrl>#lb8636f7a3</styleUrl><description><![CDATA[caminando · rumbo del plan: Cruce de Shibuya]]></description><MultiGeometry><LineString><tessellate>1</tessellate><coordinates>139.705182,35.671034,0 139.705179,35.671035,0 139.704874,35.671207,0 139.704845,35.671219,0 139.704817,35.671229,0 139.704127,35.671372,0 139.703798,35.671440,0 139.703117,35.671584,0 139.703106,35.671543,0 139.703102,35.671524,0 139.703096,35.671502,0 139.703009,35.671170,0 139.702959,35.670903,0 139.702948,35.670788,0 139.702965,35.670617,0 139.702951,35.670564,0 139.702962,35.670291,0 139.702869,35.670295,0 139.702803,35.670298,0 139.702789,35.670176,0 139.702777,35.670095,0 139.702717,35.670100,0 139.702540,35.670116,0 139.702523,35.670074,0</coordinates></LineString><LineString><tessellate>1</tessellate><coordinates>139.703244,35.671704,0 139.703106,35.671541,0 139.703042,35.671733,0</coordinates></LineString></MultiGeometry></Placemark>
<Placemark><name>d15·8 🚇 15:15 JR Yamanote Line: Harajuku → Shibuya ⇒ Cruce de Shibuya</name><styleUrl>#lff32cd9a6</styleUrl><description><![CDATA[SALE 15:15 de Harajuku → LLEGA a Shibuya · JR Yamanote Line — sentido uchi-mawari (1 tramos) · rumbo del plan: Cruce de Shibuya]]></description><MultiGeometry><LineString><tessellate>1</tessellate><coordinates>139.702466,35.670090,0 139.702497,35.659011,0</coordinates></LineString><LineString><tessellate>1</tessellate><coordinates>139.702635,35.666676,0 139.702476,35.666397,0 139.702317,35.666676,0</coordinates></LineString><LineString><tessellate>1</tessellate><coordinates>139.702645,35.662983,0 139.702487,35.662704,0 139.702327,35.662983,0</coordinates></LineString></MultiGeometry></Placemark>
<Placemark><name>d15·9 🚶 Shibuya → Cruce de Shibuya</name><styleUrl>#lb8636f7a3</styleUrl><description><![CDATA[caminando]]></description><MultiGeometry><LineString><tessellate>1</tessellate><coordinates>139.702508,35.659013,0 139.702519,35.658980,0 139.702575,35.658855,0 139.702529,35.658837,0 139.702576,35.658748,0 139.702636,35.658635,0 139.702759,35.658680,0 139.702828,35.658534,0 139.702864,35.658520,0 139.702852,35.658547,0 139.702842,35.658571,0 139.702834,35.658588,0 139.702536,35.658380,0 139.702516,35.658423,0 139.702503,35.658451,0 139.702368,35.658727,0 139.702301,35.658706,0 139.702217,35.658679,0 139.702207,35.658701,0 139.702060,35.658656,0 139.702034,35.658713,0 139.701810,35.659265,0 139.701559,35.659315,0 139.701486,35.659307,0 139.701237,35.659286,0 139.701190,35.659281,0 139.701196,35.659242,0 139.701121,35.659234,0 139.701023,35.659224,0 139.700976,35.659211,0 139.700736,35.659281,0 139.700664,35.659367,0 139.700656,35.659377,0 139.700572,35.659482,0 139.700560,35.659483,0</coordinates></LineString><LineString><tessellate>1</tessellate><coordinates>139.702028,35.658486,0 139.702047,35.658685,0 139.702220,35.658545,0</coordinates></LineString></MultiGeometry></Placemark>
<Placemark><name>d15·10 🚶 Cruce de Shibuya → Shibuya Sky</name><styleUrl>#lb8636f7a3</styleUrl><description><![CDATA[caminando]]></description><LineString><tessellate>1</tessellate><coordinates>139.700560,35.659483,0 139.700572,35.659482,0 139.700656,35.659377,0 139.700664,35.659367,0 139.700736,35.659281,0 139.700976,35.659211,0 139.701023,35.659224,0 139.701121,35.659234,0 139.701196,35.659242,0 139.701190,35.659281,0 139.701237,35.659286,0 139.701486,35.659307,0 139.701559,35.659315,0 139.701810,35.659265,0 139.702034,35.658713,0 139.702045,35.658690,0</coordinates></LineString></Placemark>
</Folder></Document></kml>