<?xml version="1.0" encoding="UTF-8"?>
<kml xmlns="http://www.opengis.net/kml/2.2"><Document><name>dom 4 · Osaka</name><description>Recorrido del día: gruesa=transporte (color oficial) · delgada=a pie · ＞ sentido · paradas con hora y punto estricto · coordenadas Google.</description><Style id="p1"><IconStyle><scale>0.9</scale><Icon><href>https://maps.google.com/mapfiles/kml/paddle/1.png</href></Icon></IconStyle></Style><Style id="p2"><IconStyle><scale>0.9</scale><Icon><href>https://maps.google.com/mapfiles/kml/paddle/2.png</href></Icon></IconStyle></Style><Style id="p3"><IconStyle><scale>0.9</scale><Icon><href>https://maps.google.com/mapfiles/kml/paddle/3.png</href></Icon></IconStyle></Style><Style id="p4"><IconStyle><scale>0.9</scale><Icon><href>https://maps.google.com/mapfiles/kml/paddle/4.png</href></Icon></IconStyle></Style><Style id="p5"><IconStyle><scale>0.9</scale><Icon><href>https://maps.google.com/mapfiles/kml/paddle/5.png</href></Icon></IconStyle></Style><Style id="p6"><IconStyle><scale>0.9</scale><Icon><href>https://maps.google.com/mapfiles/kml/paddle/6.png</href></Icon></IconStyle></Style><Style id="p7"><IconStyle><scale>0.9</scale><Icon><href>https://maps.google.com/mapfiles/kml/paddle/7.png</href></Icon></IconStyle></Style><Style id="p8"><IconStyle><scale>0.9</scale><Icon><href>https://maps.google.com/mapfiles/kml/paddle/8.png</href></Icon></IconStyle></Style><Style id="p9"><IconStyle><scale>0.9</scale><Icon><href>https://maps.google.com/mapfiles/kml/paddle/9.png</href></Icon></IconStyle></Style><Style id="p10"><IconStyle><scale>0.9</scale><Icon><href>https://maps.google.com/mapfiles/kml/paddle/10.png</href></Icon></IconStyle></Style><Style id="lffb76b0d6"><LineStyle><color>ffb76b0d</color><width>6</width></LineStyle></Style><Style id="lff1700806"><LineStyle><color>ff170080</color><width>6</width></LineStyle></Style><Style id="lb8636f7a3"><LineStyle><color>b8636f7a</color><width>3</width></LineStyle></Style><Style id="lff8628526"><LineStyle><color>ff862852</color><width>6</width></LineStyle></Style><Style id="lff934de46"><LineStyle><color>ff934de4</color><width>6</width></LineStyle></Style><Style id="lff1f17e56"><LineStyle><color>ff1f17e5</color><width>6</width></LineStyle></Style><Style id="lffa0501c6"><LineStyle><color>ffa0501c</color><width>6</width></LineStyle></Style><Style id="lff00d4ff6"><LineStyle><color>ff00d4ff</color><width>6</width></LineStyle></Style><Style id="lffaf5c006"><LineStyle><color>ffaf5c00</color><width>6</width></LineStyle></Style><Style id="lff4499006"><LineStyle><color>ff449900</color><width>6</width></LineStyle></Style><Style id="lff2147816"><LineStyle><color>ff214781</color><width>6</width></LineStyle></Style><Style id="lff669a016"><LineStyle><color>ff669a01</color><width>6</width></LineStyle></Style><Style id="lff0000e86"><LineStyle><color>ff0000e8</color><width>6</width></LineStyle></Style><Style id="lff2900d76"><LineStyle><color>ff2900d7</color><width>6</width></LineStyle></Style><Style id="lffa557276"><LineStyle><color>ffa55727</color><width>6</width></LineStyle></Style><Style id="lff1fc38f6"><LineStyle><color>ff1fc38f</color><width>6</width></LineStyle></Style><Style id="lff9933666"><LineStyle><color>ff993366</color><width>6</width></LineStyle></Style><Style id="lff2b4a7a6"><LineStyle><color>ff2b4a7a</color><width>6</width></LineStyle></Style><Style id="lff0c86c76"><LineStyle><color>ff0c86c7</color><width>6</width></LineStyle></Style><Style id="lff225af16"><LineStyle><color>ff225af1</color><width>6</width></LineStyle></Style><Style id="lff0097f36"><LineStyle><color>ff0097f3</color><width>6</width></LineStyle></Style><Style id="lffc36c0f6"><LineStyle><color>ffc36c0f</color><width>6</width></LineStyle></Style><Style id="lff656eec6"><LineStyle><color>ff656eec</color><width>6</width></LineStyle></Style><Style id="lffa0862c6"><LineStyle><color>ffa0862c</color><width>6</width></LineStyle></Style><Style id="lff2f25c96"><LineStyle><color>ff2f25c9</color><width>6</width></LineStyle></Style><Style id="lff32cd9a6"><LineStyle><color>ff32cd9a</color><width>6</width></LineStyle></Style><Style id="lff301be26"><LineStyle><color>ff301be2</color><width>6</width></LineStyle></Style><Style id="lff0388006"><LineStyle><color>ff038800</color><width>6</width></LineStyle></Style><Style id="lff9c46296"><LineStyle><color>ff9c4629</color><width>6</width></LineStyle></Style><Style id="lff1200e66"><LineStyle><color>ff1200e6</color><width>6</width></LineStyle></Style><Style id="lffb7ae9c6"><LineStyle><color>ffb7ae9c</color><width>6</width></LineStyle></Style><Style id="lff207bf46"><LineStyle><color>ff207bf4</color><width>6</width></LineStyle></Style><Folder><name>dom 4 · Osaka</name>
<Placemark><name>1. 14:15 · Castillo de Osaka (d4)</name><styleUrl>#p1</styleUrl><description><![CDATA[Hora del plan: 14:15. ⏰ SIGUIENTE PUNTO ESTRICTO del día: 14:15 — Castillo de Osaka (reserva/transporte: NO se puede llegar tarde).]]></description><Point><coordinates>135.525855,34.687257,0</coordinates></Point></Placemark>
<Placemark><name>2. 17:05 · Hōzen-ji (d4)</name><styleUrl>#p2</styleUrl><description><![CDATA[Hora del plan: 17:05. ⏰ SIGUIENTE PUNTO ESTRICTO del día: 19:30 — CRUCERO por el río Dotonbori (reserva/transporte: NO se puede llegar tarde).]]></description><Point><coordinates>135.502468,34.667940,0</coordinates></Point></Placemark>
<Placemark><name>3. 17:05 · Namba Yasaka (d4)</name><styleUrl>#p3</styleUrl><description><![CDATA[Hora del plan: 17:05. ⏰ SIGUIENTE PUNTO ESTRICTO del día: 19:30 — CRUCERO por el río Dotonbori (reserva/transporte: NO se puede llegar tarde).]]></description><Point><coordinates>135.496704,34.661559,0</coordinates></Point></Placemark>
<Placemark><name>4. 19:30 · Dotonbori (d4)</name><styleUrl>#p4</styleUrl><description><![CDATA[Hora del plan: 19:30. ⏰ SIGUIENTE PUNTO ESTRICTO del día: 19:30 — CRUCERO por el río Dotonbori (reserva/transporte: NO se puede llegar tarde).]]></description><Point><coordinates>135.503098,34.668647,0</coordinates></Point></Placemark>
<Placemark><name>d4·1 🚇 10:30 Osaka Monorail: Osaka-kūkō → Yamada ⇒ Castillo de Osaka</name><styleUrl>#lffb76b0d6</styleUrl><description><![CDATA[SALE 10:30 de Osaka-kūkō → LLEGA a Yamada · Osaka Monorail — sentido Kadomashi (5 tramos) · rumbo del plan: Castillo de Osaka]]></description><MultiGeometry><LineString><tessellate>1</tessellate><coordinates>135.442010,34.791396,0 135.449324,34.794606,0 135.458652,34.800368,0 135.475437,34.804269,0 135.495054,34.809825,0 135.515672,34.804454,0</coordinates></LineString><LineString><tessellate>1</tessellate><coordinates>135.449421,34.794828,0 135.449785,34.794890,0 135.449609,34.794619,0</coordinates></LineString><LineString><tessellate>1</tessellate><coordinates>135.456516,34.799211,0 135.456880,34.799273,0 135.456704,34.799002,0</coordinates></LineString><LineString><tessellate>1</tessellate><coordinates>135.464682,34.801905,0 135.465049,34.801855,0 135.464767,34.801654,0</coordinates></LineString><LineString><tessellate>1</tessellate><coordinates>135.473208,34.803886,0 135.473575,34.803836,0 135.473293,34.803636,0</coordinates></LineString><LineString><tessellate>1</tessellate><coordinates>135.481617,34.806157,0 135.481987,34.806124,0 135.481719,34.805911,0</coordinates></LineString><LineString><tessellate>1</tessellate><coordinates>135.489996,34.808530,0 135.490366,34.808497,0 135.490098,34.808284,0</coordinates></LineString><LineString><tessellate>1</tessellate><coordinates>135.498501,34.809064,0 135.498775,34.808856,0 135.498407,34.808816,0</coordinates></LineString><LineString><tessellate>1</tessellate><coordinates>135.506949,34.806863,0 135.507224,34.806655,0 135.506855,34.806615,0</coordinates></LineString></MultiGeometry></Placemark>
<Placemark><name>d4·2 🚇 10:50 Hankyu (Senri / Kyoto / Arashiyama): Yamada → Kitahama ⇒ Castillo de Osaka</name><styleUrl>#lff1700806</styleUrl><description><![CDATA[SALE 10:50 de Yamada → LLEGA a Kitahama · Hankyu (Senri / Kyoto / Arashiyama) — sentido Tengachaya (12 tramos) · rumbo del plan: Castillo de Osaka]]></description><MultiGeometry><LineString><tessellate>1</tessellate><coordinates>135.515672,34.804454,0 135.508837,34.792591,0 135.505422,34.778678,0 135.506181,34.770920,0 135.509044,34.764629,0 135.523826,34.763003,0 135.519944,34.746914,0 135.516809,34.739401,0 135.511568,34.728332,0 135.510820,34.710761,0 135.510892,34.703715,0 135.510864,34.697549,0 135.506652,34.691696,0</coordinates></LineString><LineString><tessellate>1</tessellate><coordinates>135.508797,34.791776,0 135.508576,34.791528,0 135.508489,34.791827,0</coordinates></LineString><LineString><tessellate>1</tessellate><coordinates>135.505660,34.777857,0 135.505531,34.777568,0 135.505347,34.777836,0</coordinates></LineString><LineString><tessellate>1</tessellate><coordinates>135.509730,34.764685,0 135.510043,34.764519,0 135.509688,34.764427,0</coordinates></LineString><LineString><tessellate>1</tessellate><coordinates>135.523402,34.760581,0 135.523182,34.760333,0 135.523094,34.760632,0</coordinates></LineString><LineString><tessellate>1</tessellate><coordinates>135.519989,34.746623,0 135.519731,34.746402,0 135.519692,34.746708,0</coordinates></LineString><LineString><tessellate>1</tessellate><coordinates>135.514072,34.733264,0 135.513803,34.733052,0 135.513780,34.733359,0</coordinates></LineString><LineString><tessellate>1</tessellate><coordinates>135.511347,34.719456,0 135.511178,34.719182,0 135.511033,34.719465,0</coordinates></LineString><LineString><tessellate>1</tessellate><coordinates>135.511033,34.705241,0 135.510879,34.704961,0 135.510719,34.705239,0</coordinates></LineString></MultiGeometry></Placemark>
<Placemark><name>d4·3 🚶 Kitahama → Temmabashi ⇒ Castillo de Osaka</name><styleUrl>#lb8636f7a3</styleUrl><description><![CDATA[caminando · rumbo del plan: Castillo de Osaka]]></description><MultiGeometry><LineString><tessellate>1</tessellate><coordinates>135.506639,34.691696,0 135.506636,34.691602,0 135.506730,34.691600,0 135.506768,34.691599,0 135.506799,34.691597,0 135.506851,34.691623,0 135.506863,34.691654,0 135.506996,34.691615,0 135.507878,34.691303,0 135.508275,34.691165,0 135.508691,34.691019,0 135.508720,34.691007,0 135.508756,34.690991,0 135.508780,34.690980,0 135.508804,34.690971,0 135.508814,34.690984,0 135.508860,34.691042,0 135.508909,34.691102,0 135.508920,34.691117,0 135.509819,34.690560,0 135.509946,34.690474,0 135.510164,34.690371,0 135.510344,34.690333,0 135.510353,34.690332,0 135.510363,34.690337,0 135.511445,34.690309,0 135.511511,34.690308,0 135.511604,34.690368,0 135.511712,34.690368,0 135.511828,34.690366,0 135.511836,34.690336,0 135.511862,34.690315,0 135.511901,34.690300,0 135.513163,34.690264,0 135.513242,34.690258,0 135.513442,34.690237,0 135.514599,34.690104,0 135.514657,34.690098,0 135.514677,34.690098,0 135.514693,34.690106,0 135.514713,34.690103,0 135.514736,34.690100,0 135.514760,34.690096,0 135.514774,34.690094,0 135.514802,34.690082,0 135.514910,34.690068,0 135.514899,34.689982,0 135.514892,34.689902,0 135.515388,34.689845,0 135.516214,34.689759,0 135.517049,34.689689,0 135.517072,34.689686,0 135.517083,34.689652,0 135.517108,34.689617,0 135.517185,34.689592,0 135.517268,34.689588,0 135.517513,34.689576,0 135.517591,34.689572,0 135.517581,34.689501,0 135.517569,34.689352,0 135.517499,34.689355,0 135.517472,34.688986,0</coordinates></LineString><LineString><tessellate>1</tessellate><coordinates>135.508644,34.690923,0 135.508849,34.691028,0 135.508814,34.690831,0</coordinates></LineString><LineString><tessellate>1</tessellate><coordinates>135.510843,34.690409,0 135.511058,34.690319,0 135.510837,34.690241,0</coordinates></LineString><LineString><tessellate>1</tessellate><coordinates>135.513352,34.690332,0 135.513554,34.690224,0 135.513324,34.690166,0</coordinates></LineString><LineString><tessellate>1</tessellate><coordinates>135.515672,34.689900,0 135.515875,34.689794,0 135.515646,34.689733,0</coordinates></LineString></MultiGeometry></Placemark>
<Placemark><name>d4·4 🚇 13:45 Metro Tanimachi: Temmabashi → Tanimachi 4-chōme ⇒ Castillo de Osaka</name><styleUrl>#lff8628526</styleUrl><description><![CDATA[SALE 13:45 de Temmabashi → LLEGA a Tanimachi 4-chōme · Metro Tanimachi — sentido Yao-Minami (1 tramos) · rumbo del plan: Castillo de Osaka]]></description><MultiGeometry><LineString><tessellate>1</tessellate><coordinates>135.517356,34.688992,0 135.517253,34.682107,0</coordinates></LineString><LineString><tessellate>1</tessellate><coordinates>135.517465,34.685826,0 135.517304,34.685549,0 135.517152,34.685830,0</coordinates></LineString></MultiGeometry></Placemark>
<Placemark><name>d4·5 🚶 Tanimachi 4-chōme → Castillo de Osaka</name><styleUrl>#lb8636f7a3</styleUrl><description><![CDATA[caminando]]></description><MultiGeometry><LineString><tessellate>1</tessellate><coordinates>135.517206,34.682108,0 135.517210,34.682247,0 135.517102,34.682250,0 135.517117,34.682726,0 135.517124,34.683189,0 135.517157,34.683206,0 135.517240,34.683205,0 135.517403,34.683202,0 135.517486,34.683200,0 135.517506,34.683198,0 135.517513,34.683219,0 135.517527,34.683231,0 135.517544,34.683240,0 135.517565,34.683245,0 135.517588,34.683249,0 135.517647,34.683248,0 135.517703,34.683251,0 135.518725,34.683214,0 135.520014,34.683162,0 135.520931,34.683125,0 135.521057,34.683119,0 135.521128,34.683109,0 135.521205,34.683109,0 135.521205,34.683125,0 135.521208,34.683195,0 135.521211,34.683273,0 135.521212,34.683295,0 135.521237,34.683307,0 135.521268,34.683323,0 135.521287,34.683340,0 135.521314,34.683377,0 135.521327,34.683408,0 135.521350,34.683407,0 135.521454,34.683398,0 135.521567,34.683388,0 135.521599,34.683387,0 135.521613,34.683396,0 135.521763,34.683419,0 135.521769,34.683417,0 135.521796,34.683437,0 135.521996,34.683435,0 135.522042,34.683482,0 135.522054,34.683692,0 135.522038,34.684015,0 135.521993,34.684669,0 135.522064,34.684673,0 135.522042,34.684897,0 135.522086,34.684901,0 135.522077,34.685010,0 135.523015,34.685078,0 135.523056,34.685081,0 135.523090,34.685082,0 135.523174,34.685109,0 135.523220,34.685154,0 135.523236,34.685189,0 135.523256,34.685229,0 135.523262,34.685302,0 135.523252,34.685429,0 135.523245,34.685497,0 135.523398,34.685506,0 135.523437,34.685505,0 135.523474,34.685498,0 135.523568,34.685464,0 135.523691,34.685401,0 135.523890,34.685302,0 135.523931,34.685281,0 135.524238,34.685118,0 135.524342,34.685063,0 135.524388,34.684991,0 135.524365,34.684839,0 135.524411,34.684837,0 135.524994,34.684817,0 135.525665,34.684800,0 135.525690,34.684799,0 135.525691,34.684813,0 135.525693,34.684926,0 135.525698,34.685194,0 135.525698,34.685231,0 135.525701,34.685370,0 135.525703,34.685379,0 135.525709,34.685388,0 135.525717,34.685393,0 135.525731,34.685395,0 135.526063,34.685390,0 135.526066,34.685667,0 135.526072,34.685879,0 135.526067,34.686067,0 135.526100,34.686067,0 135.526100,34.686091,0 135.526099,34.686372,0 135.526096,34.686641,0 135.525881,34.686647,0 135.525889,34.686817,0 135.525965,34.686859,0 135.525972,34.686933,0 135.525971,34.686944,0 135.525979,34.687028,0 135.525983,34.687117,0 135.525985,34.687144,0 135.525948,34.687146,0 135.525900,34.687149,0 135.525864,34.687152,0 135.525862,34.687123,0 135.525861,34.687098,0 135.525859,34.687078,0 135.525823,34.687080,0 135.525806,34.687081,0 135.525772,34.687083,0 135.525776,34.687136,0 135.525777,34.687150,0 135.525783,34.687191,0 135.525783,34.687191,0</coordinates></LineString><LineString><tessellate>1</tessellate><coordinates>135.518299,34.683314,0 135.518512,34.683222,0 135.518290,34.683146,0</coordinates></LineString><LineString><tessellate>1</tessellate><coordinates>135.521101,34.683045,0 135.521209,34.683223,0 135.521304,34.683040,0</coordinates></LineString><LineString><tessellate>1</tessellate><coordinates>135.521840,34.684963,0 135.522067,34.684899,0 135.521862,34.684796,0</coordinates></LineString><LineString><tessellate>1</tessellate><coordinates>135.524077,34.685303,0 135.524206,34.685135,0 135.523968,34.685162,0</coordinates></LineString><LineString><tessellate>1</tessellate><coordinates>135.525842,34.685477,0 135.526058,34.685390,0 135.525838,34.685309,0</coordinates></LineString></MultiGeometry></Placemark>
<Placemark><name>d4·6 🚶 Castillo de Osaka → Tanimachi 4-chōme ⇒ Hōzen-ji</name><styleUrl>#lb8636f7a3</styleUrl><description><![CDATA[caminando · rumbo del plan: Hōzen-ji]]></description><MultiGeometry><LineString><tessellate>1</tessellate><coordinates>135.525783,34.687191,0 135.525777,34.687150,0 135.525776,34.687136,0 135.525772,34.687083,0 135.525806,34.687081,0 135.525823,34.687080,0 135.525859,34.687078,0 135.525861,34.687098,0 135.525862,34.687123,0 135.525864,34.687152,0 135.525900,34.687149,0 135.525948,34.687146,0 135.525985,34.687144,0 135.525983,34.687117,0 135.525979,34.687028,0 135.525971,34.686944,0 135.525972,34.686933,0 135.525965,34.686859,0 135.525889,34.686817,0 135.525881,34.686647,0 135.526096,34.686641,0 135.526099,34.686372,0 135.526100,34.686091,0 135.526100,34.686067,0 135.526067,34.686067,0 135.526072,34.685879,0 135.526066,34.685667,0 135.526063,34.685390,0 135.525731,34.685395,0 135.525717,34.685393,0 135.525709,34.685388,0 135.525703,34.685379,0 135.525701,34.685370,0 135.525698,34.685231,0 135.525698,34.685194,0 135.525693,34.684926,0 135.525691,34.684813,0 135.525690,34.684799,0 135.525665,34.684800,0 135.524994,34.684817,0 135.524411,34.684837,0 135.524365,34.684839,0 135.524388,34.684991,0 135.524342,34.685063,0 135.524238,34.685118,0 135.523931,34.685281,0 135.523890,34.685302,0 135.523691,34.685401,0 135.523568,34.685464,0 135.523474,34.685498,0 135.523437,34.685505,0 135.523398,34.685506,0 135.523245,34.685497,0 135.523252,34.685429,0 135.523262,34.685302,0 135.523256,34.685229,0 135.523236,34.685189,0 135.523220,34.685154,0 135.523174,34.685109,0 135.523090,34.685082,0 135.523056,34.685081,0 135.523015,34.685078,0 135.522077,34.685010,0 135.522086,34.684901,0 135.522042,34.684897,0 135.522064,34.684673,0 135.521993,34.684669,0 135.522038,34.684015,0 135.522054,34.683692,0 135.522042,34.683482,0 135.521996,34.683435,0 135.521796,34.683437,0 135.521769,34.683417,0 135.521763,34.683419,0 135.521613,34.683396,0 135.521599,34.683387,0 135.521567,34.683388,0 135.521454,34.683398,0 135.521350,34.683407,0 135.521327,34.683408,0 135.521314,34.683377,0 135.521287,34.683340,0 135.521268,34.683323,0 135.521237,34.683307,0 135.521212,34.683295,0 135.521211,34.683273,0 135.521208,34.683195,0 135.521205,34.683125,0 135.521205,34.683109,0 135.521128,34.683109,0 135.521057,34.683119,0 135.520931,34.683125,0 135.520014,34.683162,0 135.518725,34.683214,0 135.517703,34.683251,0 135.517647,34.683248,0 135.517588,34.683249,0 135.517565,34.683245,0 135.517544,34.683240,0 135.517527,34.683231,0 135.517513,34.683219,0 135.517506,34.683198,0 135.517486,34.683200,0 135.517403,34.683202,0 135.517240,34.683205,0 135.517157,34.683206,0 135.517124,34.683189,0 135.517117,34.682726,0 135.517102,34.682250,0 135.517210,34.682247,0 135.517206,34.682108,0</coordinates></LineString><LineString><tessellate>1</tessellate><coordinates>135.526274,34.685303,0 135.526058,34.685390,0 135.526277,34.685471,0</coordinates></LineString><LineString><tessellate>1</tessellate><coordinates>135.524334,34.684967,0 135.524206,34.685135,0 135.524444,34.685109,0</coordinates></LineString><LineString><tessellate>1</tessellate><coordinates>135.522295,34.684835,0 135.522067,34.684899,0 135.522273,34.685003,0</coordinates></LineString><LineString><tessellate>1</tessellate><coordinates>135.521318,34.683401,0 135.521209,34.683223,0 135.521114,34.683406,0</coordinates></LineString><LineString><tessellate>1</tessellate><coordinates>135.518725,34.683130,0 135.518512,34.683222,0 135.518734,34.683298,0</coordinates></LineString></MultiGeometry></Placemark>
<Placemark><name>d4·7 🚇 16:30 Metro Tanimachi: Tanimachi 4-chōme → Tanimachi 9-chōme ⇒ Hōzen-ji</name><styleUrl>#lff8628526</styleUrl><description><![CDATA[SALE 16:30 de Tanimachi 4-chōme → LLEGA a Tanimachi 9-chōme · Metro Tanimachi — sentido Yao-Minami (2 tramos) · rumbo del plan: Hōzen-ji]]></description><MultiGeometry><LineString><tessellate>1</tessellate><coordinates>135.517253,34.682107,0 135.517089,34.676028,0 135.515947,34.666639,0</coordinates></LineString><LineString><tessellate>1</tessellate><coordinates>135.517278,34.677212,0 135.517113,34.676936,0 135.516964,34.677217,0</coordinates></LineString><LineString><tessellate>1</tessellate><coordinates>135.516763,34.672050,0 135.516573,34.671785,0 135.516450,34.672076,0</coordinates></LineString></MultiGeometry></Placemark>
<Placemark><name>d4·8 🚇 16:40 Metro Sennichimae: Tanimachi 9-chōme → Namba ⇒ Hōzen-ji</name><styleUrl>#lff934de46</styleUrl><description><![CDATA[SALE 16:40 de Tanimachi 9-chōme → LLEGA a Namba · Metro Sennichimae — sentido Noda-Hanshin (2 tramos) · rumbo del plan: Hōzen-ji]]></description><MultiGeometry><LineString><tessellate>1</tessellate><coordinates>135.515947,34.666639,0 135.506120,34.666968,0 135.500342,34.667098,0</coordinates></LineString><LineString><tessellate>1</tessellate><coordinates>135.511076,34.666672,0 135.510746,34.666813,0 135.511089,34.666932,0</coordinates></LineString><LineString><tessellate>1</tessellate><coordinates>135.505878,34.666843,0 135.505545,34.666981,0 135.505886,34.667103,0</coordinates></LineString></MultiGeometry></Placemark>
<Placemark><name>d4·9 🚶 Namba → Hōzen-ji</name><styleUrl>#lb8636f7a3</styleUrl><description><![CDATA[caminando]]></description><MultiGeometry><LineString><tessellate>1</tessellate><coordinates>135.500342,34.667113,0 135.498550,34.667145,0 135.496826,34.667432,0 135.496687,34.667146,0 135.496651,34.667148,0 135.496622,34.667151,0 135.496620,34.667145,0 135.496593,34.667149,0 135.496422,34.667180,0 135.496404,34.667184,0 135.496406,34.667192,0 135.496387,34.667195,0 135.496405,34.667259,0 135.496512,34.667237,0 135.496539,34.667245,0 135.496592,34.667237,0 135.496624,34.667218,0 135.496687,34.667198,0 135.496705,34.667151,0 135.496759,34.667143,0 135.496791,34.667138,0 135.496815,34.667135,0 135.496841,34.667131,0 135.496835,34.667112,0 135.496893,34.667098,0 135.496951,34.667086,0 135.496980,34.667097,0 135.497016,34.667095,0 135.497046,34.667064,0 135.497226,34.667112,0 135.497404,34.667160,0 135.497492,34.667168,0 135.497531,34.667158,0 135.497606,34.667137,0 135.497793,34.667106,0 135.497824,34.667022,0 135.497885,34.667018,0 135.497929,34.667015,0 135.497989,34.667011,0 135.498018,34.667009,0 135.498117,34.666995,0 135.498189,34.666986,0 135.498202,34.666985,0 135.498509,34.666948,0 135.498827,34.666941,0 135.499318,34.666931,0 135.499420,34.666929,0 135.499847,34.666928,0 135.500017,34.666928,0 135.500139,34.666928,0 135.500141,34.666998,0 135.500142,34.667040,0 135.500145,34.667238,0 135.500144,34.667269,0 135.500144,34.667338,0 135.500141,34.667381,0 135.500236,34.667383,0 135.500334,34.667383,0 135.500434,34.667383,0 135.500511,34.667383,0 135.500541,34.667423,0 135.500543,34.667655,0 135.500545,34.667843,0 135.500563,34.667843,0 135.501169,34.667856,0 135.501325,34.667858,0 135.501436,34.667860,0 135.501875,34.667868,0 135.502274,34.667876,0 135.502350,34.667878,0 135.502369,34.667882,0 135.502385,34.667890,0 135.502397,34.667900,0 135.502404,34.667911,0 135.502408,34.667926,0 135.502407,34.667965,0 135.502468,34.667966,0</coordinates></LineString><LineString><tessellate>1</tessellate><coordinates>135.497616,34.667215,0 135.497423,34.667333,0 135.497656,34.667380,0</coordinates></LineString><LineString><tessellate>1</tessellate><coordinates>135.497834,34.667282,0 135.497801,34.667085,0 135.497640,34.667233,0</coordinates></LineString><LineString><tessellate>1</tessellate><coordinates>135.500053,34.667191,0 135.500141,34.667376,0 135.500255,34.667201,0</coordinates></LineString></MultiGeometry></Placemark>
<Placemark><name>d4·10 🚶 Hōzen-ji → Namba Yasaka</name><styleUrl>#lb8636f7a3</styleUrl><description><![CDATA[caminando]]></description><MultiGeometry><LineString><tessellate>1</tessellate><coordinates>135.502468,34.667966,0 135.502407,34.667965,0 135.502408,34.667926,0 135.502404,34.667911,0 135.502397,34.667900,0 135.502385,34.667890,0 135.502369,34.667882,0 135.502350,34.667878,0 135.502274,34.667876,0 135.501875,34.667868,0 135.501882,34.667639,0 135.501853,34.667638,0 135.501859,34.667439,0 135.501498,34.667435,0 135.501402,34.667433,0 135.501352,34.667432,0 135.501357,34.667324,0 135.501358,34.667290,0 135.501362,34.667218,0 135.501375,34.667017,0 135.501380,34.666935,0 135.501380,34.666907,0 135.501381,34.666896,0 135.501392,34.666647,0 135.501409,34.666372,0 135.501462,34.665926,0 135.501452,34.665879,0 135.501291,34.665862,0 135.501005,34.665835,0 135.500818,34.665816,0 135.500601,34.665793,0 135.500584,34.665792,0 135.500562,34.665791,0 135.500566,34.665768,0 135.500584,34.665670,0 135.500594,34.665614,0 135.500603,34.665561,0 135.500621,34.665462,0 135.500627,34.665425,0 135.500634,34.665383,0 135.500542,34.665271,0 135.500537,34.665215,0 135.500483,34.665164,0 135.500516,34.664995,0 135.500538,34.664876,0 135.500218,34.664836,0 135.500198,34.664811,0 135.500121,34.664729,0 135.500081,34.664693,0 135.500090,34.664616,0 135.500130,34.664546,0 135.500113,34.664539,0 135.500063,34.664516,0 135.500005,34.664488,0 135.499949,34.664464,0 135.499897,34.664496,0 135.499819,34.664424,0 135.499306,34.663880,0 135.499011,34.663572,0 135.498955,34.663512,0 135.498892,34.663503,0 135.498340,34.662950,0 135.498306,34.662900,0 135.498323,34.662861,0 135.498320,34.662833,0 135.498320,34.662775,0 135.498317,34.662720,0 135.498317,34.662702,0 135.498319,34.662666,0 135.498217,34.662575,0 135.498168,34.662573,0 135.498129,34.662573,0 135.498071,34.662576,0 135.497895,34.662584,0 135.497823,34.662587,0 135.497786,34.662589,0 135.497757,34.662111,0 135.497278,34.662142,0 135.497176,34.661806,0 135.497119,34.661387,0 135.496706,34.661401,0 135.496706,34.661441,0 135.496707,34.661487,0</coordinates></LineString><LineString><tessellate>1</tessellate><coordinates>135.501480,34.666965,0 135.501386,34.666782,0 135.501277,34.666959,0</coordinates></LineString><LineString><tessellate>1</tessellate><coordinates>135.500828,34.665470,0 135.500622,34.665368,0 135.500660,34.665564,0</coordinates></LineString><LineString><tessellate>1</tessellate><coordinates>135.499573,34.664026,0 135.499358,34.663936,0 135.499413,34.664130,0</coordinates></LineString><LineString><tessellate>1</tessellate><coordinates>135.498004,34.662493,0 135.497794,34.662589,0 135.498018,34.662661,0</coordinates></LineString></MultiGeometry></Placemark>
<Placemark><name>d4·11 🚶 Namba Yasaka → Dotonbori</name><styleUrl>#lb8636f7a3</styleUrl><description><![CDATA[caminando]]></description><MultiGeometry><LineString><tessellate>1</tessellate><coordinates>135.496707,34.661487,0 135.496707,34.661487,0 135.496706,34.661441,0 135.496706,34.661401,0 135.497119,34.661387,0 135.497176,34.661806,0 135.497278,34.662142,0 135.497757,34.662111,0 135.497786,34.662589,0 135.497823,34.662587,0 135.497895,34.662584,0 135.498071,34.662576,0 135.498129,34.662573,0 135.498168,34.662573,0 135.498217,34.662575,0 135.498319,34.662666,0 135.498317,34.662702,0 135.498317,34.662720,0 135.498320,34.662775,0 135.498320,34.662833,0 135.498323,34.662861,0 135.498306,34.662900,0 135.498340,34.662950,0 135.498892,34.663503,0 135.498955,34.663512,0 135.499011,34.663572,0 135.499306,34.663880,0 135.499819,34.664424,0 135.499897,34.664496,0 135.499949,34.664464,0 135.500005,34.664488,0 135.500063,34.664516,0 135.500113,34.664539,0 135.500130,34.664546,0 135.500090,34.664616,0 135.500081,34.664693,0 135.500121,34.664729,0 135.500198,34.664811,0 135.500218,34.664836,0 135.500538,34.664876,0 135.500516,34.664995,0 135.500483,34.665164,0 135.500537,34.665215,0 135.500542,34.665271,0 135.500634,34.665383,0 135.500627,34.665425,0 135.500621,34.665462,0 135.500603,34.665561,0 135.500594,34.665614,0 135.500584,34.665670,0 135.500566,34.665768,0 135.500562,34.665791,0 135.500584,34.665792,0 135.500601,34.665793,0 135.500818,34.665816,0 135.501005,34.665835,0 135.501291,34.665862,0 135.501452,34.665879,0 135.501462,34.665926,0 135.501409,34.666372,0 135.501392,34.666647,0 135.501381,34.666896,0 135.501380,34.666907,0 135.501380,34.666935,0 135.501375,34.667017,0 135.501362,34.667218,0 135.501358,34.667290,0 135.501357,34.667324,0 135.501352,34.667432,0 135.501402,34.667433,0 135.501498,34.667435,0 135.501859,34.667439,0 135.502306,34.667444,0 135.502288,34.667679,0 135.502937,34.667723,0 135.503047,34.667731,0 135.503141,34.667737,0 135.503162,34.667791,0 135.503154,34.667972,0 135.503143,34.668189,0 135.503139,34.668280,0 135.503120,34.668648,0</coordinates></LineString><LineString><tessellate>1</tessellate><coordinates>135.497877,34.662670,0 135.498088,34.662575,0 135.497864,34.662502,0</coordinates></LineString><LineString><tessellate>1</tessellate><coordinates>135.499507,34.664230,0 135.499721,34.664320,0 135.499667,34.664126,0</coordinates></LineString><LineString><tessellate>1</tessellate><coordinates>135.500695,34.665888,0 135.500923,34.665827,0 135.500720,34.665721,0</coordinates></LineString><LineString><tessellate>1</tessellate><coordinates>135.501526,34.667519,0 135.501745,34.667438,0 135.501529,34.667351,0</coordinates></LineString></MultiGeometry></Placemark>
<Placemark><name>d4·12 🚶 Dotonbori → Namba ⇒ hotel</name><styleUrl>#lb8636f7a3</styleUrl><description><![CDATA[caminando · rumbo del plan: hotel]]></description><MultiGeometry><LineString><tessellate>1</tessellate><coordinates>135.503120,34.668648,0 135.503139,34.668280,0 135.503143,34.668189,0 135.503154,34.667972,0 135.503162,34.667791,0 135.503141,34.667737,0 135.503047,34.667731,0 135.502937,34.667723,0 135.502288,34.667679,0 135.502306,34.667444,0 135.501859,34.667439,0 135.501498,34.667435,0 135.501402,34.667433,0 135.501352,34.667432,0 135.501305,34.667432,0 135.501219,34.667430,0 135.500541,34.667423,0 135.500511,34.667383,0 135.500434,34.667383,0 135.500334,34.667383,0 135.500236,34.667383,0 135.500141,34.667381,0 135.500144,34.667338,0 135.500144,34.667269,0 135.500145,34.667238,0 135.500142,34.667040,0 135.500141,34.666998,0 135.500139,34.666928,0 135.500017,34.666928,0 135.499847,34.666928,0 135.499420,34.666929,0 135.499318,34.666931,0 135.498827,34.666941,0 135.498509,34.666948,0 135.498202,34.666985,0 135.498189,34.666986,0 135.498117,34.666995,0 135.498018,34.667009,0 135.497989,34.667011,0 135.497929,34.667015,0 135.497885,34.667018,0 135.497824,34.667022,0 135.497793,34.667106,0 135.497606,34.667137,0 135.497531,34.667158,0 135.497492,34.667168,0 135.497404,34.667160,0 135.497226,34.667112,0 135.497046,34.667064,0 135.497016,34.667095,0 135.496980,34.667097,0 135.496951,34.667086,0 135.496893,34.667098,0 135.496835,34.667112,0 135.496841,34.667131,0 135.496815,34.667135,0 135.496791,34.667138,0 135.496759,34.667143,0 135.496705,34.667151,0 135.496687,34.667198,0 135.496624,34.667218,0 135.496592,34.667237,0 135.496539,34.667245,0 135.496512,34.667237,0 135.496405,34.667259,0 135.496387,34.667195,0 135.496406,34.667192,0 135.496409,34.667198,0 135.496427,34.667195,0 135.496597,34.667163,0 135.496625,34.667159,0 135.496622,34.667151,0 135.496651,34.667148,0 135.496687,34.667146,0 135.496826,34.667432,0 135.498550,34.667145,0 135.500342,34.667113,0</coordinates></LineString><LineString><tessellate>1</tessellate><coordinates>135.502115,34.667358,0 135.501896,34.667439,0 135.502113,34.667526,0</coordinates></LineString><LineString><tessellate>1</tessellate><coordinates>135.500032,34.666843,0 135.499814,34.666928,0 135.500033,34.667012,0</coordinates></LineString><LineString><tessellate>1</tessellate><coordinates>135.497498,34.667097,0 135.497260,34.667121,0 135.497435,34.667257,0</coordinates></LineString><LineString><tessellate>1</tessellate><coordinates>135.497512,34.667404,0 135.497705,34.667286,0 135.497472,34.667239,0</coordinates></LineString></MultiGeometry></Placemark>
<Placemark><name>d4·13 🚇 21:45 Metro Midosuji: Namba → Yodoyabashi ⇒ hotel</name><styleUrl>#lff1f17e56</styleUrl><description><![CDATA[SALE 21:45 de Namba → LLEGA a Yodoyabashi · Metro Midosuji — sentido Shin-Osaka / Senri-Chūō (3 tramos) · rumbo del plan: hotel]]></description><MultiGeometry><LineString><tessellate>1</tessellate><coordinates>135.500342,34.667098,0 135.500377,34.675057,0 135.498829,34.682007,0 135.501053,34.692261,0</coordinates></LineString><LineString><tessellate>1</tessellate><coordinates>135.500206,34.671909,0 135.500365,34.672187,0 135.500520,34.671908,0</coordinates></LineString><LineString><tessellate>1</tessellate><coordinates>135.499798,34.676941,0 135.499891,34.677239,0 135.500107,34.676988,0</coordinates></LineString><LineString><tessellate>1</tessellate><coordinates>135.498667,34.681992,0 135.498881,34.682244,0 135.498976,34.681946,0</coordinates></LineString><LineString><tessellate>1</tessellate><coordinates>135.499753,34.687001,0 135.499967,34.687253,0 135.500062,34.686955,0</coordinates></LineString></MultiGeometry></Placemark>
</Folder></Document></kml>