<?xml version="1.0" encoding="UTF-8"?>
<kml xmlns="http://www.opengis.net/kml/2.2"><Document><name>sáb 10 · Arashiyama</name><description>Recorrido del día: gruesa=transporte (color oficial) · delgada=a pie · ＞ sentido · paradas con hora y punto estricto · coordenadas Google.</description><Style id="p1"><IconStyle><scale>0.9</scale><Icon><href>https://maps.google.com/mapfiles/kml/paddle/1.png</href></Icon></IconStyle></Style><Style id="p2"><IconStyle><scale>0.9</scale><Icon><href>https://maps.google.com/mapfiles/kml/paddle/2.png</href></Icon></IconStyle></Style><Style id="p3"><IconStyle><scale>0.9</scale><Icon><href>https://maps.google.com/mapfiles/kml/paddle/3.png</href></Icon></IconStyle></Style><Style id="p4"><IconStyle><scale>0.9</scale><Icon><href>https://maps.google.com/mapfiles/kml/paddle/4.png</href></Icon></IconStyle></Style><Style id="p5"><IconStyle><scale>0.9</scale><Icon><href>https://maps.google.com/mapfiles/kml/paddle/5.png</href></Icon></IconStyle></Style><Style id="p6"><IconStyle><scale>0.9</scale><Icon><href>https://maps.google.com/mapfiles/kml/paddle/6.png</href></Icon></IconStyle></Style><Style id="p7"><IconStyle><scale>0.9</scale><Icon><href>https://maps.google.com/mapfiles/kml/paddle/7.png</href></Icon></IconStyle></Style><Style id="p8"><IconStyle><scale>0.9</scale><Icon><href>https://maps.google.com/mapfiles/kml/paddle/8.png</href></Icon></IconStyle></Style><Style id="p9"><IconStyle><scale>0.9</scale><Icon><href>https://maps.google.com/mapfiles/kml/paddle/9.png</href></Icon></IconStyle></Style><Style id="p10"><IconStyle><scale>0.9</scale><Icon><href>https://maps.google.com/mapfiles/kml/paddle/10.png</href></Icon></IconStyle></Style><Style id="lffb76b0d6"><LineStyle><color>ffb76b0d</color><width>6</width></LineStyle></Style><Style id="lff1700806"><LineStyle><color>ff170080</color><width>6</width></LineStyle></Style><Style id="lb8636f7a3"><LineStyle><color>b8636f7a</color><width>3</width></LineStyle></Style><Style id="lff8628526"><LineStyle><color>ff862852</color><width>6</width></LineStyle></Style><Style id="lff934de46"><LineStyle><color>ff934de4</color><width>6</width></LineStyle></Style><Style id="lff1f17e56"><LineStyle><color>ff1f17e5</color><width>6</width></LineStyle></Style><Style id="lffa0501c6"><LineStyle><color>ffa0501c</color><width>6</width></LineStyle></Style><Style id="lff00d4ff6"><LineStyle><color>ff00d4ff</color><width>6</width></LineStyle></Style><Style id="lffaf5c006"><LineStyle><color>ffaf5c00</color><width>6</width></LineStyle></Style><Style id="lff4499006"><LineStyle><color>ff449900</color><width>6</width></LineStyle></Style><Style id="lff2147816"><LineStyle><color>ff214781</color><width>6</width></LineStyle></Style><Style id="lff669a016"><LineStyle><color>ff669a01</color><width>6</width></LineStyle></Style><Style id="lff0000e86"><LineStyle><color>ff0000e8</color><width>6</width></LineStyle></Style><Style id="lff2900d76"><LineStyle><color>ff2900d7</color><width>6</width></LineStyle></Style><Style id="lffa557276"><LineStyle><color>ffa55727</color><width>6</width></LineStyle></Style><Style id="lff1fc38f6"><LineStyle><color>ff1fc38f</color><width>6</width></LineStyle></Style><Style id="lff9933666"><LineStyle><color>ff993366</color><width>6</width></LineStyle></Style><Style id="lff2b4a7a6"><LineStyle><color>ff2b4a7a</color><width>6</width></LineStyle></Style><Style id="lff0c86c76"><LineStyle><color>ff0c86c7</color><width>6</width></LineStyle></Style><Style id="lff225af16"><LineStyle><color>ff225af1</color><width>6</width></LineStyle></Style><Style id="lff0097f36"><LineStyle><color>ff0097f3</color><width>6</width></LineStyle></Style><Style id="lffc36c0f6"><LineStyle><color>ffc36c0f</color><width>6</width></LineStyle></Style><Style id="lff656eec6"><LineStyle><color>ff656eec</color><width>6</width></LineStyle></Style><Style id="lffa0862c6"><LineStyle><color>ffa0862c</color><width>6</width></LineStyle></Style><Style id="lff2f25c96"><LineStyle><color>ff2f25c9</color><width>6</width></LineStyle></Style><Style id="lff32cd9a6"><LineStyle><color>ff32cd9a</color><width>6</width></LineStyle></Style><Style id="lff301be26"><LineStyle><color>ff301be2</color><width>6</width></LineStyle></Style><Style id="lff0388006"><LineStyle><color>ff038800</color><width>6</width></LineStyle></Style><Style id="lff9c46296"><LineStyle><color>ff9c4629</color><width>6</width></LineStyle></Style><Style id="lff1200e66"><LineStyle><color>ff1200e6</color><width>6</width></LineStyle></Style><Style id="lffb7ae9c6"><LineStyle><color>ffb7ae9c</color><width>6</width></LineStyle></Style><Style id="lff207bf46"><LineStyle><color>ff207bf4</color><width>6</width></LineStyle></Style><Folder><name>sáb 10 · Arashiyama</name>
<Placemark><name>1. 05:00 · Bosque de bambú (d10)</name><styleUrl>#p1</styleUrl><description><![CDATA[Hora del plan: 05:00. ⏰ SIGUIENTE PUNTO ESTRICTO del día: 05:00 — Desayuno konbini (reserva/transporte: NO se puede llegar tarde).]]></description><Point><coordinates>135.671301,35.016819,0</coordinates></Point></Placemark>
<Placemark><name>2. 06:35 · Bosque de bambú (d10)</name><styleUrl>#p2</styleUrl><description><![CDATA[Hora del plan: 06:35. ⏰ SIGUIENTE PUNTO ESTRICTO del día: 08:30 — Tenryu-ji (reserva/transporte: NO se puede llegar tarde).]]></description><Point><coordinates>135.671301,35.016819,0</coordinates></Point></Placemark>
<Placemark><name>3. 07:20 · Puente Togetsukyō (d10)</name><styleUrl>#p3</styleUrl><description><![CDATA[Hora del plan: 07:20. ⏰ SIGUIENTE PUNTO ESTRICTO del día: 08:30 — Tenryu-ji (reserva/transporte: NO se puede llegar tarde).]]></description><Point><coordinates>135.677775,35.012877,0</coordinates></Point></Placemark>
<Placemark><name>4. 08:30 · Tenryū-ji (d10)</name><styleUrl>#p4</styleUrl><description><![CDATA[Hora del plan: 08:30. ⏰ SIGUIENTE PUNTO ESTRICTO del día: 08:30 — Tenryu-ji (reserva/transporte: NO se puede llegar tarde).]]></description><Point><coordinates>135.673765,35.015838,0</coordinates></Point></Placemark>
<Placemark><name>5. 10:15 · Puente Togetsukyō (d10)</name><styleUrl>#p5</styleUrl><description><![CDATA[Hora del plan: 10:15. ⏰ SIGUIENTE PUNTO ESTRICTO del día: 17:30 — punto fijo (reserva/transporte: NO se puede llegar tarde).]]></description><Point><coordinates>135.677775,35.012877,0</coordinates></Point></Placemark>
<Placemark><name>6. 10:30 · Monte de los monos (Iwatayama) (d10)</name><styleUrl>#p6</styleUrl><description><![CDATA[Hora del plan: 10:30. ⏰ SIGUIENTE PUNTO ESTRICTO del día: 17:30 — punto fijo (reserva/transporte: NO se puede llegar tarde).]]></description><Point><coordinates>135.676625,35.011395,0</coordinates></Point></Placemark>
<Placemark><name>7. 12:10 · Otagi Nenbutsu-ji (d10)</name><styleUrl>#p7</styleUrl><description><![CDATA[Hora del plan: 12:10. ⏰ SIGUIENTE PUNTO ESTRICTO del día: 17:30 — punto fijo (reserva/transporte: NO se puede llegar tarde).]]></description><Point><coordinates>135.661555,35.031143,0</coordinates></Point></Placemark>
<Placemark><name>8. 17:30 · Bosque Kimono (d10)</name><styleUrl>#p8</styleUrl><description><![CDATA[Hora del plan: 17:30. ⏰ SIGUIENTE PUNTO ESTRICTO del día: 17:30 — punto fijo (reserva/transporte: NO se puede llegar tarde).]]></description><Point><coordinates>135.678370,35.015268,0</coordinates></Point></Placemark>
<Placemark><name>d10·1 🚇 05:45 Metro Karasuma (Kioto): Gojō → Shijō ⇒ Bosque de bambú</name><styleUrl>#lff4499006</styleUrl><description><![CDATA[SALE 05:45 de Gojō → LLEGA a Shijō · Metro Karasuma (Kioto) — sentido Kokusaikaikan (1 tramos) · rumbo del plan: Bosque de bambú]]></description><MultiGeometry><LineString><tessellate>1</tessellate><coordinates>135.759718,34.995434,0 135.759718,35.002408,0</coordinates></LineString><LineString><tessellate>1</tessellate><coordinates>135.759560,34.998642,0 135.759718,34.998921,0 135.759875,34.998642,0</coordinates></LineString></MultiGeometry></Placemark>
<Placemark><name>d10·2 🚶 Shijō → Karasuma ⇒ Bosque de bambú</name><styleUrl>#lb8636f7a3</styleUrl><description><![CDATA[caminando · rumbo del plan: Bosque de bambú]]></description><LineString><tessellate>1</tessellate><coordinates>135.759718,35.002414,0 135.759727,35.002414,0 135.759778,35.002415,0 135.759801,35.002415,0 135.759801,35.002460,0 135.759798,35.002492,0 135.759805,35.002524,0 135.759805,35.002646,0 135.759801,35.003247,0 135.759800,35.003456,0 135.759802,35.003517,0 135.759831,35.003550,0 135.759879,35.003576,0 135.759947,35.003581,0 135.759946,35.003659,0 135.760590,35.003662,0</coordinates></LineString></Placemark>
<Placemark><name>d10·3 🚇 05:52 Hankyu (Senri / Kyoto / Arashiyama): Karasuma → Katsura ⇒ Bosque de bambú</name><styleUrl>#lff1700806</styleUrl><description><![CDATA[SALE 05:52 de Karasuma → LLEGA a Katsura · Hankyu (Senri / Kyoto / Arashiyama) — sentido Osaka-Umeda (4 tramos) · rumbo del plan: Bosque de bambú]]></description><MultiGeometry><LineString><tessellate>1</tessellate><coordinates>135.760590,35.003674,0 135.748545,35.003636,0 135.732817,35.003600,0 135.718476,34.992356,0 135.703255,34.979412,0</coordinates></LineString><LineString><tessellate>1</tessellate><coordinates>135.753215,35.003521,0 135.752876,35.003650,0 135.753214,35.003781,0</coordinates></LineString><LineString><tessellate>1</tessellate><coordinates>135.745501,35.003499,0 135.745163,35.003628,0 135.745500,35.003759,0</coordinates></LineString><LineString><tessellate>1</tessellate><coordinates>135.737788,35.003481,0 135.737450,35.003610,0 135.737787,35.003741,0</coordinates></LineString><LineString><tessellate>1</tessellate><coordinates>135.730938,35.001947,0 135.730584,35.001849,0 135.730721,35.002135,0</coordinates></LineString><LineString><tessellate>1</tessellate><coordinates>135.725347,34.997563,0 135.724993,34.997466,0 135.725130,34.997752,0</coordinates></LineString><LineString><tessellate>1</tessellate><coordinates>135.719756,34.993180,0 135.719403,34.993082,0 135.719539,34.993368,0</coordinates></LineString><LineString><tessellate>1</tessellate><coordinates>135.714344,34.988655,0 135.713996,34.988546,0 135.714118,34.988836,0</coordinates></LineString><LineString><tessellate>1</tessellate><coordinates>135.708974,34.984089,0 135.708626,34.983979,0 135.708748,34.984270,0</coordinates></LineString></MultiGeometry></Placemark>
<Placemark><name>d10·4 🚇 06:00 Hankyu (Senri / Kyoto / Arashiyama): Katsura → Arashiyama ⇒ Bosque de bambú</name><styleUrl>#lff1700806</styleUrl><description><![CDATA[SALE 06:00 de Katsura → LLEGA a Arashiyama · Hankyu (Senri / Kyoto / Arashiyama) — sentido Arashiyama (3 tramos) · rumbo del plan: Bosque de bambú]]></description><MultiGeometry><LineString><tessellate>1</tessellate><coordinates>135.703255,34.979412,0 135.695849,34.990528,0 135.688058,35.000557,0 135.677713,35.015220,0</coordinates></LineString><LineString><tessellate>1</tessellate><coordinates>135.700247,34.983658,0 135.700222,34.983965,0 135.700523,34.983783,0</coordinates></LineString><LineString><tessellate>1</tessellate><coordinates>135.697213,34.988211,0 135.697188,34.988518,0 135.697489,34.988336,0</coordinates></LineString><LineString><tessellate>1</tessellate><coordinates>135.694001,34.992666,0 135.693951,34.992970,0 135.694266,34.992806,0</coordinates></LineString><LineString><tessellate>1</tessellate><coordinates>135.690603,34.997040,0 135.690554,34.997345,0 135.690869,34.997180,0</coordinates></LineString><LineString><tessellate>1</tessellate><coordinates>135.687251,35.001443,0 135.687217,35.001749,0 135.687523,35.001574,0</coordinates></LineString><LineString><tessellate>1</tessellate><coordinates>135.684082,35.005933,0 135.684049,35.006240,0 135.684355,35.006064,0</coordinates></LineString><LineString><tessellate>1</tessellate><coordinates>135.680914,35.010423,0 135.680881,35.010730,0 135.681187,35.010554,0</coordinates></LineString></MultiGeometry></Placemark>
<Placemark><name>d10·5 🚶 Arashiyama → Bosque de bambú</name><styleUrl>#lb8636f7a3</styleUrl><description><![CDATA[caminando]]></description><MultiGeometry><LineString><tessellate>1</tessellate><coordinates>135.677719,35.015207,0 135.677573,35.015165,0 135.677433,35.015128,0 135.677183,35.015906,0 135.677168,35.015956,0 135.677119,35.015946,0 135.677068,35.015937,0 135.677061,35.015960,0 135.677037,35.015956,0 135.677014,35.015952,0 135.677007,35.015951,0 135.676993,35.015949,0 135.676976,35.015946,0 135.676958,35.015943,0 135.676950,35.015943,0 135.676820,35.015931,0 135.676700,35.015918,0 135.676562,35.015904,0 135.676558,35.015904,0 135.676551,35.015903,0 135.676545,35.015903,0 135.676508,35.015899,0 135.676471,35.015896,0 135.676389,35.015892,0 135.675967,35.015882,0 135.675712,35.015876,0 135.675527,35.015871,0 135.675519,35.015871,0 135.675186,35.015880,0 135.675058,35.015883,0 135.674712,35.015892,0 135.674684,35.015893,0 135.674666,35.015894,0 135.674661,35.015894,0 135.674503,35.015900,0 135.674495,35.015901,0 135.674159,35.015914,0 135.674083,35.015917,0 135.674076,35.015917,0 135.674038,35.015920,0 135.674033,35.015920,0 135.674031,35.015806,0 135.674032,35.015771,0 135.674032,35.015767,0 135.674032,35.015751,0 135.673916,35.015708,0 135.673911,35.015477,0 135.673911,35.015463,0 135.673880,35.015463,0 135.673569,35.015463,0 135.673578,35.015784,0 135.673607,35.015815,0 135.673610,35.015852,0 135.673411,35.015858,0 135.673387,35.015888,0 135.673398,35.015920,0 135.673401,35.015965,0 135.673377,35.015976,0 135.673375,35.015977,0 135.673359,35.015985,0 135.673342,35.015992,0 135.673137,35.016056,0 135.673078,35.016079,0 135.673034,35.016138,0 135.673018,35.016181,0 135.673000,35.016228,0 135.672816,35.016219,0 135.672799,35.016218,0 135.672756,35.016241,0 135.672718,35.016395,0 135.672674,35.016417,0 135.672668,35.016420,0 135.672654,35.016411,0 135.672629,35.016426,0 135.672580,35.016439,0 135.672528,35.016505,0 135.672519,35.016582,0 135.672515,35.016595,0 135.672461,35.016737,0 135.672427,35.016788,0 135.672332,35.016961,0 135.672260,35.017044,0 135.672212,35.017152,0 135.672201,35.017148,0 135.672193,35.017145,0 135.672190,35.017152,0 135.672200,35.017182,0 135.672145,35.017290,0 135.672083,35.017263,0 135.672061,35.017252,0 135.672039,35.017240,0 135.672017,35.017225,0 135.671996,35.017208,0 135.671974,35.017188,0 135.671708,35.016897,0 135.671685,35.016874,0 135.671661,35.016856,0 135.671631,35.016840,0 135.671598,35.016826,0 135.671561,35.016816,0 135.671527,35.016811,0 135.671494,35.016810,0 135.671467,35.016811,0 135.671350,35.016826,0 135.671325,35.016826,0 135.671300,35.016823,0</coordinates></LineString><LineString><tessellate>1</tessellate><coordinates>135.676333,35.015807,0 135.676111,35.015885,0 135.676327,35.015975,0</coordinates></LineString><LineString><tessellate>1</tessellate><coordinates>135.674022,35.015875,0 135.673916,35.015696,0 135.673818,35.015878,0</coordinates></LineString><LineString><tessellate>1</tessellate><coordinates>135.672664,35.016193,0 135.672720,35.016387,0 135.672864,35.016227,0</coordinates></LineString></MultiGeometry></Placemark>
<Placemark><name>d10·6 🚶 Bosque de bambú → Puente Togetsukyō</name><styleUrl>#lb8636f7a3</styleUrl><description><![CDATA[caminando]]></description><MultiGeometry><LineString><tessellate>1</tessellate><coordinates>135.671300,35.016823,0 135.671325,35.016826,0 135.671350,35.016826,0 135.671467,35.016811,0 135.671494,35.016810,0 135.671527,35.016811,0 135.671561,35.016816,0 135.671598,35.016826,0 135.671631,35.016840,0 135.671661,35.016856,0 135.671685,35.016874,0 135.671708,35.016897,0 135.671974,35.017188,0 135.671996,35.017208,0 135.672017,35.017225,0 135.672039,35.017240,0 135.672061,35.017252,0 135.672083,35.017263,0 135.672145,35.017290,0 135.672200,35.017182,0 135.672190,35.017152,0 135.672193,35.017145,0 135.672201,35.017148,0 135.672212,35.017152,0 135.672260,35.017044,0 135.672332,35.016961,0 135.672427,35.016788,0 135.672461,35.016737,0 135.672515,35.016595,0 135.672519,35.016582,0 135.672528,35.016505,0 135.672580,35.016439,0 135.672629,35.016426,0 135.672654,35.016411,0 135.672668,35.016420,0 135.672674,35.016417,0 135.672718,35.016395,0 135.672756,35.016241,0 135.672799,35.016218,0 135.672816,35.016219,0 135.673000,35.016228,0 135.673018,35.016181,0 135.673034,35.016138,0 135.673078,35.016079,0 135.673137,35.016056,0 135.673342,35.015992,0 135.673359,35.015985,0 135.673375,35.015977,0 135.673377,35.015976,0 135.673401,35.015965,0 135.673398,35.015920,0 135.673387,35.015888,0 135.673411,35.015858,0 135.673610,35.015852,0 135.673607,35.015815,0 135.673578,35.015784,0 135.673569,35.015463,0 135.673880,35.015463,0 135.673911,35.015463,0 135.673911,35.015477,0 135.673916,35.015708,0 135.674032,35.015751,0 135.674032,35.015767,0 135.674032,35.015771,0 135.674031,35.015806,0 135.674033,35.015920,0 135.674038,35.015920,0 135.674076,35.015917,0 135.674083,35.015917,0 135.674159,35.015914,0 135.674495,35.015901,0 135.674503,35.015900,0 135.674661,35.015894,0 135.674666,35.015894,0 135.674684,35.015893,0 135.674712,35.015892,0 135.675058,35.015883,0 135.675186,35.015880,0 135.675519,35.015871,0 135.675527,35.015871,0 135.675712,35.015876,0 135.675967,35.015882,0 135.676389,35.015892,0 135.676471,35.015896,0 135.676508,35.015899,0 135.676545,35.015903,0 135.676551,35.015903,0 135.676558,35.015904,0 135.676562,35.015904,0 135.676700,35.015918,0 135.676820,35.015931,0 135.676950,35.015943,0 135.676958,35.015943,0 135.676976,35.015946,0 135.676993,35.015949,0 135.677007,35.015951,0 135.677014,35.015952,0 135.677037,35.015956,0 135.677061,35.015960,0 135.677068,35.015937,0 135.677118,35.015744,0 135.677136,35.015684,0 135.677180,35.015538,0 135.677195,35.015493,0 135.677206,35.015458,0 135.677194,35.015413,0 135.677199,35.015389,0 135.677241,35.015271,0 135.677265,35.015246,0 135.677283,35.015229,0 135.677346,35.015029,0 135.677466,35.014661,0 135.677567,35.014372,0 135.677557,35.014361,0 135.677566,35.014332,0 135.677578,35.014299,0 135.677600,35.014287,0 135.677760,35.013769,0 135.677783,35.013688,0 135.677779,35.013670,0 135.677757,35.013657,0 135.677764,35.013623,0 135.677775,35.013592,0 135.677789,35.013591,0 135.677804,35.013576,0 135.677849,35.013576,0 135.677847,35.013555,0 135.677763,35.012878,0</coordinates></LineString><LineString><tessellate>1</tessellate><coordinates>135.673043,35.016287,0 135.673070,35.016089,0 135.672869,35.016199,0</coordinates></LineString><LineString><tessellate>1</tessellate><coordinates>135.674703,35.015976,0 135.674918,35.015887,0 135.674696,35.015808,0</coordinates></LineString><LineString><tessellate>1</tessellate><coordinates>135.677206,35.015443,0 135.677262,35.015249,0 135.677046,35.015338,0</coordinates></LineString></MultiGeometry></Placemark>
<Placemark><name>d10·7 🚶 Puente Togetsukyō → Tenryū-ji</name><styleUrl>#lb8636f7a3</styleUrl><description><![CDATA[caminando]]></description><MultiGeometry><LineString><tessellate>1</tessellate><coordinates>135.677763,35.012878,0 135.677847,35.013555,0 135.677849,35.013576,0 135.677804,35.013576,0 135.677789,35.013591,0 135.677775,35.013592,0 135.677764,35.013623,0 135.677757,35.013657,0 135.677779,35.013670,0 135.677783,35.013688,0 135.677760,35.013769,0 135.677600,35.014287,0 135.677578,35.014299,0 135.677566,35.014332,0 135.677557,35.014361,0 135.677567,35.014372,0 135.677466,35.014661,0 135.677346,35.015029,0 135.677283,35.015229,0 135.677265,35.015246,0 135.677241,35.015271,0 135.677199,35.015389,0 135.677194,35.015413,0 135.677206,35.015458,0 135.677195,35.015493,0 135.677180,35.015538,0 135.677136,35.015684,0 135.677118,35.015744,0 135.677068,35.015937,0 135.677061,35.015960,0 135.677037,35.015956,0 135.677014,35.015952,0 135.677007,35.015951,0 135.676993,35.015949,0 135.676976,35.015946,0 135.676958,35.015943,0 135.676950,35.015943,0 135.676820,35.015931,0 135.676700,35.015918,0 135.676562,35.015904,0 135.676558,35.015904,0 135.676551,35.015903,0 135.676545,35.015903,0 135.676508,35.015899,0 135.676471,35.015896,0 135.676389,35.015892,0 135.675967,35.015882,0 135.675712,35.015876,0 135.675527,35.015871,0 135.675519,35.015871,0 135.675186,35.015880,0 135.675058,35.015883,0 135.674712,35.015892,0 135.674684,35.015893,0 135.674666,35.015894,0 135.674661,35.015894,0 135.674503,35.015900,0 135.674495,35.015901,0 135.674159,35.015914,0 135.674083,35.015917,0 135.674076,35.015917,0 135.674038,35.015920,0 135.674033,35.015920,0 135.674031,35.015806,0 135.674032,35.015771,0 135.674032,35.015767,0 135.674032,35.015751,0 135.673916,35.015708,0 135.673911,35.015477,0 135.673591,35.015483,0 135.673600,35.015799,0 135.673657,35.015798,0 135.673658,35.015840,0</coordinates></LineString><LineString><tessellate>1</tessellate><coordinates>135.677293,35.014864,0 135.677336,35.015060,0 135.677490,35.014906,0</coordinates></LineString><LineString><tessellate>1</tessellate><coordinates>135.675622,35.015784,0 135.675407,35.015874,0 135.675629,35.015952,0</coordinates></LineString></MultiGeometry></Placemark>
<Placemark><name>d10·8 🚶 Tenryū-ji → Puente Togetsukyō</name><styleUrl>#lb8636f7a3</styleUrl><description><![CDATA[caminando]]></description><MultiGeometry><LineString><tessellate>1</tessellate><coordinates>135.673658,35.015840,0 135.673657,35.015798,0 135.673600,35.015799,0 135.673591,35.015483,0 135.673911,35.015477,0 135.673916,35.015708,0 135.674032,35.015751,0 135.674032,35.015767,0 135.674032,35.015771,0 135.674031,35.015806,0 135.674033,35.015920,0 135.674038,35.015920,0 135.674076,35.015917,0 135.674083,35.015917,0 135.674159,35.015914,0 135.674495,35.015901,0 135.674503,35.015900,0 135.674661,35.015894,0 135.674666,35.015894,0 135.674684,35.015893,0 135.674712,35.015892,0 135.675058,35.015883,0 135.675186,35.015880,0 135.675519,35.015871,0 135.675527,35.015871,0 135.675712,35.015876,0 135.675967,35.015882,0 135.676389,35.015892,0 135.676471,35.015896,0 135.676508,35.015899,0 135.676545,35.015903,0 135.676551,35.015903,0 135.676558,35.015904,0 135.676562,35.015904,0 135.676700,35.015918,0 135.676820,35.015931,0 135.676950,35.015943,0 135.676958,35.015943,0 135.676976,35.015946,0 135.676993,35.015949,0 135.677007,35.015951,0 135.677014,35.015952,0 135.677037,35.015956,0 135.677061,35.015960,0 135.677068,35.015937,0 135.677118,35.015744,0 135.677136,35.015684,0 135.677180,35.015538,0 135.677195,35.015493,0 135.677206,35.015458,0 135.677194,35.015413,0 135.677199,35.015389,0 135.677241,35.015271,0 135.677265,35.015246,0 135.677283,35.015229,0 135.677346,35.015029,0 135.677466,35.014661,0 135.677567,35.014372,0 135.677557,35.014361,0 135.677566,35.014332,0 135.677578,35.014299,0 135.677600,35.014287,0 135.677760,35.013769,0 135.677783,35.013688,0 135.677779,35.013670,0 135.677757,35.013657,0 135.677764,35.013623,0 135.677775,35.013592,0 135.677789,35.013591,0 135.677804,35.013576,0 135.677849,35.013576,0 135.677847,35.013555,0 135.677763,35.012878,0</coordinates></LineString><LineString><tessellate>1</tessellate><coordinates>135.675192,35.015964,0 135.675407,35.015874,0 135.675185,35.015796,0</coordinates></LineString><LineString><tessellate>1</tessellate><coordinates>135.677380,35.015255,0 135.677336,35.015060,0 135.677183,35.015213,0</coordinates></LineString></MultiGeometry></Placemark>
<Placemark><name>d10·9 🚶 Puente Togetsukyō → Monte de los monos (Iwatayama)</name><styleUrl>#lb8636f7a3</styleUrl><description><![CDATA[caminando]]></description><MultiGeometry><LineString><tessellate>1</tessellate><coordinates>135.677763,35.012878,0 135.677678,35.012187,0 135.677662,35.012100,0 135.677610,35.012108,0 135.677518,35.011855,0 135.677465,35.011721,0 135.677411,35.011593,0 135.677406,35.011559,0 135.677341,35.011394,0 135.677320,35.011359,0 135.677299,35.011343,0 135.677211,35.011422,0 135.677078,35.011477,0 135.676945,35.011530,0 135.676858,35.011560,0 135.676852,35.011562,0 135.676696,35.011526,0 135.676643,35.011509,0 135.676584,35.011481,0 135.676622,35.011425,0 135.676622,35.011425,0</coordinates></LineString><LineString><tessellate>1</tessellate><coordinates>135.677647,35.011909,0 135.677482,35.011764,0 135.677453,35.011961,0</coordinates></LineString></MultiGeometry></Placemark>
<Placemark><name>d10·10 🚶 Monte de los monos (Iwatayama) → Arashiyama Tenryūji-mae ⇒ Otagi Nenbutsu-ji</name><styleUrl>#lb8636f7a3</styleUrl><description><![CDATA[caminando · rumbo del plan: Otagi Nenbutsu-ji]]></description><MultiGeometry><LineString><tessellate>1</tessellate><coordinates>135.676622,35.011425,0 135.676584,35.011481,0 135.676643,35.011509,0 135.676696,35.011526,0 135.676852,35.011562,0 135.676858,35.011560,0 135.676945,35.011530,0 135.677078,35.011477,0 135.677211,35.011422,0 135.677299,35.011343,0 135.677320,35.011359,0 135.677341,35.011394,0 135.677406,35.011559,0 135.677411,35.011593,0 135.677465,35.011721,0 135.677518,35.011855,0 135.677610,35.012108,0 135.677629,35.012182,0 135.677802,35.013555,0 135.677804,35.013576,0 135.677789,35.013591,0 135.677775,35.013592,0 135.677764,35.013623,0 135.677757,35.013657,0 135.677779,35.013670,0 135.677783,35.013688,0 135.677760,35.013769,0 135.677600,35.014287,0 135.677578,35.014299,0 135.677566,35.014332,0 135.677557,35.014361,0 135.677567,35.014372,0 135.677466,35.014661,0 135.677346,35.015029,0 135.677283,35.015229,0 135.677265,35.015246,0 135.677241,35.015271,0 135.677199,35.015389,0 135.677194,35.015413,0 135.677206,35.015458,0 135.677195,35.015493,0 135.677180,35.015538,0 135.677136,35.015684,0 135.677118,35.015744,0 135.677068,35.015937,0 135.677061,35.015960,0 135.677037,35.015956,0 135.677014,35.015952,0 135.677007,35.015951,0 135.676993,35.015949,0 135.676976,35.015946,0 135.676958,35.015943,0 135.676950,35.015943,0 135.676820,35.015931,0 135.676700,35.015918,0 135.676562,35.015904,0 135.676558,35.015904,0 135.676551,35.015903,0 135.676545,35.015903,0 135.676508,35.015899,0 135.676471,35.015896,0 135.676389,35.015892,0 135.675967,35.015882,0 135.675712,35.015876,0 135.675527,35.015871,0 135.675519,35.015871,0 135.675186,35.015880,0 135.675058,35.015883,0 135.674712,35.015892,0 135.674684,35.015893,0 135.674666,35.015894,0 135.674661,35.015894,0 135.674503,35.015900,0 135.674495,35.015901,0 135.674159,35.015914,0 135.674083,35.015917,0 135.674076,35.015917,0 135.674038,35.015920,0 135.674033,35.015920,0 135.674031,35.015806,0 135.674032,35.015771,0 135.674032,35.015767,0 135.674032,35.015751,0 135.673916,35.015708,0 135.673911,35.015477,0 135.673591,35.015483,0 135.673600,35.015799,0 135.673657,35.015798,0 135.673658,35.015840,0</coordinates></LineString><LineString><tessellate>1</tessellate><coordinates>135.677590,35.012688,0 135.677714,35.012858,0 135.677793,35.012670,0</coordinates></LineString><LineString><tessellate>1</tessellate><coordinates>135.677289,35.014875,0 135.677333,35.015071,0 135.677487,35.014917,0</coordinates></LineString><LineString><tessellate>1</tessellate><coordinates>135.675615,35.015784,0 135.675400,35.015874,0 135.675622,35.015952,0</coordinates></LineString></MultiGeometry></Placemark>
<Placemark><name>d10·11 🚌 11:50 Bus urbano de Kioto: Arashiyama Tenryūji-mae → Otagidera-mae ⇒ Otagi Nenbutsu-ji</name><styleUrl>#lff1fc38f6</styleUrl><description><![CDATA[SALE 11:50 de Arashiyama Tenryūji-mae → LLEGA a Otagidera-mae · Bus urbano de Kioto — sentido hacia Daikakuji / Kiyotaki (1 tramos) · rumbo del plan: Otagi Nenbutsu-ji]]></description><MultiGeometry><LineString><tessellate>1</tessellate><coordinates>135.673765,35.015838,0 135.661555,35.031143,0</coordinates></LineString><LineString><tessellate>1</tessellate><coordinates>135.670767,35.019360,0 135.670713,35.019664,0 135.671030,35.019503,0</coordinates></LineString><LineString><tessellate>1</tessellate><coordinates>135.667714,35.023186,0 135.667660,35.023490,0 135.667977,35.023329,0</coordinates></LineString><LineString><tessellate>1</tessellate><coordinates>135.664661,35.027012,0 135.664607,35.027317,0 135.664925,35.027155,0</coordinates></LineString></MultiGeometry></Placemark>
<Placemark><name>d10·12 🚶 Otagi Nenbutsu-ji → Bosque Kimono</name><styleUrl>#lb8636f7a3</styleUrl><description><![CDATA[caminando]]></description><MultiGeometry><LineString><tessellate>1</tessellate><coordinates>135.661555,35.031143,0 135.661575,35.031148,0 135.661656,35.031173,0 135.661649,35.031193,0 135.661645,35.031214,0 135.661624,35.031315,0 135.661857,35.030962,0 135.661880,35.030921,0 135.661909,35.030848,0 135.661943,35.030679,0 135.661977,35.030506,0 135.662051,35.030181,0 135.662132,35.029972,0 135.662157,35.029903,0 135.662274,35.029681,0 135.662313,35.029602,0 135.662354,35.029471,0 135.662395,35.029238,0 135.662445,35.028988,0 135.662492,35.028805,0 135.662531,35.028714,0 135.662589,35.028630,0 135.662628,35.028573,0 135.662685,35.028517,0 135.662772,35.028446,0 135.662884,35.028375,0 135.662998,35.028324,0 135.663121,35.028278,0 135.663227,35.028254,0 135.663338,35.028233,0 135.663463,35.028218,0 135.663507,35.028213,0 135.663601,35.028203,0 135.663755,35.028204,0 135.663953,35.028224,0 135.664296,35.028255,0 135.664477,35.028267,0 135.664647,35.028273,0 135.664760,35.028269,0 135.664873,35.028258,0 135.665009,35.028237,0 135.665098,35.028221,0 135.665163,35.028203,0 135.665207,35.028191,0 135.665279,35.028167,0 135.665364,35.028138,0 135.665484,35.028088,0 135.665571,35.028043,0 135.665638,35.028002,0 135.665680,35.027975,0 135.665759,35.027922,0 135.665842,35.027853,0 135.665975,35.027719,0 135.666019,35.027665,0 135.666211,35.027399,0 135.666303,35.027299,0 135.666405,35.027212,0 135.666502,35.027143,0 135.666609,35.027083,0 135.666977,35.026919,0 135.667275,35.026856,0 135.667409,35.026828,0 135.668061,35.026757,0 135.668921,35.026696,0 135.669003,35.026689,0 135.669098,35.026680,0 135.669844,35.026601,0 135.670718,35.026531,0 135.671009,35.026488,0 135.671117,35.026109,0 135.671242,35.025597,0 135.671360,35.025597,0 135.671424,35.025597,0 135.671789,35.025610,0 135.672076,35.025619,0 135.672262,35.025630,0 135.672545,35.025643,0 135.672785,35.025653,0 135.672968,35.025243,0 135.673026,35.025080,0 135.673056,35.024963,0 135.673051,35.024770,0 135.673070,35.024621,0 135.673077,35.024594,0 135.673089,35.024559,0 135.673096,35.024540,0 135.673334,35.023958,0 135.673395,35.023799,0 135.673475,35.023587,0 135.673530,35.023441,0 135.673635,35.023164,0 135.673663,35.023171,0 135.673681,35.023176,0 135.673714,35.023184,0 135.673725,35.023187,0 135.673744,35.023192,0 135.673907,35.023234,0 135.674040,35.023268,0 135.674166,35.023247,0 135.674366,35.023296,0 135.674380,35.023258,0 135.674517,35.023098,0 135.674633,35.022961,0 135.674681,35.022905,0 135.674742,35.022833,0 135.674745,35.022830,0 135.674788,35.022720,0 135.674798,35.022694,0 135.674803,35.022680,0 135.674819,35.022638,0 135.674853,35.022543,0 135.674879,35.022550,0 135.675118,35.021907,0 135.675315,35.021359,0 135.675481,35.020939,0 135.675535,35.020808,0 135.675727,35.020368,0 135.675982,35.019853,0 135.676049,35.019838,0 135.676069,35.019770,0 135.676086,35.019708,0 135.676090,35.019649,0 135.675926,35.019445,0 135.675949,35.019312,0 135.676056,35.019041,0 135.676069,35.019007,0 135.676166,35.018774,0 135.676182,35.018731,0 135.676294,35.018466,0 135.676446,35.018061,0 135.676501,35.017919,0 135.676613,35.017618,0 135.676570,35.017608,0 135.676665,35.017303,0 135.676722,35.017122,0 135.676774,35.016939,0 135.676965,35.016272,0 135.677012,35.016121,0 135.677044,35.016014,0 135.677061,35.015960,0 135.677068,35.015937,0 135.677119,35.015946,0 135.677168,35.015956,0 135.677183,35.015906,0 135.677433,35.015128,0 135.677447,35.015087,0 135.677588,35.015124,0 135.677839,35.015193,0 135.677855,35.015148,0 135.677871,35.015107,0 135.677891,35.015113,0 135.678173,35.015193,0 135.678221,35.015209,0 135.678267,35.015225,0 135.678327,35.015253,0 135.678365,35.015244,0 135.678384,35.015250,0 135.678387,35.015252,0</coordinates></LineString><LineString><tessellate>1</tessellate><coordinates>135.663710,35.028284,0 135.663940,35.028223,0 135.663735,35.028117,0</coordinates></LineString><LineString><tessellate>1</tessellate><coordinates>135.668297,35.026825,0 135.668506,35.026725,0 135.668279,35.026657,0</coordinates></LineString><LineString><tessellate>1</tessellate><coordinates>135.672827,35.025803,0 135.672807,35.025605,0 135.672635,35.025745,0</coordinates></LineString><LineString><tessellate>1</tessellate><coordinates>135.675003,35.022504,0 135.674969,35.022307,0 135.674808,35.022455,0</coordinates></LineString><LineString><tessellate>1</tessellate><coordinates>135.676399,35.018472,0 135.676366,35.018275,0 135.676204,35.018422,0</coordinates></LineString></MultiGeometry></Placemark>
<Placemark><name>d10·13 🚇 18:00 Randen (tranvía de Arashiyama): Arashiyama → Shijō-Ōmiya ⇒ hotel</name><styleUrl>#lff9933666</styleUrl><description><![CDATA[SALE 18:00 de Arashiyama → LLEGA a Shijō-Ōmiya · Randen (tranvía de Arashiyama) — sentido Shijō-Ōmiya (12 tramos) · ruta escénica · rumbo del plan: hotel]]></description><MultiGeometry><LineString><tessellate>1</tessellate><coordinates>135.677713,35.015220,0 135.681372,35.016464,0 135.685660,35.016959,0 135.689113,35.016715,0 135.694783,35.015162,0 135.700181,35.015190,0 135.708259,35.013491,0 135.713000,35.011953,0 135.715196,35.010213,0 135.723370,35.008303,0 135.732129,35.008046,0 135.732817,35.003600,0 135.748610,35.003344,0</coordinates></LineString><LineString><tessellate>1</tessellate><coordinates>135.685725,35.017085,0 135.686048,35.016931,0 135.685698,35.016826,0</coordinates></LineString><LineString><tessellate>1</tessellate><coordinates>135.694158,35.015471,0 135.694429,35.015259,0 135.694058,35.015224,0</coordinates></LineString><LineString><tessellate>1</tessellate><coordinates>135.702708,35.014793,0 135.702997,35.014598,0 135.702631,35.014541,0</coordinates></LineString><LineString><tessellate>1</tessellate><coordinates>135.711024,35.012734,0 135.711280,35.012511,0 135.710908,35.012492,0</coordinates></LineString><LineString><tessellate>1</tessellate><coordinates>135.718555,35.009564,0 135.718837,35.009362,0 135.718469,35.009313,0</coordinates></LineString><LineString><tessellate>1</tessellate><coordinates>135.727001,35.008327,0 135.727333,35.008187,0 135.726990,35.008067,0</coordinates></LineString><LineString><tessellate>1</tessellate><coordinates>135.732734,35.005166,0 135.732620,35.004873,0 135.732421,35.005133,0</coordinates></LineString><LineString><tessellate>1</tessellate><coordinates>135.739601,35.003620,0 135.739935,35.003485,0 135.739595,35.003360,0</coordinates></LineString></MultiGeometry></Placemark>
<Placemark><name>d10·14 🚇 18:30 Hankyu (Senri / Kyoto / Arashiyama): Ōmiya → Karasuma ⇒ hotel</name><styleUrl>#lff1700806</styleUrl><description><![CDATA[SALE 18:30 de Ōmiya → LLEGA a Karasuma · Hankyu (Senri / Kyoto / Arashiyama) — sentido Kyoto-Kawaramachi (1 tramos) · rumbo del plan: hotel]]></description><MultiGeometry><LineString><tessellate>1</tessellate><coordinates>135.748545,35.003636,0 135.760590,35.003674,0</coordinates></LineString><LineString><tessellate>1</tessellate><coordinates>135.754229,35.003784,0 135.754567,35.003655,0 135.754230,35.003524,0</coordinates></LineString></MultiGeometry></Placemark>
</Folder></Document></kml>