<?xml version="1.0" encoding="UTF-8"?>
<kml xmlns="http://www.opengis.net/kml/2.2"><Document><name>Catálogo Kansai — sitios · restos · hoteles</name><description>⭐ sitios · 🍜 restaurantes por nivel · 🏨 hoteles (Osaka, Hiroshima, Nara, Kioto).</description><Style id="sitio_osaka"><IconStyle><scale>1.1</scale><Icon><href>https://maps.google.com/mapfiles/kml/paddle/red-stars.png</href></Icon></IconStyle></Style><Style id="sitio_hiroshima"><IconStyle><scale>1.1</scale><Icon><href>https://maps.google.com/mapfiles/kml/paddle/red-stars.png</href></Icon></IconStyle></Style><Style id="sitio_nara"><IconStyle><scale>1.1</scale><Icon><href>https://maps.google.com/mapfiles/kml/paddle/red-stars.png</href></Icon></IconStyle></Style><Style id="sitio_kioto"><IconStyle><scale>1.1</scale><Icon><href>https://maps.google.com/mapfiles/kml/paddle/red-stars.png</href></Icon></IconStyle></Style><Style id="sitio_tokio"><IconStyle><scale>1.1</scale><Icon><href>https://maps.google.com/mapfiles/kml/paddle/red-stars.png</href></Icon></IconStyle></Style><Style id="sitio_fuji"><IconStyle><scale>1.1</scale><Icon><href>https://maps.google.com/mapfiles/kml/paddle/red-stars.png</href></Icon></IconStyle></Style><Style id="take"><IconStyle><scale>1.1</scale><Icon><href>https://maps.google.com/mapfiles/kml/paddle/grn-circle.png</href></Icon></IconStyle></Style><Style id="ai"><IconStyle><scale>1.1</scale><Icon><href>https://maps.google.com/mapfiles/kml/paddle/blu-circle.png</href></Icon></IconStyle></Style><Style id="shu"><IconStyle><scale>1.1</scale><Icon><href>https://maps.google.com/mapfiles/kml/paddle/red-circle.png</href></Icon></IconStyle></Style><Style id="resto"><IconStyle><scale>1.1</scale><Icon><href>https://maps.google.com/mapfiles/kml/paddle/wht-circle.png</href></Icon></IconStyle></Style><Style id="hotel"><IconStyle><scale>1.1</scale><Icon><href>https://maps.google.com/mapfiles/kml/paddle/ylw-stars.png</href></Icon></IconStyle></Style><Style id="aero"><IconStyle><scale>1.1</scale><Icon><href>https://maps.google.com/mapfiles/kml/paddle/purple-square.png</href></Icon></IconStyle></Style><Folder><name>1 · Osaka (dom 4 – jue 8)</name>
<Placemark><name>⭐ Castillo de Osaka</name><styleUrl>#sitio_osaka</styleUrl><description><![CDATA[El símbolo de la ciudad: torre de 8 pisos entre fosos y murallas ciclópeas, rodeada de un parque enorme. El museo interior cuenta la era de los unificadores; la vista desde arriba abarca todo Osaka. — EN EL PLAN: dom 4 · 14:15<br/><a href="https://www.google.com/maps/search/?api=1&amp;query=Osaka%20Castle">Abrir en Google Maps</a>]]></description><Point><coordinates>135.525856,34.687373,0</coordinates></Point></Placemark>
<Placemark><name>⭐ Dotonbori</name><styleUrl>#sitio_osaka</styleUrl><description><![CDATA[El canal de neón más famoso de Japón: el corredor de Glico, el cangrejo gigante que se mueve, puestos, barcos y ruido feliz. De noche es otro planeta. — EN EL PLAN: dom 4 · 19:30<br/><a href="https://www.google.com/maps/search/?api=1&amp;query=Dotonbori%20Osaka">Abrir en Google Maps</a>]]></description><Point><coordinates>135.501572,34.669031,0</coordinates></Point></Placemark>
<Placemark><name>⭐ Hōzen-ji</name><styleUrl>#sitio_osaka</styleUrl><description><![CDATA[Templito escondido en un callejón empedrado: el buda Fudō Myōō está cubierto de musgo porque cada visitante le avienta agua al pedir su deseo. — EN EL PLAN: dom 4 · 17:05<br/><a href="https://www.google.com/maps/search/?api=1&amp;query=Hozenji%20Temple%20Osaka">Abrir en Google Maps</a>]]></description><Point><coordinates>135.502416,34.668023,0</coordinates></Point></Placemark>
<Placemark><name>⭐ Namba Yasaka</name><styleUrl>#sitio_osaka</styleUrl><description><![CDATA[El santuario de la cabeza de león gigante: 12 m de fauces abiertas que se tragan la mala suerte. Foto obligada, visita de 20 minutos. — EN EL PLAN: dom 4 · 17:05<br/><a href="https://www.google.com/maps/search/?api=1&amp;query=Namba%20Yasaka%20Shrine%20Osaka">Abrir en Google Maps</a>]]></description><Point><coordinates>135.496733,34.661482,0</coordinates></Point></Placemark>
<Placemark><name>⭐ Shinsekai</name><styleUrl>#sitio_osaka</styleUrl><description><![CDATA[El barrio retro de Osaka: farolitos, kushikatsu, pachinkos y la torre Tsūtenkaku al centro. 'El Nuevo Mundo' que se quedó congelado a mitad del siglo XX — hoy es puro encanto. — EN EL PLAN: jue 8 · 09:30<br/><a href="https://www.google.com/maps/search/?api=1&amp;query=Shinsekai%20Osaka">Abrir en Google Maps</a>]]></description><Point><coordinates>135.506191,34.652090,0</coordinates></Point></Placemark>
<Placemark><name>⭐ Tsūtenkaku</name><styleUrl>#sitio_osaka</styleUrl><description><![CDATA[La torre de 103 m de Shinsekai: mirador, neones de anuncio y el dios Billiken — tócale los pies y pide un deseo. — EN EL PLAN: jue 8 · 09:30<br/><a href="https://www.google.com/maps/search/?api=1&amp;query=Tsutenkaku%20Osaka">Abrir en Google Maps</a>]]></description><Point><coordinates>135.506310,34.652539,0</coordinates></Point></Placemark>
<Placemark><name>⭐ Abeno Harukas</name><styleUrl>#sitio_osaka</styleUrl><description><![CDATA[El rascacielos más alto de Osaka (300 m): el mirador Harukas 300 ocupa los pisos 58–60 con vista de 360° — en día claro se alcanza Kioto y el mar. — EN EL PLAN: jue 8 · 14:00<br/><a href="https://www.google.com/maps/search/?api=1&amp;query=Abeno%20Harukas%20300%20Osaka">Abrir en Google Maps</a>]]></description><Point><coordinates>135.514007,34.645769,0</coordinates></Point></Placemark>
<Placemark><name>⭐ Super Nintendo World</name><styleUrl>#sitio_osaka</styleUrl><description><![CDATA[El mundo de Mario a escala real: entras por un tubo warp, los bloques suenan al golpearlos, Mario Kart es un ride con realidad aumentada y la Power-Up Band convierte el área entera en videojuego. — EN EL PLAN: mar 6 · 08:30<br/><a href="https://www.google.com/maps/search/?api=1&amp;query=Super%20Nintendo%20World%20Osaka">Abrir en Google Maps</a>]]></description><Point><coordinates>135.431200,34.666800,0</coordinates></Point></Placemark>
<Placemark><name>⭐ Universal Studios Japan</name><styleUrl>#sitio_osaka</styleUrl><description><![CDATA[El parque de Universal en Osaka: Nintendo, Harry Potter, Minions, Jaws — y en octubre, ambientación de Halloween. La fila temprana es LA estrategia. — EN EL PLAN: mar 6 · 06:45<br/><a href="https://www.google.com/maps/search/?api=1&amp;query=Universal%20Studios%20Japan">Abrir en Google Maps</a>]]></description><Point><coordinates>135.432300,34.665400,0</coordinates></Point></Placemark>
<Placemark><name>⭐ Parque Tennōji + Keitakuen</name><styleUrl>#sitio_osaka</styleUrl><description><![CDATA[Parque urbano con el jardín japonés Keitakuen al centro: estanque, pinos podados y silencio — un respiro entre Shinsekai y Abeno. — EN EL PLAN: jue 8 · 11:10<br/><a href="https://www.google.com/maps/search/?api=1&amp;query=Keitakuen%20Garden%20Osaka">Abrir en Google Maps</a>]]></description><Point><coordinates>135.511423,34.649711,0</coordinates></Point></Placemark>
<Placemark><name>🍜 Acchichi Honpo</name><styleUrl>#take</styleUrl><description><![CDATA[Takoyaki hecho al momento, de pie en Dotonbori · ¥600 · Nivel 🎋 Take — días: dom 4 · mar 6<br/><a href="https://www.google.com/maps/search/?api=1&amp;query=Acchichi%20Honpo%20Dotonbori%20Osaka">Abrir en Google Maps</a>]]></description><Point><coordinates>135.505830,34.643014,0</coordinates></Point></Placemark>
<Placemark><name>🍜 Kinryu Ramen</name><styleUrl>#take</styleUrl><description><![CDATA[Ramen del dragón dorado, abierto casi siempre · ¥900 · Nivel 🎋 Take — días: dom 4 · mar 6<br/><a href="https://www.google.com/maps/search/?api=1&amp;query=Kinryu%20Ramen%20Dotonbori">Abrir en Google Maps</a>]]></description><Point><coordinates>135.504359,34.668857,0</coordinates></Point></Placemark>
<Placemark><name>🍜 Ichiran Dotonbori</name><styleUrl>#take</styleUrl><description><![CDATA[Tonkotsu en cabina individual — el rito clásico · ¥980–1,320 · Nivel 🎋 Take — días: dom 4 · mar 6 · mié 7<br/><a href="https://www.google.com/maps/search/?api=1&amp;query=Ichiran%20Dotonbori%20Honkan">Abrir en Google Maps</a>]]></description><Point><coordinates>135.503214,34.668449,0</coordinates></Point></Placemark>
<Placemark><name>🍜 Mizuno</name><styleUrl>#ai</styleUrl><description><![CDATA[Okonomiyaki de tradición (1945), fila corta de noche · ¥1,600 · Nivel 🌊 Ai — días: dom 4 · mar 6<br/><a href="https://www.google.com/maps/search/?api=1&amp;query=Okonomiyaki%20Mizuno%20Dotonbori">Abrir en Google Maps</a>]]></description><Point><coordinates>135.503069,34.668453,0</coordinates></Point></Placemark>
<Placemark><name>🍜 Chibo</name><styleUrl>#ai</styleUrl><description><![CDATA[Okonomiyaki con plancha en la mesa · ¥2,000 · Nivel 🌊 Ai — días: dom 4 · mar 6<br/><a href="https://www.google.com/maps/search/?api=1&amp;query=Chibo%20Okonomiyaki%20Dotonbori">Abrir en Google Maps</a>]]></description><Point><coordinates>135.500983,34.668104,0</coordinates></Point></Placemark>
<Placemark><name>🍜 Daruma Dotonbori</name><styleUrl>#ai</styleUrl><description><![CDATA[Kushikatsu (brochetas empanizadas) — regla: NO doble dip · ¥2,500 · Nivel 🌊 Ai — días: dom 4 · mar 6<br/><a href="https://www.google.com/maps/search/?api=1&amp;query=Kushikatsu%20Daruma%20Dotonbori">Abrir en Google Maps</a>]]></description><Point><coordinates>135.503075,34.668848,0</coordinates></Point></Placemark>
<Placemark><name>🍜 Hariju</name><styleUrl>#shu</styleUrl><description><![CDATA[Sukiyaki y shabu de res, casona de 1948 frente al canal · ¥7–10,000 · Nivel 🔴 Shu — días: dom 4 · mar 6<br/><a href="https://www.google.com/maps/search/?api=1&amp;query=Harijyu%20Dotonbori%20Osaka">Abrir en Google Maps</a>]]></description><Point><coordinates>135.500678,34.668593,0</coordinates></Point></Placemark>
<Placemark><name>🍜 Kani Douraku honten</name><styleUrl>#shu</styleUrl><description><![CDATA[Kaiseki de cangrejo — el del letrero gigante que se mueve · ¥6–12,000 · Nivel 🔴 Shu — días: dom 4 · mar 6 · mié 7<br/><a href="https://www.google.com/maps/search/?api=1&amp;query=Kani%20Doraku%20Dotonbori%20Honten">Abrir en Google Maps</a>]]></description><Point><coordinates>135.501497,34.668793,0</coordinates></Point></Placemark>
<Placemark><name>🍜 Matsusakagyu M Dotonbori</name><styleUrl>#shu</styleUrl><description><![CDATA[Yakiniku de res Matsusaka (rival de Kobe) · ¥8–12,000 · Nivel 🔴 Shu — días: dom 4 · mar 6 · mié 7<br/><a href="https://www.google.com/maps/search/?api=1&amp;query=Yakiniku%20M%20Dotonbori">Abrir en Google Maps</a>]]></description><Point><coordinates>135.499955,34.669309,0</coordinates></Point></Placemark>
<Placemark><name>🍜 Yaekatsu</name><styleUrl>#take</styleUrl><description><![CDATA[Kushikatsu de Shinsekai, favorito de locales · ¥1,600 · Nivel 🎋 Take — días: jue 8<br/><a href="https://www.google.com/maps/search/?api=1&amp;query=Yaekatsu%20Shinsekai%20Osaka">Abrir en Google Maps</a>]]></description><Point><coordinates>135.506191,34.652090,0</coordinates></Point></Placemark>
<Placemark><name>🍜 Kushikatsu Tengu</name><styleUrl>#take</styleUrl><description><![CDATA[Kushikatsu clásico del barrio retro · ¥1,800 · Nivel 🎋 Take — días: jue 8<br/><a href="https://www.google.com/maps/search/?api=1&amp;query=Kushikatsu%20Tengu%20Shinsekai">Abrir en Google Maps</a>]]></description><Point><coordinates>135.501808,34.674179,0</coordinates></Point></Placemark>
<Placemark><name>🍜 Daruma (original 1929)</name><styleUrl>#take</styleUrl><description><![CDATA[La casa madre del kushikatsu, donde nació · ¥2,000 · Nivel 🎋 Take — días: jue 8<br/><a href="https://www.google.com/maps/search/?api=1&amp;query=Kushikatsu%20Daruma%20Shinsekai%20Honten">Abrir en Google Maps</a>]]></description><Point><coordinates>135.506300,34.651500,0</coordinates></Point></Placemark>
<Placemark><name>🍜 Matsusakagyu M Namba</name><styleUrl>#ai</styleUrl><description><![CDATA[Yakiniku Matsusaka, sucursal Namba — reservar · ¥8–10,000 · Nivel 🌊 Ai — días: mié 7 · jue 8<br/><a href="https://www.google.com/maps/search/?api=1&amp;query=Yakiniku%20M%20Namba">Abrir en Google Maps</a>]]></description><Point><coordinates>135.499899,34.669340,0</coordinates></Point></Placemark>
<Placemark><name>🍜 Torikizoku</name><styleUrl>#take</styleUrl><description><![CDATA[Yakitori de cadena: TODO a ¥370 el pincho — ideal 10 personas · ¥2,500 · Nivel 🎋 Take — días: mié 7 · vie 16<br/><a href="https://www.google.com/maps/search/?api=1&amp;query=Torikizoku%20Namba">Abrir en Google Maps</a>]]></description><Point><coordinates>135.499675,34.665073,0</coordinates></Point></Placemark>
<Placemark><name>🍜 Kushikatsu Bon</name><styleUrl>#ai</styleUrl><description><![CDATA[Kushikatsu omakase refinado (estrella Michelin) — reservar · ¥6,000 · Nivel 🌊 Ai — días: mié 7<br/><a href="https://www.google.com/maps/search/?api=1&amp;query=Kushikatsu%20Bon%20Osaka">Abrir en Google Maps</a>]]></description><Point><coordinates>135.497986,34.704990,0</coordinates></Point></Placemark>
<Placemark><name>🍜 Misono</name><styleUrl>#shu</styleUrl><description><![CDATA[El INVENTOR del teppanyaki (1945): res Kobe en plancha · ¥12–15,000 · Nivel 🔴 Shu — días: mié 7<br/><a href="https://www.google.com/maps/search/?api=1&amp;query=Misono%20teppanyaki%20Osaka">Abrir en Google Maps</a>]]></description><Point><coordinates>135.432003,34.756601,0</coordinates></Point></Placemark>
<Placemark><name>🍜 CoCo Ichibanya</name><styleUrl>#ai</styleUrl><description><![CDATA[Curry japonés de cadena — apapacho garantizado · ¥1,200 · Nivel 🌊 Ai — días: lun 5<br/><a href="https://www.google.com/maps/search/?api=1&amp;query=CoCo%20Ichibanya%20Kitahama">Abrir en Google Maps</a>]]></description><Point><coordinates>135.510883,34.712393,0</coordinates></Point></Placemark>
<Placemark><name>🍜 Janjan Yokocho</name><styleUrl>#resto</styleUrl><description><![CDATA[Callejón de 20 barras de kushikatsu e izakaya — llegar y escoger · ¥2–3,500 · Nivel 🍴 — días: jue 8<br/><a href="https://www.google.com/maps/search/?api=1&amp;query=Janjan%20Yokocho%20Osaka">Abrir en Google Maps</a>]]></description><Point><coordinates>135.503318,34.667965,0</coordinates></Point></Placemark>
<Placemark><name>🏨 Royal Park Canvas Kitahama (Osaka, 4 noches)</name><styleUrl>#hotel</styleUrl><description><![CDATA[<a href="https://www.google.com/maps/search/?api=1&amp;query=Royal%20Park%20Canvas%20Osaka%20Kitahama">Abrir en Google Maps</a>]]></description><Point><coordinates>135.507500,34.688700,0</coordinates></Point></Placemark>
<Placemark><name>✈️ Osaka Itami (vuelo ANA dom 4, 9:00)</name><styleUrl>#aero</styleUrl><description><![CDATA[<a href="https://www.google.com/maps/search/?api=1&amp;query=Osaka%20Itami%20Airport">Abrir en Google Maps</a>]]></description><Point><coordinates>135.438000,34.786300,0</coordinates></Point></Placemark>
</Folder><Folder><name>2 · Hiroshima + Miyajima (lun 5)</name>
<Placemark><name>⭐ Isla de Miyajima</name><styleUrl>#sitio_hiroshima</styleUrl><description><![CDATA[La isla sagrada frente a Hiroshima: el torii flotante, venados sueltos, la calle Omotesando con momiji manju y ostras a la parrilla, y el monte Misen detrás. — EN EL PLAN: lun 5 · 10:15<br/><a href="https://www.google.com/maps/search/?api=1&amp;query=Miyajima%20Island">Abrir en Google Maps</a>]]></description><Point><coordinates>132.321000,34.300500,0</coordinates></Point></Placemark>
<Placemark><name>⭐ Santuario Itsukushima</name><styleUrl>#sitio_hiroshima</styleUrl><description><![CDATA[El santuario sobre pilotes que 'flota' en marea alta, con su torii bermellón de 16 m plantado en el mar — Patrimonio UNESCO. — EN EL PLAN: lun 5 · 10:15<br/><a href="https://www.google.com/maps/search/?api=1&amp;query=Itsukushima%20Shrine%20Miyajima">Abrir en Google Maps</a>]]></description><Point><coordinates>132.318639,34.294905,0</coordinates></Point></Placemark>
<Placemark><name>⭐ Parque Memorial de la Paz</name><styleUrl>#sitio_hiroshima</styleUrl><description><![CDATA[El parque en el hipocentro: el Domo, el cenotafio, el museo, las mil grullas de Sadako y la llama que no se apagará hasta que desaparezca la última arma nuclear. — EN EL PLAN: lun 5 · 14:50<br/><a href="https://www.google.com/maps/search/?api=1&amp;query=Hiroshima%20Peace%20Memorial%20Park">Abrir en Google Maps</a>]]></description><Point><coordinates>132.452301,34.393171,0</coordinates></Point></Placemark>
<Placemark><name>⭐ Domo de la Bomba Atómica</name><styleUrl>#sitio_hiroshima</styleUrl><description><![CDATA[El esqueleto del antiguo Palacio de Exposiciones, dejado EXACTAMENTE como quedó — el edificio en pie más cercano al hipocentro. — EN EL PLAN: lun 5 · 14:50<br/><a href="https://www.google.com/maps/search/?api=1&amp;query=Atomic%20Bomb%20Dome%20Hiroshima">Abrir en Google Maps</a>]]></description><Point><coordinates>132.454138,34.395966,0</coordinates></Point></Placemark>
</Folder><Folder><name>3 · Nara (mié 7)</name>
<Placemark><name>⭐ Parque de Nara</name><styleUrl>#sitio_nara</styleUrl><description><![CDATA[El parque donde ~1,300 venados sika viven sueltos y hacen reverencia pidiendo galletas (shika senbei, ¥200). Entre ellos: templos, museos y céspedes infinitos. — EN EL PLAN: mié 7 · 06:30<br/><a href="https://www.google.com/maps/search/?api=1&amp;query=Nara%20Park">Abrir en Google Maps</a>]]></description><Point><coordinates>135.854598,34.682901,0</coordinates></Point></Placemark>
<Placemark><name>⭐ Tōdai-ji</name><styleUrl>#sitio_nara</styleUrl><description><![CDATA[El Gran Buda: 15 m de bronce sentado dentro de uno de los edificios de madera más grandes del mundo. Cruzar la puerta y verlo quita el aliento. — EN EL PLAN: mié 7 · 07:30<br/><a href="https://www.google.com/maps/search/?api=1&amp;query=Todaiji%20Temple%20Nara">Abrir en Google Maps</a>]]></description><Point><coordinates>135.839757,34.688244,0</coordinates></Point></Placemark>
<Placemark><name>⭐ Kasuga Taisha</name><styleUrl>#sitio_nara</styleUrl><description><![CDATA[El santuario de las 3,000 linternas: piedra cubierta de musgo en el sendero, bronce dorado colgando de los pasillos bermellón. — EN EL PLAN: mié 7 · 09:35<br/><a href="https://www.google.com/maps/search/?api=1&amp;query=Kasuga%20Taisha%20Nara">Abrir en Google Maps</a>]]></description><Point><coordinates>135.846075,34.680506,0</coordinates></Point></Placemark>
<Placemark><name>⭐ Kōfuku-ji</name><styleUrl>#sitio_nara</styleUrl><description><![CDATA[La pagoda de 5 pisos que es el ícono de Nara (50 m, la segunda más alta de Japón), con salones llenos de budas Tesoro Nacional. — EN EL PLAN: mié 7 · 10:50<br/><a href="https://www.google.com/maps/search/?api=1&amp;query=Kofukuji%20Nara">Abrir en Google Maps</a>]]></description><Point><coordinates>135.830806,34.682336,0</coordinates></Point></Placemark>
<Placemark><name>⭐ Naramachi</name><styleUrl>#sitio_nara</styleUrl><description><![CDATA[El casco viejo de casitas de madera (machiya): tiendas artesanales, cafés en patios y los monitos rojos colgantes que protegen las casas. — EN EL PLAN: mié 7 · 11:50<br/><a href="https://www.google.com/maps/search/?api=1&amp;query=Naramachi%20Nara">Abrir en Google Maps</a>]]></description><Point><coordinates>135.837091,34.678357,0</coordinates></Point></Placemark>
<Placemark><name>⭐ Jardín Yoshikien</name><styleUrl>#sitio_nara</styleUrl><description><![CDATA[Tres jardines en uno — musgo, estanque y casa de té — gratis para visitantes extranjeros y casi siempre vacío. — EN EL PLAN: mié 7 · 13:45<br/><a href="https://www.google.com/maps/search/?api=1&amp;query=Yoshikien%20Garden%20Nara">Abrir en Google Maps</a>]]></description><Point><coordinates>135.837212,34.685102,0</coordinates></Point></Placemark>
</Folder><Folder><name>4 · Kioto (jue 8 – lun 12)</name>
<Placemark><name>⭐ Kiyomizu-dera</name><styleUrl>#sitio_kioto</styleUrl><description><![CDATA[El templo del balcón: una terraza de madera colgada sobre el valle, sostenida por 168 pilares SIN un solo clavo, con Kioto entero de fondo. — EN EL PLAN: vie 9 · 05:00<br/><a href="https://www.google.com/maps/search/?api=1&amp;query=Kiyomizu-dera%20Kyoto">Abrir en Google Maps</a>]]></description><Point><coordinates>135.784439,34.994303,0</coordinates></Point></Placemark>
<Placemark><name>⭐ Sannenzaka y Ninenzaka</name><styleUrl>#sitio_kioto</styleUrl><description><![CDATA[Las dos cuestas empedradas más bonitas de Japón: machiya de madera, cerámica, dulces y faroles — el Kioto de postal. — EN EL PLAN: vie 9 · 07:15<br/><a href="https://www.google.com/maps/search/?api=1&amp;query=Sannenzaka%20Kyoto">Abrir en Google Maps</a>]]></description><Point><coordinates>135.781318,34.996479,0</coordinates></Point></Placemark>
<Placemark><name>⭐ Pagoda Yasaka (Hōkan-ji)</name><styleUrl>#sitio_kioto</styleUrl><description><![CDATA[46 m de madera del siglo XV emergiendo entre callejones — LA foto de Kioto, sobre todo con la luz del atardecer. — EN EL PLAN: vie 9 · 07:15<br/><a href="https://www.google.com/maps/search/?api=1&amp;query=Yasaka%20Pagoda%20Kyoto">Abrir en Google Maps</a>]]></description><Point><coordinates>135.778764,34.998567,0</coordinates></Point></Placemark>
<Placemark><name>⭐ Ryōzen Kannon</name><styleUrl>#sitio_kioto</styleUrl><description><![CDATA[La Kannon blanca de 24 m que vigila Higashiyama desde la ladera — casi nadie entra y es serenísima. — EN EL PLAN: vie 9 · 08:40<br/><a href="https://www.google.com/maps/search/?api=1&amp;query=Ryozen%20Kannon%20Kyoto">Abrir en Google Maps</a>]]></description><Point><coordinates>135.781821,34.999782,0</coordinates></Point></Placemark>
<Placemark><name>⭐ Santuario Yasaka</name><styleUrl>#sitio_kioto</styleUrl><description><![CDATA[El santuario de Gion: linternas que se encienden al anochecer, puertas bermellón, y el paso natural entre el barrio de las geishas y el parque Maruyama. — EN EL PLAN: vie 9 · 08:00<br/><a href="https://www.google.com/maps/search/?api=1&amp;query=Yasaka%20Shrine%20Kyoto">Abrir en Google Maps</a>]]></description><Point><coordinates>135.778261,35.003603,0</coordinates></Point></Placemark>
<Placemark><name>⭐ Sanjūsangen-dō</name><styleUrl>#sitio_kioto</styleUrl><description><![CDATA[Un salón de 120 m con 1,001 Kannon doradas en formación más 28 guardianes — la sala de madera más larga de Japón. Impacta en silencio absoluto. — EN EL PLAN: vie 9 · 09:30<br/><a href="https://www.google.com/maps/search/?api=1&amp;query=Sanjusangendo%20Kyoto">Abrir en Google Maps</a>]]></description><Point><coordinates>135.771778,34.988172,0</coordinates></Point></Placemark>
<Placemark><name>⭐ Bosque de bambú</name><styleUrl>#sitio_kioto</styleUrl><description><![CDATA[El túnel de bambúes de 20 m que se mecen y suenan — ese sonido está catalogado como patrimonio sonoro de Japón. Temprano es un templo; a las 10 am, un andén del metro. — EN EL PLAN: sáb 10 · 05:00<br/><a href="https://www.google.com/maps/search/?api=1&amp;query=Arashiyama%20Bamboo%20Grove%20Kyoto">Abrir en Google Maps</a>]]></description><Point><coordinates>135.671148,35.016742,0</coordinates></Point></Placemark>
<Placemark><name>⭐ Puente Togetsukyō</name><styleUrl>#sitio_kioto</styleUrl><description><![CDATA['El puente que cruza la luna': 155 m sobre el río Katsura, con el monte Arashiyama encendido de colores detrás. — EN EL PLAN: sáb 10 · 07:20<br/><a href="https://www.google.com/maps/search/?api=1&amp;query=Togetsukyo%20Bridge%20Arashiyama">Abrir en Google Maps</a>]]></description><Point><coordinates>135.679353,35.013671,0</coordinates></Point></Placemark>
<Placemark><name>⭐ Tenryū-ji</name><styleUrl>#sitio_kioto</styleUrl><description><![CDATA[El gran templo zen de Arashiyama: su jardín del estanque Sōgenchi lleva 700 años EXACTAMENTE igual, con las montañas 'prestadas' como fondo. UNESCO. — EN EL PLAN: sáb 10 · 08:30<br/><a href="https://www.google.com/maps/search/?api=1&amp;query=Tenryuji%20Temple%20Kyoto">Abrir en Google Maps</a>]]></description><Point><coordinates>135.677394,35.015222,0</coordinates></Point></Placemark>
<Placemark><name>⭐ Monte de los monos (Iwatayama)</name><styleUrl>#sitio_kioto</styleUrl><description><![CDATA[120 macacos japoneses libres en la cima: subes 20 minutos y ELLOS te observan a ti — con la mejor vista panorámica de Kioto de regalo. — EN EL PLAN: sáb 10 · 10:30<br/><a href="https://www.google.com/maps/search/?api=1&amp;query=Iwatayama%20Monkey%20Park%20Kyoto">Abrir en Google Maps</a>]]></description><Point><coordinates>135.674967,35.009086,0</coordinates></Point></Placemark>
<Placemark><name>⭐ Otagi Nenbutsu-ji</name><styleUrl>#sitio_kioto</styleUrl><description><![CDATA[1,200 rakan (discípulos de Buda) de piedra, cada uno con cara distinta: uno ríe, otro bosteza, uno carga un gato, otro un walkman. El rincón más encantador y menos visitado de Kioto. — EN EL PLAN: sáb 10 · 12:10<br/><a href="https://www.google.com/maps/search/?api=1&amp;query=Otagi%20Nenbutsuji%20Kyoto">Abrir en Google Maps</a>]]></description><Point><coordinates>135.661234,35.031160,0</coordinates></Point></Placemark>
<Placemark><name>⭐ Bosque Kimono</name><styleUrl>#sitio_kioto</styleUrl><description><![CDATA[600 columnas de acrílico forradas con telas de kimono teñidas al estilo Kyō-yūzen, iluminadas al anochecer, en plena estación Randen. — EN EL PLAN: sáb 10 · 17:30<br/><a href="https://www.google.com/maps/search/?api=1&amp;query=Kimono%20Forest%20Arashiyama">Abrir en Google Maps</a>]]></description><Point><coordinates>135.678452,35.015293,0</coordinates></Point></Placemark>
<Placemark><name>⭐ Fushimi Inari</name><styleUrl>#sitio_kioto</styleUrl><description><![CDATA[Miles de torii bermellón trepando el monte Inari en túneles infinitos — el lugar más fotografiado de Japón. Hasta el mirador Yotsutsuji: ~45 min de subida. — EN EL PLAN: dom 11 · 05:00<br/><a href="https://www.google.com/maps/search/?api=1&amp;query=Fushimi%20Inari%20Taisha%20Kyoto">Abrir en Google Maps</a>]]></description><Point><coordinates>135.772730,34.967140,0</coordinates></Point></Placemark>
<Placemark><name>⭐ Pabellón Dorado (Kinkaku-ji)</name><styleUrl>#sitio_kioto</styleUrl><description><![CDATA[El pabellón forrado de ORO de verdad reflejándose en su estanque — no existe la foto mala. Paseo circular de ~45 minutos. — EN EL PLAN: dom 11 · 10:45<br/><a href="https://www.google.com/maps/search/?api=1&amp;query=Kinkakuji%20Kyoto">Abrir en Google Maps</a>]]></description><Point><coordinates>135.729537,35.039529,0</coordinates></Point></Placemark>
<Placemark><name>⭐ Castillo de Nijo</name><styleUrl>#sitio_kioto</styleUrl><description><![CDATA[El castillo-palacio del shōgun en Kioto: pisos 'de ruiseñor' que chirrían a propósito para delatar intrusos, puertas doradas y jardines. UNESCO. — EN EL PLAN: dom 11 · 14:00<br/><a href="https://www.google.com/maps/search/?api=1&amp;query=Nijo%20Castle%20Kyoto">Abrir en Google Maps</a>]]></description><Point><coordinates>135.748537,35.014008,0</coordinates></Point></Placemark>
<Placemark><name>⭐ Palacio Imperial de Kioto</name><styleUrl>#sitio_kioto</styleUrl><description><![CDATA[El palacio de los emperadores durante 500 años: salones ceremoniales, puertas según rango y jardines de paseo, en un parque enorme y gratuito. — EN EL PLAN: dom 11 · 16:00<br/><a href="https://www.google.com/maps/search/?api=1&amp;query=Kyoto%20Imperial%20Palace">Abrir en Google Maps</a>]]></description><Point><coordinates>135.762345,35.025264,0</coordinates></Point></Placemark>
<Placemark><name>⭐ Pontocho</name><styleUrl>#sitio_kioto</styleUrl><description><![CDATA[El callejón de 300 m entre Shijo y Sanjo: farolitos, 40 puertas de restaurantes y, con suerte, una geiko caminando a su cita. — EN EL PLAN: jue 8 · 19:30<br/><a href="https://www.google.com/maps/search/?api=1&amp;query=Pontocho%20Kyoto">Abrir en Google Maps</a>]]></description><Point><coordinates>135.771088,35.005980,0</coordinates></Point></Placemark>
<Placemark><name>⭐ Mercado Nishiki</name><styleUrl>#sitio_kioto</styleUrl><description><![CDATA['La cocina de Kioto': 400 m de mercado techado con 130 puestos de encurtidos, tofu, cuchillos, mariscos a la plancha y dulces.<br/><a href="https://www.google.com/maps/search/?api=1&amp;query=Nishiki%20Market%20Kyoto">Abrir en Google Maps</a>]]></description><Point><coordinates>135.765570,35.005024,0</coordinates></Point></Placemark>
<Placemark><name>⭐ Gion</name><styleUrl>#sitio_kioto</styleUrl><description><![CDATA[El barrio de las geishas: casas de té de madera, las calles Hanamikoji y Shirakawa, y al anochecer, geiko y maiko yendo a sus citas. — EN EL PLAN: vie 9 · 09:10<br/><a href="https://www.google.com/maps/search/?api=1&amp;query=Gion%20Kyoto">Abrir en Google Maps</a>]]></description><Point><coordinates>135.771957,35.003226,0</coordinates></Point></Placemark>
<Placemark><name>🍜 Ippudo Nishikikoji</name><styleUrl>#resto</styleUrl><description><![CDATA[Tonkotsu confiable al lado del mercado · ¥1,000 · Nivel 🍴<br/><a href="https://www.google.com/maps/search/?api=1&amp;query=Ippudo%20Nishikikoji%20Kyoto">Abrir en Google Maps</a>]]></description><Point><coordinates>135.761381,35.004917,0</coordinates></Point></Placemark>
<Placemark><name>🍜 Musashi Sushi</name><styleUrl>#take</styleUrl><description><![CDATA[Sushi de banda giratoria en Sanjo, rápido y digno · ¥1,500 · Nivel 🎋 Take — días: dom 11<br/><a href="https://www.google.com/maps/search/?api=1&amp;query=Musashi%20Sushi%20Sanjo%20Kyoto">Abrir en Google Maps</a>]]></description><Point><coordinates>135.768770,35.008923,0</coordinates></Point></Placemark>
<Placemark><name>🍜 Gyukatsu Kyoto Katsugyu</name><styleUrl>#take</styleUrl><description><![CDATA[Res empanizada que tú terminas en piedra caliente · ¥1,900 · Nivel 🎋 Take — días: vie 9<br/><a href="https://www.google.com/maps/search/?api=1&amp;query=Gyukatsu%20Kyoto%20Katsugyu%20Kawaramachi">Abrir en Google Maps</a>]]></description><Point><coordinates>135.777478,35.002354,0</coordinates></Point></Placemark>
<Placemark><name>🍜 Honke Owariya</name><styleUrl>#resto</styleUrl><description><![CDATA[Soba servido desde 1465 — el restaurante más viejo de Kioto · ¥1,400 · Nivel 🍴<br/><a href="https://www.google.com/maps/search/?api=1&amp;query=Honke%20Owariya%20Kyoto">Abrir en Google Maps</a>]]></description><Point><coordinates>135.760145,35.012748,0</coordinates></Point></Placemark>
<Placemark><name>🍜 Tempura Yoshikawa</name><styleUrl>#resto</styleUrl><description><![CDATA[Tempura de barra dentro de un ryokan con jardín — comida · ¥5,000 · Nivel 🍴<br/><a href="https://www.google.com/maps/search/?api=1&amp;query=Tempura%20Yoshikawa%20Kyoto">Abrir en Google Maps</a>]]></description><Point><coordinates>135.764963,35.010296,0</coordinates></Point></Placemark>
<Placemark><name>🍜 Gion Karyo (comida)</name><styleUrl>#resto</styleUrl><description><![CDATA[Kaiseki de entrada a precio de mediodía · ¥6,000 · Nivel 🍴<br/><a href="https://www.google.com/maps/search/?api=1&amp;query=Gion%20Karyo%20Kyoto">Abrir en Google Maps</a>]]></description><Point><coordinates>135.774578,35.001767,0</coordinates></Point></Placemark>
<Placemark><name>🍜 Roan Kikunoi</name><styleUrl>#resto</styleUrl><description><![CDATA[El kaiseki 2★ accesible del grupo Kikunoi — comida · ¥10,000 · Nivel 🍴<br/><a href="https://www.google.com/maps/search/?api=1&amp;query=Roan%20Kikunoi%20Kyoto">Abrir en Google Maps</a>]]></description><Point><coordinates>135.770640,35.003408,0</coordinates></Point></Placemark>
<Placemark><name>🍜 Ramen Kairikiya</name><styleUrl>#take</styleUrl><description><![CDATA[Cadena kiotense de shōyu ramen · ¥900 · Nivel 🎋 Take — días: jue 8<br/><a href="https://www.google.com/maps/search/?api=1&amp;query=Kairikiya%20Kawaramachi%20Kyoto">Abrir en Google Maps</a>]]></description><Point><coordinates>135.769117,35.009260,0</coordinates></Point></Placemark>
<Placemark><name>🍜 Ganko Sushi Sanjo</name><styleUrl>#take</styleUrl><description><![CDATA[Sushi y set menus familiares — aguanta grupos · ¥3,000 · Nivel 🎋 Take — días: jue 8<br/><a href="https://www.google.com/maps/search/?api=1&amp;query=Ganko%20Sushi%20Sanjo%20Kyoto">Abrir en Google Maps</a>]]></description><Point><coordinates>135.770840,35.009077,0</coordinates></Point></Placemark>
<Placemark><name>🍜 Kichi Kichi</name><styleUrl>#ai</styleUrl><description><![CDATA[EL omurice viral del chef Motokichi — reserva: domingos 11:00 am hora Japón, 4 semanas antes; está EN Pontocho · ¥2,700 (chico ¥1,450) · Nivel 🌊 Ai — días: jue 8<br/><a href="https://www.google.com/maps/search/?api=1&amp;query=Kichi%20Kichi%20Omurice%20Kyoto">Abrir en Google Maps</a>]]></description><Point><coordinates>135.770835,35.007379,0</coordinates></Point></Placemark>
<Placemark><name>🍜 Mishima-tei</name><styleUrl>#shu</styleUrl><description><![CDATA[Sukiyaki desde 1873, en la esquina de Teramachi — el olor a historia · ¥9,000 · Nivel 🔴 Shu — días: jue 8 · vie 9<br/><a href="https://www.google.com/maps/search/?api=1&amp;query=Mishima-tei%20Kyoto%20sukiyaki">Abrir en Google Maps</a>]]></description><Point><coordinates>135.767077,35.008436,0</coordinates></Point></Placemark>
<Placemark><name>🍜 Matsuba (nishin soba)</name><styleUrl>#take</styleUrl><description><![CDATA[El soba con arenque que INVENTARON aquí (1861), junto al teatro de Gion · ¥1,500 · Nivel 🎋 Take — días: vie 9<br/><a href="https://www.google.com/maps/search/?api=1&amp;query=Matsuba%20nishin%20soba%20Kyoto">Abrir en Google Maps</a>]]></description><Point><coordinates>135.772236,35.003691,0</coordinates></Point></Placemark>
<Placemark><name>🍜 Menbaka Fire Ramen</name><styleUrl>#take</styleUrl><description><![CDATA[El ramen que te sirven EN LLAMAS — show incluido · ¥1,650 · Nivel 🎋 Take — días: vie 9 · sáb 10<br/><a href="https://www.google.com/maps/search/?api=1&amp;query=Menbaka%20Fire%20Ramen%20Kyoto">Abrir en Google Maps</a>]]></description><Point><coordinates>135.747644,35.017678,0</coordinates></Point></Placemark>
<Placemark><name>🍜 Gyoza Chao Chao</name><styleUrl>#ai</styleUrl><description><![CDATA[Las gyozas crujientes famosas de Kiyamachi · ¥2,500 · Nivel 🌊 Ai — días: vie 9 · sáb 10<br/><a href="https://www.google.com/maps/search/?api=1&amp;query=Chao%20Chao%20Gyoza%20Kyoto">Abrir en Google Maps</a>]]></description><Point><coordinates>135.769519,35.002840,0</coordinates></Point></Placemark>
<Placemark><name>🍜 Kyogoku Kaneyo</name><styleUrl>#ai</styleUrl><description><![CDATA[Unagi (anguila glaseada) centenario, edificio de madera precioso · ¥4,000 · Nivel 🌊 Ai — días: vie 9<br/><a href="https://www.google.com/maps/search/?api=1&amp;query=Kyogoku%20Kaneyo%20Kyoto%20unagi">Abrir en Google Maps</a>]]></description><Point><coordinates>135.767969,35.007601,0</coordinates></Point></Placemark>
<Placemark><name>🍜 Croquetas Nakamuraya</name><styleUrl>#take</styleUrl><description><![CDATA[La croqueta legendaria de Arashiyama — para la mano · ¥400 · Nivel 🎋 Take — días: sáb 10<br/><a href="https://www.google.com/maps/search/?api=1&amp;query=Nakamuraya%20korokke%20Arashiyama">Abrir en Google Maps</a>]]></description><Point><coordinates>135.677581,35.014038,0</coordinates></Point></Placemark>
<Placemark><name>🍜 % Arabica + pan</name><styleUrl>#take</styleUrl><description><![CDATA[EL café con vista al río + pan de la panadería de al lado · ¥1,000 · Nivel 🎋 Take — días: sáb 10<br/><a href="https://www.google.com/maps/search/?api=1&amp;query=%25%20Arabica%20Arashiyama">Abrir en Google Maps</a>]]></description><Point><coordinates>135.676436,35.013541,0</coordinates></Point></Placemark>
<Placemark><name>🍜 Unagi Hirokawa</name><styleUrl>#ai</styleUrl><description><![CDATA[La anguila más famosa de Arashiyama (Michelin) — reservar · ¥4,500 · Nivel 🌊 Ai — días: sáb 10<br/><a href="https://www.google.com/maps/search/?api=1&amp;query=Unagi%20Hirokawa%20Arashiyama">Abrir en Google Maps</a>]]></description><Point><coordinates>135.677245,35.016956,0</coordinates></Point></Placemark>
<Placemark><name>🍜 Shoraian</name><styleUrl>#shu</styleUrl><description><![CDATA[Yudōfu-kaiseki en casa de té colgada sobre el río — reservar · ¥6,000 · Nivel 🔴 Shu — días: sáb 10<br/><a href="https://www.google.com/maps/search/?api=1&amp;query=Shoraian%20Arashiyama">Abrir en Google Maps</a>]]></description><Point><coordinates>135.670131,35.014440,0</coordinates></Point></Placemark>
<Placemark><name>🍜 Kitchō Arashiyama</name><styleUrl>#shu</styleUrl><description><![CDATA[Kaiseki 3★, de los restaurantes más famosos del mundo — apuntado para poder decir que no · ~¥60,000 · Nivel 🔴 Shu — días: sáb 10<br/><a href="https://www.google.com/maps/search/?api=1&amp;query=Kitcho%20Arashiyama">Abrir en Google Maps</a>]]></description><Point><coordinates>135.674496,35.009047,0</coordinates></Point></Placemark>
<Placemark><name>🍜 CoCo Curry</name><styleUrl>#take</styleUrl><description><![CDATA[Curry de cadena — el descanso del paladar · ¥1,000 · Nivel 🎋 Take — días: sáb 10<br/><a href="https://www.google.com/maps/search/?api=1&amp;query=CoCo%20Ichibanya%20Shijo%20Kyoto">Abrir en Google Maps</a>]]></description><Point><coordinates>135.749095,35.002480,0</coordinates></Point></Placemark>
<Placemark><name>🍜 Tenkaippin honten</name><styleUrl>#take</styleUrl><description><![CDATA[El ramen espeso 'kotteri' — la cadena nació en Kioto · ¥1,100 · Nivel 🎋 Take — días: sáb 10<br/><a href="https://www.google.com/maps/search/?api=1&amp;query=Tenkaippin%20Kyoto%20honten">Abrir en Google Maps</a>]]></description><Point><coordinates>135.733184,35.027380,0</coordinates></Point></Placemark>
<Placemark><name>🍜 Shinshindo</name><styleUrl>#take</styleUrl><description><![CDATA[La panadería-café universitaria de 1913 · ¥800 · Nivel 🎋 Take — días: dom 11<br/><a href="https://www.google.com/maps/search/?api=1&amp;query=Shinshindo%20Kyoto">Abrir en Google Maps</a>]]></description><Point><coordinates>135.769420,35.008927,0</coordinates></Point></Placemark>
<Placemark><name>🍜 Ganko Nijo</name><styleUrl>#resto</styleUrl><description><![CDATA[Sushi/kaiseki familiar en villa con JARDÍN de 400 años · ¥4,000 · Nivel 🍴<br/><a href="https://www.google.com/maps/search/?api=1&amp;query=Gankozushi%20Nijoen%20Kyoto">Abrir en Google Maps</a>]]></description><Point><coordinates>135.770833,35.012813,0</coordinates></Point></Placemark>
<Placemark><name>🍜 Kiyamachi</name><styleUrl>#resto</styleUrl><description><![CDATA[La calle de izakayas junto al canal — la versión barata de Pontocho · ¥2,500–4,000 · Nivel 🍴 — días: vie 9<br/><a href="https://www.google.com/maps/search/?api=1&amp;query=Kiyamachi%20street%20Kyoto">Abrir en Google Maps</a>]]></description><Point><coordinates>135.767760,34.997438,0</coordinates></Point></Placemark>
<Placemark><name>🏨 Keio Prelia Karasuma-Gojō (Kioto, 4 noches)</name><styleUrl>#hotel</styleUrl><description><![CDATA[<a href="https://www.google.com/maps/search/?api=1&amp;query=Keio%20Prelia%20Hotel%20Kyoto%20Karasuma%20Gojo">Abrir en Google Maps</a>]]></description><Point><coordinates>135.759515,34.998313,0</coordinates></Point></Placemark>
</Folder></Document></kml>