<?xml version="1.0" encoding="UTF-8"?>
<kml xmlns="http://www.opengis.net/kml/2.2"><Document><name>lun 5 · Hiroshima</name><description>Recorrido del día: gruesa=transporte (color oficial) · delgada=a pie · ＞ sentido · paradas numeradas con hora y punto estricto.</description><Style id="p1"><IconStyle><scale>0.9</scale><Icon><href>https://maps.google.com/mapfiles/kml/paddle/1.png</href></Icon></IconStyle></Style><Style id="p2"><IconStyle><scale>0.9</scale><Icon><href>https://maps.google.com/mapfiles/kml/paddle/2.png</href></Icon></IconStyle></Style><Style id="p3"><IconStyle><scale>0.9</scale><Icon><href>https://maps.google.com/mapfiles/kml/paddle/3.png</href></Icon></IconStyle></Style><Style id="p4"><IconStyle><scale>0.9</scale><Icon><href>https://maps.google.com/mapfiles/kml/paddle/4.png</href></Icon></IconStyle></Style><Style id="p5"><IconStyle><scale>0.9</scale><Icon><href>https://maps.google.com/mapfiles/kml/paddle/5.png</href></Icon></IconStyle></Style><Style id="p6"><IconStyle><scale>0.9</scale><Icon><href>https://maps.google.com/mapfiles/kml/paddle/6.png</href></Icon></IconStyle></Style><Style id="p7"><IconStyle><scale>0.9</scale><Icon><href>https://maps.google.com/mapfiles/kml/paddle/7.png</href></Icon></IconStyle></Style><Style id="p8"><IconStyle><scale>0.9</scale><Icon><href>https://maps.google.com/mapfiles/kml/paddle/8.png</href></Icon></IconStyle></Style><Style id="p9"><IconStyle><scale>0.9</scale><Icon><href>https://maps.google.com/mapfiles/kml/paddle/9.png</href></Icon></IconStyle></Style><Style id="p10"><IconStyle><scale>0.9</scale><Icon><href>https://maps.google.com/mapfiles/kml/paddle/10.png</href></Icon></IconStyle></Style><Style id="lffb76b0d6"><LineStyle><color>ffb76b0d</color><width>6</width></LineStyle></Style><Style id="lff1700806"><LineStyle><color>ff170080</color><width>6</width></LineStyle></Style><Style id="lb8636f7a3"><LineStyle><color>b8636f7a</color><width>3</width></LineStyle></Style><Style id="lff8628526"><LineStyle><color>ff862852</color><width>6</width></LineStyle></Style><Style id="lff934de46"><LineStyle><color>ff934de4</color><width>6</width></LineStyle></Style><Style id="lff1f17e56"><LineStyle><color>ff1f17e5</color><width>6</width></LineStyle></Style><Style id="lffa0501c6"><LineStyle><color>ffa0501c</color><width>6</width></LineStyle></Style><Style id="lff00d4ff6"><LineStyle><color>ff00d4ff</color><width>6</width></LineStyle></Style><Style id="lffaf5c006"><LineStyle><color>ffaf5c00</color><width>6</width></LineStyle></Style><Style id="lff4499006"><LineStyle><color>ff449900</color><width>6</width></LineStyle></Style><Style id="lff2147816"><LineStyle><color>ff214781</color><width>6</width></LineStyle></Style><Style id="lff669a016"><LineStyle><color>ff669a01</color><width>6</width></LineStyle></Style><Style id="lff0000e86"><LineStyle><color>ff0000e8</color><width>6</width></LineStyle></Style><Style id="lff2900d76"><LineStyle><color>ff2900d7</color><width>6</width></LineStyle></Style><Style id="lffa557276"><LineStyle><color>ffa55727</color><width>6</width></LineStyle></Style><Style id="lff1fc38f6"><LineStyle><color>ff1fc38f</color><width>6</width></LineStyle></Style><Style id="lff9933666"><LineStyle><color>ff993366</color><width>6</width></LineStyle></Style><Style id="lff2b4a7a6"><LineStyle><color>ff2b4a7a</color><width>6</width></LineStyle></Style><Style id="lff0c86c76"><LineStyle><color>ff0c86c7</color><width>6</width></LineStyle></Style><Style id="lff225af16"><LineStyle><color>ff225af1</color><width>6</width></LineStyle></Style><Style id="lff0097f36"><LineStyle><color>ff0097f3</color><width>6</width></LineStyle></Style><Style id="lffc36c0f6"><LineStyle><color>ffc36c0f</color><width>6</width></LineStyle></Style><Style id="lff656eec6"><LineStyle><color>ff656eec</color><width>6</width></LineStyle></Style><Style id="lffa0862c6"><LineStyle><color>ffa0862c</color><width>6</width></LineStyle></Style><Style id="lff2f25c96"><LineStyle><color>ff2f25c9</color><width>6</width></LineStyle></Style><Style id="lff32cd9a6"><LineStyle><color>ff32cd9a</color><width>6</width></LineStyle></Style><Style id="lff301be26"><LineStyle><color>ff301be2</color><width>6</width></LineStyle></Style><Style id="lff0388006"><LineStyle><color>ff038800</color><width>6</width></LineStyle></Style><Style id="lff9c46296"><LineStyle><color>ff9c4629</color><width>6</width></LineStyle></Style><Style id="lff1200e66"><LineStyle><color>ff1200e6</color><width>6</width></LineStyle></Style><Style id="lffb7ae9c6"><LineStyle><color>ffb7ae9c</color><width>6</width></LineStyle></Style><Style id="lff207bf46"><LineStyle><color>ff207bf4</color><width>6</width></LineStyle></Style><Folder><name>lun 5 · Hiroshima</name>
<Placemark><name>1. 10:15 · Isla de Miyajima (d5)</name><styleUrl>#p1</styleUrl><description><![CDATA[Hora del plan: 10:15. ⏰ SIGUIENTE PUNTO ESTRICTO del día: 10:15 — Isla de Miyajima (reserva/transporte: NO se puede llegar tarde).]]></description><Point><coordinates>132.321000,34.300500,0</coordinates></Point></Placemark>
<Placemark><name>2. 10:15 · Santuario Itsukushima (d5)</name><styleUrl>#p2</styleUrl><description><![CDATA[Hora del plan: 10:15. ⏰ SIGUIENTE PUNTO ESTRICTO del día: 10:15 — Isla de Miyajima (reserva/transporte: NO se puede llegar tarde).]]></description><Point><coordinates>132.318639,34.294905,0</coordinates></Point></Placemark>
<Placemark><name>3. 14:50 · Parque Memorial de la Paz (d5)</name><styleUrl>#p3</styleUrl><description><![CDATA[Hora del plan: 14:50. ⏰ SIGUIENTE PUNTO ESTRICTO del día: 18:53 — punto fijo (reserva/transporte: NO se puede llegar tarde).]]></description><Point><coordinates>132.452301,34.393171,0</coordinates></Point></Placemark>
<Placemark><name>4. 14:50 · Domo de la Bomba Atómica (d5)</name><styleUrl>#p4</styleUrl><description><![CDATA[Hora del plan: 14:50. ⏰ SIGUIENTE PUNTO ESTRICTO del día: 18:53 — punto fijo (reserva/transporte: NO se puede llegar tarde).]]></description><Point><coordinates>132.454138,34.395966,0</coordinates></Point></Placemark>
<Placemark><name>d5·1 🚶 Hotel → Yodoyabashi ⇒ Isla de Miyajima</name><styleUrl>#lb8636f7a3</styleUrl><description><![CDATA[caminando · rumbo del plan: Isla de Miyajima]]></description><MultiGeometry><LineString><tessellate>1</tessellate><coordinates>135.507546,34.688699,0 135.507549,34.688847,0 135.507549,34.688891,0 135.507551,34.688936,0 135.507516,34.688937,0 135.507481,34.688956,0 135.506678,34.688975,0 135.506675,34.689409,0 135.506674,34.689545,0 135.506580,34.689547,0 135.506482,34.689549,0 135.506475,34.689574,0 135.506475,34.689624,0 135.506477,34.689678,0 135.506482,34.689709,0 135.506492,34.690031,0 135.506504,34.690349,0 135.506493,34.690388,0 135.506494,34.690423,0 135.506495,34.690461,0 135.506503,34.690477,0 135.506008,34.690516,0 135.505802,34.690524,0 135.505800,34.690480,0 135.505639,34.690494,0 135.505079,34.690531,0 135.504999,34.690536,0 135.505002,34.690603,0 135.504769,34.690608,0 135.504737,34.690621,0 135.504668,34.690623,0 135.504615,34.690624,0 135.504583,34.690608,0 135.504434,34.690618,0 135.503738,34.690658,0 135.503717,34.690676,0 135.503672,34.690677,0 135.503621,34.690678,0 135.503592,34.690654,0 135.502728,34.690679,0 135.502686,34.690687,0 135.502656,34.690687,0 135.501760,34.690718,0 135.501710,34.690720,0 135.501654,34.690722,0 135.501288,34.690734,0 135.501167,34.690737,0 135.501132,34.690756,0 135.501133,34.690815,0 135.501143,34.691437,0 135.501144,34.691515,0 135.501145,34.691565,0 135.501090,34.691566,0 135.500953,34.691567,0</coordinates></LineString><LineString><tessellate>1</tessellate><coordinates>135.506381,34.689723,0 135.506488,34.689901,0 135.506584,34.689719,0</coordinates></LineString><LineString><tessellate>1</tessellate><coordinates>135.505083,34.690517,0 135.504868,34.690606,0 135.505089,34.690685,0</coordinates></LineString><LineString><tessellate>1</tessellate><coordinates>135.502642,34.690603,0 135.502429,34.690695,0 135.502651,34.690771,0</coordinates></LineString></MultiGeometry></Placemark>
<Placemark><name>d5·2 🚇 07:10 Metro Midosuji: Yodoyabashi → Shin-Osaka ⇒ Isla de Miyajima</name><styleUrl>#lff1f17e56</styleUrl><description><![CDATA[SALE 07:10 de Yodoyabashi → LLEGA a Shin-Osaka · Metro Midosuji — sentido Senri-Chūō (4 tramos) · rumbo del plan: Isla de Miyajima]]></description><MultiGeometry><LineString><tessellate>1</tessellate><coordinates>135.500954,34.691637,0 135.497588,34.703413,0 135.492810,34.710129,0 135.498596,34.726637,0 135.497888,34.733485,0</coordinates></LineString><LineString><tessellate>1</tessellate><coordinates>135.499520,34.696089,0 135.499595,34.696390,0 135.499826,34.696149,0</coordinates></LineString><LineString><tessellate>1</tessellate><coordinates>135.498162,34.700842,0 135.498237,34.701143,0 135.498467,34.700902,0</coordinates></LineString><LineString><tessellate>1</tessellate><coordinates>135.496060,34.705305,0 135.496024,34.705611,0 135.496330,34.705437,0</coordinates></LineString><LineString><tessellate>1</tessellate><coordinates>135.493066,34.709514,0 135.493030,34.709820,0 135.493336,34.709646,0</coordinates></LineString><LineString><tessellate>1</tessellate><coordinates>135.494089,34.714244,0 135.494334,34.714475,0 135.494391,34.714171,0</coordinates></LineString><LineString><tessellate>1</tessellate><coordinates>135.495733,34.718935,0 135.495978,34.719166,0 135.496035,34.718862,0</coordinates></LineString><LineString><tessellate>1</tessellate><coordinates>135.497377,34.723625,0 135.497622,34.723857,0 135.497679,34.723553,0</coordinates></LineString><LineString><tessellate>1</tessellate><coordinates>135.498264,34.728330,0 135.498391,34.728619,0 135.498577,34.728352,0</coordinates></LineString></MultiGeometry></Placemark>
<Placemark><name>d5·3 🚇 07:34 Shinkansen: Shin-Osaka → Hiroshima ⇒ Isla de Miyajima</name><styleUrl>#lffa0501c6</styleUrl><description><![CDATA[SALE 07:34 de Shin-Osaka → LLEGA a Hiroshima · Shinkansen — sentido Hakata (3 tramos) · ruta escénica · rumbo del plan: Isla de Miyajima]]></description><MultiGeometry><LineString><tessellate>1</tessellate><coordinates>135.497888,34.733485,0 135.196924,34.707221,0 133.918266,34.666750,0 132.475577,34.397826,0</coordinates></LineString><LineString><tessellate>1</tessellate><coordinates>135.159650,34.705911,0 135.159307,34.706030,0 135.159638,34.706171,0</coordinates></LineString><LineString><tessellate>1</tessellate><coordinates>134.819717,34.695152,0 134.819375,34.695271,0 134.819705,34.695412,0</coordinates></LineString><LineString><tessellate>1</tessellate><coordinates>134.479785,34.684393,0 134.479443,34.684512,0 134.479773,34.684653,0</coordinates></LineString><LineString><tessellate>1</tessellate><coordinates>134.139853,34.673634,0 134.139511,34.673753,0 134.139841,34.673893,0</coordinates></LineString><LineString><tessellate>1</tessellate><coordinates>133.802809,34.645095,0 133.802447,34.645161,0 133.802741,34.645349,0</coordinates></LineString><LineString><tessellate>1</tessellate><coordinates>133.471092,34.583262,0 133.470729,34.583327,0 133.471023,34.583515,0</coordinates></LineString><LineString><tessellate>1</tessellate><coordinates>133.139374,34.521428,0 133.139012,34.521493,0 133.139305,34.521681,0</coordinates></LineString><LineString><tessellate>1</tessellate><coordinates>132.807656,34.459594,0 132.807294,34.459659,0 132.807587,34.459847,0</coordinates></LineString></MultiGeometry></Placemark>
<Placemark><name>d5·4 🚇 09:10 JR San-yō Line (local): Hiroshima → Miyajimaguchi ⇒ Isla de Miyajima</name><styleUrl>#lff00d4ff6</styleUrl><description><![CDATA[SALE 09:10 de Hiroshima → LLEGA a Miyajimaguchi · JR San-yō Line (local) — sentido Iwakuni (9 tramos) · rumbo del plan: Isla de Miyajima]]></description><MultiGeometry><LineString><tessellate>1</tessellate><coordinates>132.475577,34.397826,0 132.460126,34.407801,0 132.450549,34.409490,0 132.427843,34.397993,0 132.391730,34.376654,0 132.368018,34.366764,0 132.335674,34.358027,0 132.323531,34.348022,0 132.314312,34.323098,0 132.302938,34.312313,0</coordinates></LineString><LineString><tessellate>1</tessellate><coordinates>132.454936,34.408584,0 132.454640,34.408769,0 132.455001,34.408838,0</coordinates></LineString><LineString><tessellate>1</tessellate><coordinates>132.432989,34.400447,0 132.432621,34.400413,0 132.432826,34.400669,0</coordinates></LineString><LineString><tessellate>1</tessellate><coordinates>132.412251,34.388621,0 132.411887,34.388565,0 132.412070,34.388833,0</coordinates></LineString><LineString><tessellate>1</tessellate><coordinates>132.391707,34.376499,0 132.391337,34.376490,0 132.391566,34.376732,0</coordinates></LineString><LineString><tessellate>1</tessellate><coordinates>132.369213,34.367117,0 132.368843,34.367108,0 132.369073,34.367349,0</coordinates></LineString><LineString><tessellate>1</tessellate><coordinates>132.345331,34.360499,0 132.344963,34.360536,0 132.345234,34.360746,0</coordinates></LineString><LineString><tessellate>1</tessellate><coordinates>132.325088,34.349122,0 132.324739,34.349018,0 132.324867,34.349306,0</coordinates></LineString><LineString><tessellate>1</tessellate><coordinates>132.316883,34.329608,0 132.316635,34.329380,0 132.316584,34.329685,0</coordinates></LineString></MultiGeometry></Placemark>
<Placemark><name>d5·5 ⛴️ 09:45 Ferry JR a Miyajima: Miyajimaguchi → Miyajima ⇒ Isla de Miyajima</name><styleUrl>#lffaf5c006</styleUrl><description><![CDATA[SALE 09:45 de Miyajimaguchi → LLEGA a Miyajima · Ferry JR a Miyajima — sentido Miyajima (1 tramos) · ruta escénica · rumbo del plan: Isla de Miyajima]]></description><MultiGeometry><LineString><tessellate>1</tessellate><coordinates>132.302938,34.312313,0 132.322450,34.302510,0</coordinates></LineString><LineString><tessellate>1</tessellate><coordinates>132.309236,34.309301,0 132.309442,34.309045,0 132.309074,34.309078,0</coordinates></LineString><LineString><tessellate>1</tessellate><coordinates>132.315740,34.306033,0 132.315946,34.305778,0 132.315578,34.305810,0</coordinates></LineString></MultiGeometry></Placemark>
<Placemark><name>d5·6 🚶 Miyajima → Isla de Miyajima</name><styleUrl>#lb8636f7a3</styleUrl><description><![CDATA[caminando]]></description><MultiGeometry><LineString><tessellate>1</tessellate><coordinates>132.322385,34.302574,0 132.322299,34.302515,0 132.322283,34.302511,0 132.322256,34.302516,0 132.322223,34.302538,0 132.322081,34.302663,0 132.322061,34.302648,0 132.322205,34.302524,0 132.322274,34.302441,0 132.322106,34.302300,0 132.322125,34.302282,0 132.322198,34.302223,0 132.322354,34.302092,0 132.322306,34.302053,0 132.322354,34.302012,0 132.322371,34.301997,0 132.322474,34.301903,0 132.322038,34.301592,0 132.321697,34.301335,0 132.321569,34.301253,0 132.321546,34.301123,0 132.321547,34.301068,0 132.321510,34.301026,0 132.321463,34.300671,0 132.321346,34.300678,0 132.321326,34.300502,0 132.321323,34.300476,0</coordinates></LineString><LineString><tessellate>1</tessellate><coordinates>132.322473,34.301792,0 132.322243,34.301738,0 132.322342,34.301920,0</coordinates></LineString></MultiGeometry></Placemark>
<Placemark><name>d5·7 🚶 Isla de Miyajima → Santuario Itsukushima</name><styleUrl>#lb8636f7a3</styleUrl><description><![CDATA[caminando]]></description><MultiGeometry><LineString><tessellate>1</tessellate><coordinates>132.321323,34.300476,0 132.321300,34.300262,0 132.321406,34.300259,0 132.321356,34.299830,0 132.321349,34.299764,0 132.321321,34.299699,0 132.321293,34.299487,0 132.321214,34.299494,0 132.321152,34.299221,0 132.321101,34.299076,0 132.320999,34.298835,0 132.320886,34.298632,0 132.320755,34.298425,0 132.320581,34.298203,0 132.320475,34.298090,0 132.320545,34.298043,0 132.320396,34.297902,0 132.320367,34.297830,0 132.320446,34.297676,0 132.320653,34.297731,0 132.320804,34.297519,0 132.320948,34.297345,0 132.320968,34.297323,0 132.320985,34.297297,0 132.321118,34.297091,0 132.321132,34.297059,0 132.321130,34.297039,0 132.321060,34.296964,0 132.320980,34.296850,0 132.320908,34.296741,0 132.320799,34.296580,0 132.320799,34.296457,0 132.320811,34.296383,0 132.320838,34.296329,0 132.320703,34.296144,0 132.320531,34.295918,0 132.320536,34.295856,0 132.320540,34.295801,0 132.320461,34.295675,0 132.320413,34.295561,0 132.320400,34.295449,0 132.320221,34.295373,0 132.319863,34.295244,0 132.319665,34.295249,0 132.319532,34.295254,0 132.319357,34.295262,0 132.318924,34.295257,0 132.318876,34.295267,0 132.318869,34.295261,0 132.318818,34.295214,0 132.318789,34.295188,0 132.318748,34.295138,0 132.318718,34.295104,0 132.318631,34.294998,0 132.318652,34.294996,0</coordinates></LineString><LineString><tessellate>1</tessellate><coordinates>132.321145,34.298896,0 132.320962,34.298768,0 132.320961,34.298967,0</coordinates></LineString><LineString><tessellate>1</tessellate><coordinates>132.320888,34.297566,0 132.320928,34.297369,0 132.320722,34.297470,0</coordinates></LineString><LineString><tessellate>1</tessellate><coordinates>132.320653,34.295799,0 132.320463,34.295678,0 132.320473,34.295877,0</coordinates></LineString></MultiGeometry></Placemark>
<Placemark><name>d5·8 🚶 Santuario Itsukushima → Miyajima ⇒ Parque Memorial de la Paz</name><styleUrl>#lb8636f7a3</styleUrl><description><![CDATA[caminando · rumbo del plan: Parque Memorial de la Paz]]></description><MultiGeometry><LineString><tessellate>1</tessellate><coordinates>132.318652,34.294996,0 132.318631,34.294998,0 132.318718,34.295104,0 132.318748,34.295138,0 132.318789,34.295188,0 132.318818,34.295214,0 132.318869,34.295261,0 132.318876,34.295267,0 132.318924,34.295257,0 132.319357,34.295262,0 132.319532,34.295254,0 132.319665,34.295249,0 132.319863,34.295244,0 132.320221,34.295373,0 132.320400,34.295449,0 132.320413,34.295561,0 132.320461,34.295675,0 132.320540,34.295801,0 132.320536,34.295856,0 132.320531,34.295918,0 132.320703,34.296144,0 132.320838,34.296329,0 132.320811,34.296383,0 132.320799,34.296457,0 132.320799,34.296580,0 132.320908,34.296741,0 132.320980,34.296850,0 132.321060,34.296964,0 132.321130,34.297039,0 132.321132,34.297059,0 132.321118,34.297091,0 132.320985,34.297297,0 132.320968,34.297323,0 132.320948,34.297345,0 132.320804,34.297519,0 132.320653,34.297731,0 132.320446,34.297676,0 132.320367,34.297830,0 132.320396,34.297902,0 132.320545,34.298043,0 132.320475,34.298090,0 132.320581,34.298203,0 132.320755,34.298425,0 132.320886,34.298632,0 132.320999,34.298835,0 132.321101,34.299076,0 132.321152,34.299221,0 132.321214,34.299494,0 132.321293,34.299487,0 132.321321,34.299699,0 132.321349,34.299764,0 132.321356,34.299830,0 132.321406,34.300259,0 132.321300,34.300262,0 132.321326,34.300502,0 132.321346,34.300678,0 132.321463,34.300671,0 132.321510,34.301026,0 132.321547,34.301068,0 132.321546,34.301123,0 132.321569,34.301253,0 132.321697,34.301335,0 132.322038,34.301592,0 132.322474,34.301903,0 132.322371,34.301997,0 132.322354,34.302012,0 132.322306,34.302053,0 132.322354,34.302092,0 132.322198,34.302223,0 132.322125,34.302282,0 132.322106,34.302300,0 132.322274,34.302441,0 132.322205,34.302524,0 132.322061,34.302648,0 132.322081,34.302663,0 132.322223,34.302538,0 132.322256,34.302516,0 132.322283,34.302511,0 132.322299,34.302515,0 132.322385,34.302574,0</coordinates></LineString><LineString><tessellate>1</tessellate><coordinates>132.320341,34.295826,0 132.320542,34.295933,0 132.320512,34.295736,0</coordinates></LineString><LineString><tessellate>1</tessellate><coordinates>132.320753,34.297669,0 132.320516,34.297695,0 132.320692,34.297830,0</coordinates></LineString><LineString><tessellate>1</tessellate><coordinates>132.321085,34.299590,0 132.321290,34.299487,0 132.321063,34.299423,0</coordinates></LineString><LineString><tessellate>1</tessellate><coordinates>132.321526,34.301320,0 132.321755,34.301378,0 132.321662,34.301195,0</coordinates></LineString></MultiGeometry></Placemark>
<Placemark><name>d5·9 ⛴️ 12:30 Ferry JR a Miyajima: Miyajima → Miyajimaguchi ⇒ Parque Memorial de la Paz</name><styleUrl>#lffaf5c006</styleUrl><description><![CDATA[SALE 12:30 de Miyajima → LLEGA a Miyajimaguchi · Ferry JR a Miyajima — sentido Miyajimaguchi (1 tramos) · ruta escénica · rumbo del plan: Parque Memorial de la Paz]]></description><MultiGeometry><LineString><tessellate>1</tessellate><coordinates>132.322450,34.302510,0 132.302938,34.312313,0</coordinates></LineString><LineString><tessellate>1</tessellate><coordinates>132.316152,34.305522,0 132.315946,34.305778,0 132.316314,34.305745,0</coordinates></LineString><LineString><tessellate>1</tessellate><coordinates>132.309648,34.308790,0 132.309442,34.309045,0 132.309810,34.309012,0</coordinates></LineString></MultiGeometry></Placemark>
<Placemark><name>d5·10 🚇 12:45 JR San-yō Line (local): Miyajimaguchi → Hiroshima ⇒ Parque Memorial de la Paz</name><styleUrl>#lff00d4ff6</styleUrl><description><![CDATA[SALE 12:45 de Miyajimaguchi → LLEGA a Hiroshima · JR San-yō Line (local) — sentido Hiroshima (8 tramos) · rumbo del plan: Parque Memorial de la Paz]]></description><MultiGeometry><LineString><tessellate>1</tessellate><coordinates>132.302938,34.312313,0 132.314312,34.323098,0 132.323531,34.348022,0 132.335674,34.358027,0 132.368018,34.366764,0 132.391730,34.376654,0 132.427843,34.397993,0 132.450549,34.409490,0 132.475577,34.397826,0</coordinates></LineString><LineString><tessellate>1</tessellate><coordinates>132.316366,34.329094,0 132.316614,34.329322,0 132.316665,34.329018,0</coordinates></LineString><LineString><tessellate>1</tessellate><coordinates>132.324288,34.348829,0 132.324636,34.348933,0 132.324508,34.348645,0</coordinates></LineString><LineString><tessellate>1</tessellate><coordinates>132.344389,34.360518,0 132.344756,34.360480,0 132.344485,34.360271,0</coordinates></LineString><LineString><tessellate>1</tessellate><coordinates>132.368212,34.366990,0 132.368582,34.366999,0 132.368352,34.366758,0</coordinates></LineString><LineString><tessellate>1</tessellate><coordinates>132.390640,34.376345,0 132.391010,34.376354,0 132.390780,34.376113,0</coordinates></LineString><LineString><tessellate>1</tessellate><coordinates>132.411163,34.388297,0 132.411527,34.388352,0 132.411344,34.388085,0</coordinates></LineString><LineString><tessellate>1</tessellate><coordinates>132.431811,34.400155,0 132.432179,34.400189,0 132.431974,34.399933,0</coordinates></LineString><LineString><tessellate>1</tessellate><coordinates>132.453465,34.408280,0 132.453681,34.408031,0 132.453312,34.408054,0</coordinates></LineString></MultiGeometry></Placemark>
<Placemark><name>d5·11 🚇 13:15 Tranvía Hiroden: Hiroshima-eki → Gembaku Dome-mae ⇒ Parque Memorial de la Paz</name><styleUrl>#lff4499006</styleUrl><description><![CDATA[SALE 13:15 de Hiroshima-eki → LLEGA a Gembaku Dome-mae · Tranvía Hiroden — sentido líneas 2 y 6 (8 tramos) · rumbo del plan: Parque Memorial de la Paz]]></description><MultiGeometry><LineString><tessellate>1</tessellate><coordinates>132.475577,34.397826,0 132.469200,34.393500,0 132.465000,34.393000,0 132.461100,34.393700,0 132.458100,34.394000,0 132.456800,34.394500,0 132.460572,34.393614,0 132.459187,34.394809,0 132.454467,34.395945,0</coordinates></LineString><LineString><tessellate>1</tessellate><coordinates>132.471016,34.394564,0 132.470657,34.394489,0 132.470818,34.394766,0</coordinates></LineString><LineString><tessellate>1</tessellate><coordinates>132.465074,34.392854,0 132.464780,34.393040,0 132.465140,34.393108,0</coordinates></LineString><LineString><tessellate>1</tessellate><coordinates>132.458848,34.393794,0 132.458533,34.393957,0 132.458885,34.394052,0</coordinates></LineString><LineString><tessellate>1</tessellate><coordinates>132.460303,34.393659,0 132.460183,34.393950,0 132.460528,34.393839,0</coordinates></LineString></MultiGeometry></Placemark>
<Placemark><name>d5·12 🚶 Gembaku Dome-mae → Parque Memorial de la Paz</name><styleUrl>#lb8636f7a3</styleUrl><description><![CDATA[caminando]]></description><MultiGeometry><LineString><tessellate>1</tessellate><coordinates>132.454467,34.395945,0 132.454467,34.395945,0 132.454433,34.395864,0 132.454470,34.395854,0 132.454483,34.395851,0 132.454409,34.395636,0 132.454413,34.395621,0 132.454409,34.395608,0 132.454401,34.395588,0 132.454389,34.395556,0 132.454369,34.395537,0 132.454236,34.395155,0 132.454230,34.395140,0 132.454235,34.395126,0 132.454231,34.395113,0 132.454220,34.395084,0 132.454210,34.395061,0 132.454201,34.395047,0 132.454155,34.394925,0 132.454128,34.394816,0 132.454118,34.394730,0 132.454122,34.394601,0 132.454135,34.394533,0 132.454158,34.394456,0 132.454199,34.394343,0 132.454224,34.394312,0 132.454215,34.394308,0 132.454168,34.394292,0 132.454124,34.394277,0 132.454097,34.394274,0 132.453974,34.394242,0 132.453925,34.394224,0 132.453333,34.394072,0 132.453292,34.394061,0 132.452833,34.393928,0 132.452649,34.393878,0 132.452596,34.393858,0 132.452317,34.393709,0 132.452232,34.393679,0 132.452184,34.393671,0 132.452187,34.393656,0 132.452188,34.393623,0 132.452189,34.393589,0 132.452190,34.393574,0 132.452190,34.393558,0 132.452233,34.393564,0 132.452222,34.393268,0 132.452202,34.393187,0</coordinates></LineString><LineString><tessellate>1</tessellate><coordinates>132.454111,34.394184,0 132.453874,34.394211,0 132.454051,34.394344,0</coordinates></LineString></MultiGeometry></Placemark>
<Placemark><name>d5·13 🚶 Parque Memorial de la Paz → Domo de la Bomba Atómica</name><styleUrl>#lb8636f7a3</styleUrl><description><![CDATA[caminando]]></description><MultiGeometry><LineString><tessellate>1</tessellate><coordinates>132.452202,34.393187,0 132.452222,34.393268,0 132.452233,34.393564,0 132.452190,34.393558,0 132.452190,34.393574,0 132.452189,34.393589,0 132.452188,34.393623,0 132.452187,34.393656,0 132.452184,34.393671,0 132.452232,34.393679,0 132.452317,34.393709,0 132.452596,34.393858,0 132.452649,34.393878,0 132.452833,34.393928,0 132.453292,34.394061,0 132.453333,34.394072,0 132.453925,34.394224,0 132.453974,34.394242,0 132.454097,34.394274,0 132.454124,34.394277,0 132.454168,34.394292,0 132.454215,34.394308,0 132.454224,34.394312,0 132.454199,34.394343,0 132.454158,34.394456,0 132.454135,34.394533,0 132.454122,34.394601,0 132.454118,34.394730,0 132.454128,34.394816,0 132.454155,34.394925,0 132.454201,34.395047,0 132.454210,34.395061,0 132.454220,34.395084,0 132.454231,34.395113,0 132.454235,34.395126,0 132.454230,34.395140,0 132.454236,34.395155,0 132.454369,34.395537,0 132.454389,34.395556,0 132.454401,34.395588,0 132.454409,34.395608,0 132.454413,34.395621,0 132.454409,34.395636,0 132.454483,34.395851,0 132.454470,34.395854,0 132.454433,34.395864,0 132.454393,34.395875,0 132.454345,34.395888,0 132.454321,34.395893,0 132.454288,34.395901,0 132.454128,34.395938,0</coordinates></LineString><LineString><tessellate>1</tessellate><coordinates>132.453737,34.394268,0 132.453974,34.394242,0 132.453797,34.394108,0</coordinates></LineString></MultiGeometry></Placemark>
<Placemark><name>d5·14 🚶 Domo de la Bomba Atómica → Hondōri ⇒ hotel</name><styleUrl>#lb8636f7a3</styleUrl><description><![CDATA[caminando · rumbo del plan: hotel]]></description><MultiGeometry><LineString><tessellate>1</tessellate><coordinates>132.454128,34.395938,0 132.454288,34.395901,0 132.454321,34.395893,0 132.454345,34.395888,0 132.454393,34.395875,0 132.454433,34.395864,0 132.454470,34.395854,0 132.454483,34.395851,0 132.454792,34.395780,0 132.454923,34.395749,0 132.454958,34.395732,0 132.454999,34.395722,0 132.455040,34.395712,0 132.455059,34.395708,0 132.455079,34.395716,0 132.455337,34.395653,0 132.455529,34.395607,0 132.456298,34.395428,0 132.456304,34.395426,0 132.456334,34.395407,0 132.456352,34.395402,0 132.456378,34.395396,0 132.456402,34.395390,0 132.456422,34.395385,0 132.456445,34.395386,0 132.456468,34.395388,0 132.456946,34.395277,0 132.457197,34.395218,0 132.457290,34.395172,0 132.457310,34.395142,0 132.457321,34.395126,0 132.457333,34.395108,0 132.457346,34.395089,0 132.457343,34.395007,0 132.457320,34.394942,0 132.457281,34.394834,0 132.457271,34.394806,0 132.457261,34.394778,0 132.457143,34.394439,0 132.457087,34.394280,0 132.456899,34.393746,0 132.456890,34.393719,0 132.456876,34.393676,0 132.456903,34.393669,0 132.456971,34.393646,0 132.457049,34.393619,0 132.457079,34.393609,0 132.457160,34.393581,0 132.457215,34.393562,0 132.457252,34.393552,0 132.457242,34.393522,0 132.457232,34.393492,0 132.457100,34.393104,0 132.457092,34.393082,0 132.456982,34.393110,0</coordinates></LineString><LineString><tessellate>1</tessellate><coordinates>132.455960,34.395594,0 132.456142,34.395464,0 132.455905,34.395432,0</coordinates></LineString><LineString><tessellate>1</tessellate><coordinates>132.457311,34.394618,0 132.457153,34.394468,0 132.457116,34.394664,0</coordinates></LineString></MultiGeometry></Placemark>
<Placemark><name>d5·15 🚇 17:40 Tranvía Hiroden: Hondōri → Hiroshima-eki ⇒ hotel</name><styleUrl>#lff4499006</styleUrl><description><![CDATA[SALE 17:40 de Hondōri → LLEGA a Hiroshima-eki · Tranvía Hiroden — sentido Hiroshima-eki (línea 1) (8 tramos) · rumbo del plan: hotel]]></description><MultiGeometry><LineString><tessellate>1</tessellate><coordinates>132.456977,34.393159,0 132.459187,34.394809,0 132.460572,34.393614,0 132.456800,34.394500,0 132.458100,34.394000,0 132.461100,34.393700,0 132.465000,34.393000,0 132.469200,34.393500,0 132.475577,34.397826,0</coordinates></LineString><LineString><tessellate>1</tessellate><coordinates>132.459896,34.393638,0 132.459616,34.393839,0 132.459982,34.393888,0</coordinates></LineString><LineString><tessellate>1</tessellate><coordinates>132.459376,34.394003,0 132.459691,34.393841,0 132.459339,34.393745,0</coordinates></LineString><LineString><tessellate>1</tessellate><coordinates>132.465192,34.393154,0 132.465546,34.393065,0 132.465236,34.392897,0</coordinates></LineString><LineString><tessellate>1</tessellate><coordinates>132.470600,34.394617,0 132.470959,34.394693,0 132.470798,34.394416,0</coordinates></LineString></MultiGeometry></Placemark>
<Placemark><name>d5·16 🚇 18:53 Shinkansen: Hiroshima → Shin-Osaka ⇒ hotel</name><styleUrl>#lffa0501c6</styleUrl><description><![CDATA[SALE 18:53 de Hiroshima → LLEGA a Shin-Osaka · Shinkansen — sentido Tokyo (3 tramos) · ruta escénica · rumbo del plan: hotel]]></description><MultiGeometry><LineString><tessellate>1</tessellate><coordinates>132.475577,34.397826,0 133.918266,34.666750,0 135.196924,34.707221,0 135.497888,34.733485,0</coordinates></LineString><LineString><tessellate>1</tessellate><coordinates>132.806484,34.459642,0 132.806846,34.459576,0 132.806552,34.459388,0</coordinates></LineString><LineString><tessellate>1</tessellate><coordinates>133.137753,34.521392,0 133.138115,34.521326,0 133.137821,34.521138,0</coordinates></LineString><LineString><tessellate>1</tessellate><coordinates>133.469021,34.583142,0 133.469384,34.583076,0 133.469090,34.582889,0</coordinates></LineString><LineString><tessellate>1</tessellate><coordinates>133.800290,34.644892,0 133.800653,34.644827,0 133.800359,34.644639,0</coordinates></LineString><LineString><tessellate>1</tessellate><coordinates>134.137437,34.673817,0 134.137780,34.673698,0 134.137449,34.673558,0</coordinates></LineString><LineString><tessellate>1</tessellate><coordinates>134.477789,34.684590,0 134.478132,34.684471,0 134.477801,34.684330,0</coordinates></LineString><LineString><tessellate>1</tessellate><coordinates>134.818141,34.695362,0 134.818483,34.695243,0 134.818153,34.695102,0</coordinates></LineString><LineString><tessellate>1</tessellate><coordinates>135.158492,34.706135,0 135.158835,34.706015,0 135.158504,34.705875,0</coordinates></LineString></MultiGeometry></Placemark>
</Folder></Document></kml>