<?xml version="1.0" encoding="UTF-8"?>
<kml xmlns="http://www.opengis.net/kml/2.2"><Document><name>lun 12 · → Tokio</name><description>Recorrido del día: líneas (gruesa=transporte color oficial, delgada=a pie), ＞ sentido, paradas numeradas con hora y punto estricto.</description><Style id="p1"><IconStyle><scale>0.9</scale><Icon><href>https://maps.google.com/mapfiles/kml/paddle/1.png</href></Icon></IconStyle></Style><Style id="p2"><IconStyle><scale>0.9</scale><Icon><href>https://maps.google.com/mapfiles/kml/paddle/2.png</href></Icon></IconStyle></Style><Style id="p3"><IconStyle><scale>0.9</scale><Icon><href>https://maps.google.com/mapfiles/kml/paddle/3.png</href></Icon></IconStyle></Style><Style id="p4"><IconStyle><scale>0.9</scale><Icon><href>https://maps.google.com/mapfiles/kml/paddle/4.png</href></Icon></IconStyle></Style><Style id="p5"><IconStyle><scale>0.9</scale><Icon><href>https://maps.google.com/mapfiles/kml/paddle/5.png</href></Icon></IconStyle></Style><Style id="p6"><IconStyle><scale>0.9</scale><Icon><href>https://maps.google.com/mapfiles/kml/paddle/6.png</href></Icon></IconStyle></Style><Style id="p7"><IconStyle><scale>0.9</scale><Icon><href>https://maps.google.com/mapfiles/kml/paddle/7.png</href></Icon></IconStyle></Style><Style id="p8"><IconStyle><scale>0.9</scale><Icon><href>https://maps.google.com/mapfiles/kml/paddle/8.png</href></Icon></IconStyle></Style><Style id="p9"><IconStyle><scale>0.9</scale><Icon><href>https://maps.google.com/mapfiles/kml/paddle/9.png</href></Icon></IconStyle></Style><Style id="p10"><IconStyle><scale>0.9</scale><Icon><href>https://maps.google.com/mapfiles/kml/paddle/10.png</href></Icon></IconStyle></Style><Style id="l80636f7a2"><LineStyle><color>80636f7a</color><width>2</width></LineStyle></Style><Style id="lffb76b0d6"><LineStyle><color>ffb76b0d</color><width>6</width></LineStyle></Style><Style id="lff1700806"><LineStyle><color>ff170080</color><width>6</width></LineStyle></Style><Style id="lb8636f7a3"><LineStyle><color>b8636f7a</color><width>3</width></LineStyle></Style><Style id="lff8628526"><LineStyle><color>ff862852</color><width>6</width></LineStyle></Style><Style id="lff934de46"><LineStyle><color>ff934de4</color><width>6</width></LineStyle></Style><Style id="lff1f17e56"><LineStyle><color>ff1f17e5</color><width>6</width></LineStyle></Style><Style id="lffa0501c6"><LineStyle><color>ffa0501c</color><width>6</width></LineStyle></Style><Style id="lff00d4ff6"><LineStyle><color>ff00d4ff</color><width>6</width></LineStyle></Style><Style id="lffaf5c006"><LineStyle><color>ffaf5c00</color><width>6</width></LineStyle></Style><Style id="lff4499006"><LineStyle><color>ff449900</color><width>6</width></LineStyle></Style><Style id="lff2147816"><LineStyle><color>ff214781</color><width>6</width></LineStyle></Style><Style id="lff669a016"><LineStyle><color>ff669a01</color><width>6</width></LineStyle></Style><Style id="lff0000e86"><LineStyle><color>ff0000e8</color><width>6</width></LineStyle></Style><Style id="lff2900d76"><LineStyle><color>ff2900d7</color><width>6</width></LineStyle></Style><Style id="lffa557276"><LineStyle><color>ffa55727</color><width>6</width></LineStyle></Style><Style id="lff1fc38f6"><LineStyle><color>ff1fc38f</color><width>6</width></LineStyle></Style><Style id="lff9933666"><LineStyle><color>ff993366</color><width>6</width></LineStyle></Style><Style id="lff2b4a7a6"><LineStyle><color>ff2b4a7a</color><width>6</width></LineStyle></Style><Style id="lff0c86c76"><LineStyle><color>ff0c86c7</color><width>6</width></LineStyle></Style><Style id="lff225af16"><LineStyle><color>ff225af1</color><width>6</width></LineStyle></Style><Style id="lff0097f36"><LineStyle><color>ff0097f3</color><width>6</width></LineStyle></Style><Style id="lffc36c0f6"><LineStyle><color>ffc36c0f</color><width>6</width></LineStyle></Style><Style id="lff656eec6"><LineStyle><color>ff656eec</color><width>6</width></LineStyle></Style><Style id="lffa0862c6"><LineStyle><color>ffa0862c</color><width>6</width></LineStyle></Style><Style id="lff2f25c96"><LineStyle><color>ff2f25c9</color><width>6</width></LineStyle></Style><Style id="lff32cd9a6"><LineStyle><color>ff32cd9a</color><width>6</width></LineStyle></Style><Style id="lff301be26"><LineStyle><color>ff301be2</color><width>6</width></LineStyle></Style><Style id="lff0388006"><LineStyle><color>ff038800</color><width>6</width></LineStyle></Style><Style id="lff9c46296"><LineStyle><color>ff9c4629</color><width>6</width></LineStyle></Style><Style id="lff1200e66"><LineStyle><color>ff1200e6</color><width>6</width></LineStyle></Style><Style id="lffb7ae9c6"><LineStyle><color>ffb7ae9c</color><width>6</width></LineStyle></Style><Style id="lff207bf46"><LineStyle><color>ff207bf4</color><width>6</width></LineStyle></Style><Folder><name>lun 12 · → Tokio</name>
<Placemark><name>1. 17:00 · Mirador del Gobierno Metropolitano (d12)</name><styleUrl>#p1</styleUrl><description><![CDATA[Hora del plan: 17:00. Sin más puntos estrictos hoy después de esta parada.]]></description><Point><coordinates>139.691709,35.689496,0</coordinates></Point></Placemark>
<Placemark><name>2. 19:30 · Omoide Yokocho (d12)</name><styleUrl>#p2</styleUrl><description><![CDATA[Hora del plan: 19:30. Sin más puntos estrictos hoy después de esta parada.]]></description><Point><coordinates>139.699503,35.693090,0</coordinates></Point></Placemark>
<Placemark><name>d12·1 🚶 Hotel → Gojō ⇒ Mirador del Gobierno Metropolitano</name><styleUrl>#lb8636f7a3</styleUrl><description><![CDATA[caminando · rumbo del plan: Mirador del Gobierno Metropolitano]]></description><LineString><tessellate>1</tessellate><coordinates>135.759573,34.998314,0 135.759581,34.997724,0 135.759581,34.997680,0 135.759580,34.997651,0 135.759579,34.997630,0 135.759579,34.997598,0 135.759581,34.996900,0</coordinates></LineString></Placemark>
<Placemark><name>d12·2 🚇 09:45 Metro Karasuma (Kioto): Gojō → Kyoto ⇒ Mirador del Gobierno Metropolitano</name><styleUrl>#lff4499006</styleUrl><description><![CDATA[SALE 09:45 de Gojō → LLEGA a Kyoto · Metro Karasuma (Kioto) — sentido Takeda (1 tramos) · rumbo del plan: Mirador del Gobierno Metropolitano]]></description><MultiGeometry><LineString><tessellate>1</tessellate><coordinates>135.759700,34.996900,0 135.758766,34.985350,0</coordinates></LineString><LineString><tessellate>1</tessellate><coordinates>135.759568,34.993319,0 135.759389,34.993050,0 135.759254,34.993337,0</coordinates></LineString><LineString><tessellate>1</tessellate><coordinates>135.759257,34.989469,0 135.759077,34.989200,0 135.758943,34.989487,0</coordinates></LineString></MultiGeometry></Placemark>
<Placemark><name>d12·3 🚇 10:30 Shinkansen: Kyoto → Tokyo ⇒ Mirador del Gobierno Metropolitano</name><styleUrl>#lffa0501c6</styleUrl><description><![CDATA[SALE 10:30 de Kyoto → LLEGA a Tokyo · Shinkansen — sentido Tokyo (4 tramos) · ruta escénica · rumbo del plan: Mirador del Gobierno Metropolitano]]></description><MultiGeometry><LineString><tessellate>1</tessellate><coordinates>135.758430,34.984608,0 136.879697,35.170675,0 139.617011,35.508019,0 139.737765,35.627484,0 139.764761,35.680442,0</coordinates></LineString><LineString><tessellate>1</tessellate><coordinates>136.211523,35.059928,0 136.211886,35.059856,0 136.211585,35.059673,0</coordinates></LineString><LineString><tessellate>1</tessellate><coordinates>136.664978,35.135176,0 136.665341,35.135104,0 136.665040,35.134921,0</coordinates></LineString><LineString><tessellate>1</tessellate><coordinates>137.121089,35.200555,0 137.121447,35.200468,0 137.121135,35.200298,0</coordinates></LineString><LineString><tessellate>1</tessellate><coordinates>137.579571,35.257058,0 137.579930,35.256971,0 137.579618,35.256801,0</coordinates></LineString><LineString><tessellate>1</tessellate><coordinates>138.038053,35.313561,0 138.038412,35.313474,0 138.038100,35.313304,0</coordinates></LineString><LineString><tessellate>1</tessellate><coordinates>138.496535,35.370064,0 138.496894,35.369977,0 138.496582,35.369807,0</coordinates></LineString><LineString><tessellate>1</tessellate><coordinates>138.955017,35.426567,0 138.955377,35.426480,0 138.955064,35.426310,0</coordinates></LineString><LineString><tessellate>1</tessellate><coordinates>139.413500,35.483070,0 139.413859,35.482983,0 139.413546,35.482813,0</coordinates></LineString></MultiGeometry></Placemark>
<Placemark><name>d12·4 🚶 Tokyo → Tokyo ⇒ Mirador del Gobierno Metropolitano</name><styleUrl>#lb8636f7a3</styleUrl><description><![CDATA[caminando · rumbo del plan: Mirador del Gobierno Metropolitano]]></description><MultiGeometry><LineString><tessellate>1</tessellate><coordinates>139.764761,35.680442,0 139.764842,35.680425,0 139.764885,35.680424,0 139.764919,35.680437,0 139.764932,35.680479,0 139.765049,35.680458,0 139.764956,35.680190,0 139.764902,35.680037,0 139.765000,35.679867,0 139.765295,35.679386,0 139.765197,35.679095,0 139.765111,35.678838,0 139.764864,35.678105,0 139.764830,35.678005,0 139.764628,35.678048,0 139.764559,35.678064,0 139.764492,35.677863,0 139.764305,35.677904,0 139.764282,35.677839,0 139.764346,35.677826,0 139.764621,35.677767,0 139.764611,35.677765,0 139.764426,35.677803,0 139.764413,35.677767,0 139.764238,35.677805,0 139.764231,35.677801,0 139.764160,35.677816,0 139.764158,35.677811,0 139.764619,35.677713,0</coordinates></LineString><LineString><tessellate>1</tessellate><coordinates>139.765168,35.678691,0 139.765011,35.678540,0 139.764970,35.678736,0</coordinates></LineString></MultiGeometry></Placemark>
<Placemark><name>d12·5 🚇 12:45 JR Chūō Line (rápida): Tokyo → Shinjuku ⇒ Mirador del Gobierno Metropolitano</name><styleUrl>#lff225af16</styleUrl><description><![CDATA[SALE 12:45 de Tokyo → LLEGA a Shinjuku · JR Chūō Line (rápida) — sentido Nakano / Takao (4 tramos) · rumbo del plan: Mirador del Gobierno Metropolitano]]></description><MultiGeometry><LineString><tessellate>1</tessellate><coordinates>139.764615,35.677700,0 139.770698,35.694473,0 139.764244,35.700397,0 139.729482,35.686205,0 139.698762,35.688726,0</coordinates></LineString><LineString><tessellate>1</tessellate><coordinates>139.767552,35.686254,0 139.767801,35.686484,0 139.767856,35.686180,0</coordinates></LineString><LineString><tessellate>1</tessellate><coordinates>139.770132,35.694797,0 139.770024,35.695092,0 139.770370,35.694970,0</coordinates></LineString><LineString><tessellate>1</tessellate><coordinates>139.762371,35.699487,0 139.761995,35.699478,0 139.762229,35.699719,0</coordinates></LineString><LineString><tessellate>1</tessellate><coordinates>139.752347,35.695394,0 139.751971,35.695386,0 139.752205,35.695627,0</coordinates></LineString><LineString><tessellate>1</tessellate><coordinates>139.742324,35.691302,0 139.741948,35.691294,0 139.742182,35.691535,0</coordinates></LineString><LineString><tessellate>1</tessellate><coordinates>139.732300,35.687210,0 139.731924,35.687202,0 139.732158,35.687443,0</coordinates></LineString><LineString><tessellate>1</tessellate><coordinates>139.721376,35.686740,0 139.721052,35.686897,0 139.721407,35.686998,0</coordinates></LineString><LineString><tessellate>1</tessellate><coordinates>139.710231,35.687654,0 139.709907,35.687811,0 139.710262,35.687913,0</coordinates></LineString></MultiGeometry></Placemark>
<Placemark><name>d12·6 🚶 Shinjuku → Mirador del Gobierno Metropolitano</name><styleUrl>#lb8636f7a3</styleUrl><description><![CDATA[caminando]]></description><MultiGeometry><LineString><tessellate>1</tessellate><coordinates>139.698762,35.688726,0 139.698749,35.688820,0 139.698743,35.688873,0 139.698704,35.688896,0 139.698668,35.689128,0 139.698631,35.689353,0 139.698621,35.689430,0 139.698121,35.689414,0 139.697541,35.689389,0 139.697053,35.689367,0 139.696777,35.689357,0 139.696548,35.689344,0 139.696537,35.689444,0 139.696432,35.689440,0 139.696324,35.689437,0 139.696264,35.689397,0 139.696060,35.689389,0 139.695414,35.689363,0 139.695306,35.689438,0 139.695238,35.689428,0 139.695114,35.689409,0 139.695025,35.689395,0 139.694956,35.689332,0 139.694730,35.689295,0 139.693555,35.689102,0 139.692673,35.688957,0 139.692658,35.689030,0 139.692710,35.689038,0 139.692726,35.689036,0 139.692728,35.689024,0 139.692720,35.689017,0 139.692609,35.689001,0 139.692458,35.689620,0 139.692396,35.689609,0 139.692283,35.689592,0 139.692208,35.689581,0 139.692248,35.689409,0 139.692264,35.689344,0 139.692182,35.689367,0 139.691960,35.689431,0 139.691952,35.689463,0 139.691934,35.689534,0</coordinates></LineString><LineString><tessellate>1</tessellate><coordinates>139.696457,35.689230,0 139.696540,35.689417,0 139.696662,35.689245,0</coordinates></LineString><LineString><tessellate>1</tessellate><coordinates>139.693872,35.689068,0 139.693635,35.689115,0 139.693831,35.689233,0</coordinates></LineString></MultiGeometry></Placemark>
<Placemark><name>d12·7 🚶 Mirador del Gobierno Metropolitano → Omoide Yokocho</name><styleUrl>#lb8636f7a3</styleUrl><description><![CDATA[caminando]]></description><MultiGeometry><LineString><tessellate>1</tessellate><coordinates>139.691934,35.689534,0 139.691914,35.689610,0 139.691905,35.689647,0 139.692080,35.689777,0 139.692150,35.689829,0 139.692080,35.690119,0 139.692065,35.690180,0 139.691945,35.690163,0 139.691840,35.690148,0 139.691824,35.690145,0 139.691818,35.690177,0 139.691972,35.690202,0 139.691966,35.690232,0 139.692012,35.690240,0 139.691984,35.690349,0 139.692075,35.690364,0 139.692182,35.690381,0 139.692512,35.690432,0 139.692579,35.690445,0 139.692701,35.690464,0 139.692723,35.690468,0 139.692972,35.690505,0 139.693053,35.690518,0 139.693125,35.690529,0 139.693311,35.690559,0 139.693486,35.690586,0 139.693467,35.690666,0 139.693450,35.690741,0 139.693426,35.690839,0 139.693569,35.690862,0 139.693669,35.690879,0 139.694171,35.690960,0 139.694390,35.690995,0 139.694398,35.691010,0 139.694569,35.691023,0 139.694617,35.691014,0 139.696260,35.691182,0 139.696458,35.691201,0 139.696685,35.691213,0 139.696979,35.691234,0 139.697509,35.691266,0 139.698127,35.691303,0 139.698129,35.691285,0 139.698147,35.691297,0 139.698165,35.691312,0 139.698179,35.691325,0 139.698194,35.691340,0 139.698254,35.691416,0 139.698316,35.691480,0 139.698329,35.691490,0 139.698343,35.691499,0 139.698358,35.691506,0 139.698373,35.691512,0 139.698391,35.691518,0 139.698409,35.691522,0 139.698429,35.691525,0 139.698736,35.691541,0 139.698877,35.691544,0 139.698889,35.691535,0 139.698900,35.691526,0 139.698912,35.691515,0 139.698920,35.691506,0 139.698962,35.691509,0 139.699091,35.691517,0 139.699189,35.691522,0 139.699188,35.691786,0 139.699341,35.691994,0 139.699413,35.692096,0 139.699441,35.692163,0 139.699451,35.692213,0 139.699449,35.692251,0 139.699442,35.692301,0 139.699430,35.692393,0 139.699398,35.692617,0 139.699396,35.692634,0 139.699392,35.692670,0 139.699385,35.692718,0 139.699384,35.692730,0 139.699334,35.693068,0 139.699468,35.693085,0 139.699493,35.693089,0 139.699503,35.693091,0</coordinates></LineString><LineString><tessellate>1</tessellate><coordinates>139.693037,35.690601,0 139.693274,35.690553,0 139.693077,35.690436,0</coordinates></LineString><LineString><tessellate>1</tessellate><coordinates>139.695507,35.691190,0 139.695739,35.691129,0 139.695532,35.691023,0</coordinates></LineString><LineString><tessellate>1</tessellate><coordinates>139.698235,35.691599,0 139.698461,35.691527,0 139.698248,35.691431,0</coordinates></LineString></MultiGeometry></Placemark>
<Placemark><name>d12·8 🚶/🚇 Omoide Yokocho → hotel</name><styleUrl>#l80636f7a2</styleUrl><description><![CDATA[regreso (esquemático)]]></description><LineString><tessellate>1</tessellate><coordinates>139.699503,35.693090,0 139.693100,35.694400,0</coordinates></LineString></Placemark>
</Folder></Document></kml>