<?xml version="1.0" encoding="UTF-8"?>
<kml xmlns="http://www.opengis.net/kml/2.2"><Document><name>Catálogo Tokio — sitios · restos · hoteles</name><description>⭐ sitios · 🍜 restaurantes por nivel · 🏨 hoteles (Tokio + excursiones).</description><Style id="sitio_osaka"><IconStyle><scale>1.1</scale><Icon><href>https://maps.google.com/mapfiles/kml/paddle/red-stars.png</href></Icon></IconStyle></Style><Style id="sitio_hiroshima"><IconStyle><scale>1.1</scale><Icon><href>https://maps.google.com/mapfiles/kml/paddle/red-stars.png</href></Icon></IconStyle></Style><Style id="sitio_nara"><IconStyle><scale>1.1</scale><Icon><href>https://maps.google.com/mapfiles/kml/paddle/red-stars.png</href></Icon></IconStyle></Style><Style id="sitio_kioto"><IconStyle><scale>1.1</scale><Icon><href>https://maps.google.com/mapfiles/kml/paddle/red-stars.png</href></Icon></IconStyle></Style><Style id="sitio_tokio"><IconStyle><scale>1.1</scale><Icon><href>https://maps.google.com/mapfiles/kml/paddle/red-stars.png</href></Icon></IconStyle></Style><Style id="sitio_fuji"><IconStyle><scale>1.1</scale><Icon><href>https://maps.google.com/mapfiles/kml/paddle/red-stars.png</href></Icon></IconStyle></Style><Style id="take"><IconStyle><scale>1.1</scale><Icon><href>https://maps.google.com/mapfiles/kml/paddle/grn-circle.png</href></Icon></IconStyle></Style><Style id="ai"><IconStyle><scale>1.1</scale><Icon><href>https://maps.google.com/mapfiles/kml/paddle/blu-circle.png</href></Icon></IconStyle></Style><Style id="shu"><IconStyle><scale>1.1</scale><Icon><href>https://maps.google.com/mapfiles/kml/paddle/red-circle.png</href></Icon></IconStyle></Style><Style id="resto"><IconStyle><scale>1.1</scale><Icon><href>https://maps.google.com/mapfiles/kml/paddle/wht-circle.png</href></Icon></IconStyle></Style><Style id="hotel"><IconStyle><scale>1.1</scale><Icon><href>https://maps.google.com/mapfiles/kml/paddle/ylw-stars.png</href></Icon></IconStyle></Style><Style id="aero"><IconStyle><scale>1.1</scale><Icon><href>https://maps.google.com/mapfiles/kml/paddle/purple-square.png</href></Icon></IconStyle></Style><Folder><name>5 · Tokio (lun 12 – dom 18)</name>
<Placemark><name>⭐ Omoide Yokocho</name><styleUrl>#sitio_tokio</styleUrl><description><![CDATA[60 barras diminutas de yakitori apretadas en dos callejones con humo, faroles y bancos — el Tokio de 1950 intacto. 'El callejón de los recuerdos'. — EN EL PLAN: lun 12 · 19:30<br/><a href="https://www.google.com/maps/search/?api=1&amp;query=Omoide%20Yokocho%20Shinjuku">Abrir en Google Maps</a>]]></description><Point><coordinates>139.699503,35.693090,0</coordinates></Point></Placemark>
<Placemark><name>⭐ Mirador del Gobierno Metropolitano</name><styleUrl>#sitio_tokio</styleUrl><description><![CDATA[Las torres gemelas del gobierno de Tokio: mirador GRATIS en el piso 45 (202 m) — de noche, el mar de luces; en día claro, el Fuji. — EN EL PLAN: lun 12 · 17:00<br/><a href="https://www.google.com/maps/search/?api=1&amp;query=Tokyo%20Metropolitan%20Government%20Building%20observatory">Abrir en Google Maps</a>]]></description><Point><coordinates>139.691709,35.689496,0</coordinates></Point></Placemark>
<Placemark><name>⭐ Sensō-ji</name><styleUrl>#sitio_tokio</styleUrl><description><![CDATA[El templo más visitado del mundo (~30 millones al año): la puerta Kaminarimon con su farol de 700 kg, la calle Nakamise y el salón de la Kannon dorada. — EN EL PLAN: mar 13 · 05:30<br/><a href="https://www.google.com/maps/search/?api=1&amp;query=Sensoji%20Asakusa%20Tokyo">Abrir en Google Maps</a>]]></description><Point><coordinates>139.795526,35.713403,0</coordinates></Point></Placemark>
<Placemark><name>⭐ Tokyo Skytree</name><styleUrl>#sitio_tokio</styleUrl><description><![CDATA[La torre más alta de Japón (634 m): dos miradores, piso de cristal y la base Solamachi llena de tiendas. En día claro: 70 km de vista. — EN EL PLAN: mar 13 · 08:10<br/><a href="https://www.google.com/maps/search/?api=1&amp;query=Tokyo%20Skytree">Abrir en Google Maps</a>]]></description><Point><coordinates>139.810714,35.710054,0</coordinates></Point></Placemark>
<Placemark><name>⭐ Parque Ueno</name><styleUrl>#sitio_tokio</styleUrl><description><![CDATA[El parque-museo de Tokio: museos nacionales, el zoológico con pandas, templos y los lotos del estanque Shinobazu. — EN EL PLAN: mar 13 · 14:30<br/><a href="https://www.google.com/maps/search/?api=1&amp;query=Ueno%20Park%20Tokyo">Abrir en Google Maps</a>]]></description><Point><coordinates>139.775968,35.719045,0</coordinates></Point></Placemark>
<Placemark><name>⭐ Ameyoko</name><styleUrl>#sitio_tokio</styleUrl><description><![CDATA[El mercado bajo las vías: 400 puestos gritones de mariscos, fruta, tenis y especias — el caos comercial más sabroso de Tokio. — EN EL PLAN: mar 13 · 17:10<br/><a href="https://www.google.com/maps/search/?api=1&amp;query=Ameyoko%20Market%20Ueno">Abrir en Google Maps</a>]]></description><Point><coordinates>139.774786,35.711493,0</coordinates></Point></Placemark>
<Placemark><name>⭐ Santuario Meiji</name><styleUrl>#sitio_tokio</styleUrl><description><![CDATA[Un bosque de 100,000 árboles donados en medio de Tokio, con el santuario del emperador Meiji al centro: torii gigantes de ciprés, barriles de sake y, con suerte, una boda sintoísta. — EN EL PLAN: jue 15 · 05:30<br/><a href="https://www.google.com/maps/search/?api=1&amp;query=Meiji%20Jingu%20Tokyo">Abrir en Google Maps</a>]]></description><Point><coordinates>139.717213,35.674515,0</coordinates></Point></Placemark>
<Placemark><name>⭐ Takeshita Street + Omotesandō</name><styleUrl>#sitio_tokio</styleUrl><description><![CDATA[Los 350 m del kawaii: crepas, calcetas imposibles y adolescentes en su hábitat — y al lado, Omotesandō: la avenida elegante de flagships y arquitectura de autor. — EN EL PLAN: jue 15 · 10:15<br/><a href="https://www.google.com/maps/search/?api=1&amp;query=Takeshita%20Street%20Harajuku">Abrir en Google Maps</a>]]></description><Point><coordinates>139.703017,35.671605,0</coordinates></Point></Placemark>
<Placemark><name>⭐ Cruce de Shibuya</name><styleUrl>#sitio_tokio</styleUrl><description><![CDATA[El cruce peatonal más famoso del mundo: hasta 3,000 personas por luz verde, en 5 direcciones — y nadie choca. Cruzarlo tres veces es parte del rito. — EN EL PLAN: jue 15 · 15:45<br/><a href="https://www.google.com/maps/search/?api=1&amp;query=Shibuya%20Crossing">Abrir en Google Maps</a>]]></description><Point><coordinates>139.700572,35.659482,0</coordinates></Point></Placemark>
<Placemark><name>⭐ Shibuya Sky</name><styleUrl>#sitio_tokio</styleUrl><description><![CDATA[La azotea abierta a 229 m sobre el cruce: esquinas de cristal, hamacas de red mirando al cielo y el atardecer con el Fuji de fondo si el día ayuda. — EN EL PLAN: jue 15 · 16:45<br/><a href="https://www.google.com/maps/search/?api=1&amp;query=Shibuya%20Sky%20observation%20deck">Abrir en Google Maps</a>]]></description><Point><coordinates>139.702350,35.658590,0</coordinates></Point></Placemark>
<Placemark><name>⭐ Tsukiji Outer Market</name><styleUrl>#sitio_tokio</styleUrl><description><![CDATA[El mercado exterior que sobrevivió a la mudanza: 400 puestos de tamagoyaki, atún, uni y cuchillos — el desayuno más rico de Tokio es de pie, puesto por puesto. — EN EL PLAN: sáb 17 · 05:00<br/><a href="https://www.google.com/maps/search/?api=1&amp;query=Tsukiji%20Outer%20Market%20Tokyo">Abrir en Google Maps</a>]]></description><Point><coordinates>139.770473,35.665388,0</coordinates></Point></Placemark>
<Placemark><name>⭐ Ginza</name><styleUrl>#sitio_tokio</styleUrl><description><![CDATA[La milla de oro de Tokio: flagships de 12 pisos, papelerías legendarias (Itoya), galerías y vitrinas que son museos. — EN EL PLAN: sáb 17 · 05:15<br/><a href="https://www.google.com/maps/search/?api=1&amp;query=Ginza%20Tokyo">Abrir en Google Maps</a>]]></description><Point><coordinates>139.765000,35.671700,0</coordinates></Point></Placemark>
<Placemark><name>⭐ Torre de Tokio</name><styleUrl>#sitio_tokio</styleUrl><description><![CDATA[La torre roja y blanca de 333 m — 9 m más alta que la Eiffel que imita — con mirador a 150 m y un cariño de los tokiotas que el Skytree no le quita. — EN EL PLAN: sáb 17 · 12:20<br/><a href="https://www.google.com/maps/search/?api=1&amp;query=Tokyo%20Tower">Abrir en Google Maps</a>]]></description><Point><coordinates>139.745536,35.658449,0</coordinates></Point></Placemark>
<Placemark><name>⭐ Zōjō-ji</name><styleUrl>#sitio_tokio</styleUrl><description><![CDATA[El gran templo a los pies de la Torre de Tokio: la puerta Sangedatsumon (1622) y las filas de jizō con gorritos rojos que conmueven. — EN EL PLAN: sáb 17 · 12:20<br/><a href="https://www.google.com/maps/search/?api=1&amp;query=Zojoji%20Temple%20Tokyo">Abrir en Google Maps</a>]]></description><Point><coordinates>139.748343,35.657278,0</coordinates></Point></Placemark>
<Placemark><name>⭐ teamLab Planets</name><styleUrl>#sitio_tokio</styleUrl><description><![CDATA[El museo donde el arte te toca: caminas descalzo por agua con koi de luz, cuartos infinitos de flores y esferas que responden a tu paso. — EN EL PLAN: vie 16 · 10:30<br/><a href="https://www.google.com/maps/search/?api=1&amp;query=teamLab%20Planets%20Toyosu%20Tokyo">Abrir en Google Maps</a>]]></description><Point><coordinates>139.789728,35.649380,0</coordinates></Point></Placemark>
<Placemark><name>⭐ Akihabara</name><styleUrl>#sitio_tokio</styleUrl><description><![CDATA[La 'Ciudad Eléctrica': edificios de 8 pisos de anime, retro-games, figuras, maid cafés y arcades en cada cuadra. — EN EL PLAN: vie 16 · 14:15 · sáb 17 · 14:00<br/><a href="https://www.google.com/maps/search/?api=1&amp;query=Akihabara%20Tokyo">Abrir en Google Maps</a>]]></description><Point><coordinates>139.774368,35.701893,0</coordinates></Point></Placemark>
<Placemark><name>🍜 Fuunji</name><styleUrl>#take</styleUrl><description><![CDATA[EL tsukemen (fideos para remojar) — 8 min del hotel, fila 30–45 min que vale cada minuto · ¥1,100 · Nivel 🎋 Take — días: lun 12<br/><a href="https://www.google.com/maps/search/?api=1&amp;query=Fuunji%20Shinjuku">Abrir en Google Maps</a>]]></description><Point><coordinates>139.699390,35.686640,0</coordinates></Point></Placemark>
<Placemark><name>🍜 Ichiran Shinjuku</name><styleUrl>#take</styleUrl><description><![CDATA[Abierto 24 h — el seguro a cualquier hora · ¥980–1,320 · Nivel 🎋 Take — días: lun 12 · jue 15<br/><a href="https://www.google.com/maps/search/?api=1&amp;query=Ichiran%20Shinjuku">Abrir en Google Maps</a>]]></description><Point><coordinates>139.702734,35.690398,0</coordinates></Point></Placemark>
<Placemark><name>🍜 Shin Udon</name><styleUrl>#take</styleUrl><description><![CDATA[Udon artesanal con tempura — fila corta si van temprano · ¥1,200 · Nivel 🎋 Take — días: lun 12<br/><a href="https://www.google.com/maps/search/?api=1&amp;query=Shin%20Udon%20Shinjuku">Abrir en Google Maps</a>]]></description><Point><coordinates>139.732876,35.704048,0</coordinates></Point></Placemark>
<Placemark><name>🍜 Konjiki Hototogisu</name><styleUrl>#ai</styleUrl><description><![CDATA[Ramen de almeja con estrella de precio justo · ¥1,500 · Nivel 🌊 Ai — días: lun 12<br/><a href="https://www.google.com/maps/search/?api=1&amp;query=Konjiki%20Hototogisu%20Shinjuku">Abrir en Google Maps</a>]]></description><Point><coordinates>139.708289,35.688812,0</coordinates></Point></Placemark>
<Placemark><name>🍜 Tsunahachi (comida)</name><styleUrl>#ai</styleUrl><description><![CDATA[Tempura desde 1924, honten de Shinjuku · ¥1,800 · Nivel 🌊 Ai — días: lun 12<br/><a href="https://www.google.com/maps/search/?api=1&amp;query=Tsunahachi%20Shinjuku%20honten">Abrir en Google Maps</a>]]></description><Point><coordinates>139.703390,35.690799,0</coordinates></Point></Placemark>
<Placemark><name>🍜 Katsukura</name><styleUrl>#ai</styleUrl><description><![CDATA[Tonkatsu de Kioto en Takashimaya — muele tu propio ajonjolí · ¥1,900 · Nivel 🌊 Ai — días: lun 12<br/><a href="https://www.google.com/maps/search/?api=1&amp;query=Katsukura%20Takashimaya%20Shinjuku">Abrir en Google Maps</a>]]></description><Point><coordinates>139.702119,35.688040,0</coordinates></Point></Placemark>
<Placemark><name>🍜 Kabuto</name><styleUrl>#ai</styleUrl><description><![CDATA[Anguila a la parrilla desde 1948, barra de 12 asientos en Omoide · ¥3,000 · Nivel 🌊 Ai — días: lun 12<br/><a href="https://www.google.com/maps/search/?api=1&amp;query=Kabuto%20unagi%20Omoide%20Yokocho">Abrir en Google Maps</a>]]></description><Point><coordinates>139.699514,35.693123,0</coordinates></Point></Placemark>
<Placemark><name>🍜 NY Bar (Park Hyatt)</name><styleUrl>#shu</styleUrl><description><![CDATA[El bar de Lost in Translation, piso 52 — código de vestir suave · ¥3,000/copa · Nivel 🔴 Shu — días: lun 12<br/><a href="https://www.google.com/maps/search/?api=1&amp;query=New%20York%20Bar%20Park%20Hyatt%20Tokyo">Abrir en Google Maps</a>]]></description><Point><coordinates>139.690756,35.685480,0</coordinates></Point></Placemark>
<Placemark><name>🍜 Ichiran Ueno</name><styleUrl>#take</styleUrl><description><![CDATA[La cabina de siempre, versión Ueno · ¥1,000 · Nivel 🎋 Take — días: mar 13<br/><a href="https://www.google.com/maps/search/?api=1&amp;query=Ichiran%20Ueno">Abrir en Google Maps</a>]]></description><Point><coordinates>139.775218,35.712429,0</coordinates></Point></Placemark>
<Placemark><name>🍜 Daikokuya</name><styleUrl>#ai</styleUrl><description><![CDATA[Tendon (tempura sobre arroz) desde 1887 — LA fila de Asakusa · ¥2,200 · Nivel 🌊 Ai — días: mar 13<br/><a href="https://www.google.com/maps/search/?api=1&amp;query=Daikokuya%20Tempura%20Asakusa">Abrir en Google Maps</a>]]></description><Point><coordinates>139.795592,35.712737,0</coordinates></Point></Placemark>
<Placemark><name>🍜 Tonkatsu Isen honten</name><styleUrl>#ai</styleUrl><description><![CDATA[Institución del tonkatsu en Ueno, edificio con historia · ¥3,000 · Nivel 🌊 Ai — días: mar 13<br/><a href="https://www.google.com/maps/search/?api=1&amp;query=Isen%20honten%20Ueno%20tonkatsu">Abrir en Google Maps</a>]]></description><Point><coordinates>139.772230,35.707481,0</coordinates></Point></Placemark>
<Placemark><name>🍜 Unagi Izuei</name><styleUrl>#shu</styleUrl><description><![CDATA[Anguila con vista al estanque de Ueno, 290 años · ¥6,000 · Nivel 🔴 Shu — días: mar 13<br/><a href="https://www.google.com/maps/search/?api=1&amp;query=Izuei%20Ueno%20unagi">Abrir en Google Maps</a>]]></description><Point><coordinates>139.774805,35.711156,0</coordinates></Point></Placemark>
<Placemark><name>🍜 Tempura Nakasei</name><styleUrl>#shu</styleUrl><description><![CDATA[Tempura de Asakusa desde 1870 · ¥7,000 · Nivel 🔴 Shu — días: mar 13<br/><a href="https://www.google.com/maps/search/?api=1&amp;query=Nakasei%20tempura%20Asakusa">Abrir en Google Maps</a>]]></description><Point><coordinates>139.794601,35.712584,0</coordinates></Point></Placemark>
<Placemark><name>🍜 Sukiyaki Imahan</name><styleUrl>#ai</styleUrl><description><![CDATA[El sukiyaki formal de Asakusa (1895) · ¥10,000+ · Nivel 🌊 Ai — días: mar 13 · sáb 17<br/><a href="https://www.google.com/maps/search/?api=1&amp;query=Asakusa%20Imahan%20sukiyaki">Abrir en Google Maps</a>]]></description><Point><coordinates>139.792224,35.713919,0</coordinates></Point></Placemark>
<Placemark><name>🍜 Tonkatsu Bairin</name><styleUrl>#ai</styleUrl><description><![CDATA[El tonkatsu de Ginza desde 1927 — inventó la salsa · ¥2,500 · Nivel 🌊 Ai — días: mié 14 · sáb 17<br/><a href="https://www.google.com/maps/search/?api=1&amp;query=Ginza%20Bairin%20tonkatsu">Abrir en Google Maps</a>]]></description><Point><coordinates>139.762787,35.669549,0</coordinates></Point></Placemark>
<Placemark><name>🍜 Ginza Lion</name><styleUrl>#ai</styleUrl><description><![CDATA[La cervecería más vieja de Japón (1934), salón art déco intacto · ¥3,500 · Nivel 🌊 Ai — días: mié 14 · sáb 17<br/><a href="https://www.google.com/maps/search/?api=1&amp;query=Ginza%20Lion%20Beer%20Hall">Abrir en Google Maps</a>]]></description><Point><coordinates>139.762450,35.669350,0</coordinates></Point></Placemark>
<Placemark><name>🍜 Sushi no Midori</name><styleUrl>#ai</styleUrl><description><![CDATA[La mejor relación calidad/precio del sushi de Tokio — por eso la fila · ¥4,000 · Nivel 🌊 Ai — días: mié 14 · sáb 17<br/><a href="https://www.google.com/maps/search/?api=1&amp;query=Sushi%20no%20Midori%20Ginza">Abrir en Google Maps</a>]]></description><Point><coordinates>139.759702,35.670407,0</coordinates></Point></Placemark>
<Placemark><name>🍜 Tempura con estrella</name><styleUrl>#shu</styleUrl><description><![CDATA[Barra de tempura estrellada (Kondo y similares) — reservar · ¥15,000 · Nivel 🔴 Shu — días: mié 14<br/><a href="https://www.google.com/maps/search/?api=1&amp;query=Tempura%20Kondo%20Ginza">Abrir en Google Maps</a>]]></description><Point><coordinates>139.768243,35.671882,0</coordinates></Point></Placemark>
<Placemark><name>🍜 Harajuku Gyozarō</name><styleUrl>#take</styleUrl><description><![CDATA[6 gyozas perfectas a precio de risa — la fila avanza rápido · ¥800 · Nivel 🎋 Take — días: jue 15<br/><a href="https://www.google.com/maps/search/?api=1&amp;query=Harajuku%20Gyozaro">Abrir en Google Maps</a>]]></description><Point><coordinates>139.706189,35.667562,0</coordinates></Point></Placemark>
<Placemark><name>🍜 Afuri</name><styleUrl>#take</styleUrl><description><![CDATA[Ramen de yuzu — ligero, cítrico, moderno · ¥1,400 · Nivel 🎋 Take — días: jue 15<br/><a href="https://www.google.com/maps/search/?api=1&amp;query=Afuri%20Harajuku">Abrir en Google Maps</a>]]></description><Point><coordinates>139.705336,35.668705,0</coordinates></Point></Placemark>
<Placemark><name>🍜 Luke's Lobster</name><styleUrl>#ai</styleUrl><description><![CDATA[Lobster roll de culto en Cat Street · ¥1,500 · Nivel 🌊 Ai — días: jue 15<br/><a href="https://www.google.com/maps/search/?api=1&amp;query=Luke%27s%20Lobster%20Omotesando">Abrir en Google Maps</a>]]></description><Point><coordinates>139.703599,35.691961,0</coordinates></Point></Placemark>
<Placemark><name>🍜 Golden Brown</name><styleUrl>#ai</styleUrl><description><![CDATA[Hamburguesa artesanal japonesa · ¥1,800 · Nivel 🌊 Ai — días: jue 15<br/><a href="https://www.google.com/maps/search/?api=1&amp;query=Golden%20Brown%20burger%20Omotesando">Abrir en Google Maps</a>]]></description><Point><coordinates>139.706400,35.666400,0</coordinates></Point></Placemark>
<Placemark><name>🍜 bills</name><styleUrl>#ai</styleUrl><description><![CDATA[Los hotcakes 'más famosos del mundo', versión Omotesandō · ¥2,200 · Nivel 🌊 Ai — días: jue 15<br/><a href="https://www.google.com/maps/search/?api=1&amp;query=bills%20Omotesando">Abrir en Google Maps</a>]]></description><Point><coordinates>139.712555,35.665185,0</coordinates></Point></Placemark>
<Placemark><name>🍜 Gyukatsu Motomura</name><styleUrl>#shu</styleUrl><description><![CDATA[El gyukatsu de las filas eternas — vale si avanza · ¥2,200 · Nivel 🔴 Shu — días: jue 15<br/><a href="https://www.google.com/maps/search/?api=1&amp;query=Gyukatsu%20Motomura%20Shibuya">Abrir en Google Maps</a>]]></description><Point><coordinates>139.704018,35.656978,0</coordinates></Point></Placemark>
<Placemark><name>🍜 Maisen</name><styleUrl>#shu</styleUrl><description><![CDATA[Tonkatsu en una ex-casa de baños — el clásico de Omotesandō · ¥3,000 · Nivel 🔴 Shu — días: jue 15<br/><a href="https://www.google.com/maps/search/?api=1&amp;query=Maisen%20Aoyama%20tonkatsu">Abrir en Google Maps</a>]]></description><Point><coordinates>139.711525,35.667975,0</coordinates></Point></Placemark>
<Placemark><name>🍜 Uobei</name><styleUrl>#take</styleUrl><description><![CDATA[Sushi que llega en riel a tu pantalla — los primos chicos felices · ¥1,500/persona · Nivel 🎋 Take — días: jue 15<br/><a href="https://www.google.com/maps/search/?api=1&amp;query=Uobei%20Shibuya">Abrir en Google Maps</a>]]></description><Point><coordinates>139.697799,35.659465,0</coordinates></Point></Placemark>
<Placemark><name>🍜 Genki Sushi</name><styleUrl>#take</styleUrl><description><![CDATA[El hermano de Uobei, mismo sistema · ¥1,800 · Nivel 🎋 Take — días: jue 15<br/><a href="https://www.google.com/maps/search/?api=1&amp;query=Genki%20Sushi%20Shibuya">Abrir en Google Maps</a>]]></description><Point><coordinates>139.699078,35.658484,0</coordinates></Point></Placemark>
<Placemark><name>🍜 Nabezo Shibuya</name><styleUrl>#ai</styleUrl><description><![CDATA[Shabu-shabu tabehōdai — mesas grandes · ¥4,500 · Nivel 🌊 Ai — días: jue 15<br/><a href="https://www.google.com/maps/search/?api=1&amp;query=Nabezo%20Shibuya">Abrir en Google Maps</a>]]></description><Point><coordinates>139.697408,35.661436,0</coordinates></Point></Placemark>
<Placemark><name>🍜 Han no Daidokoro (entrada)</name><styleUrl>#ai</styleUrl><description><![CDATA[Yakiniku de calidad, curso corto · ¥6,000 · Nivel 🌊 Ai — días: jue 15<br/><a href="https://www.google.com/maps/search/?api=1&amp;query=Han%20no%20Daidokoro%20Shibuya">Abrir en Google Maps</a>]]></description><Point><coordinates>139.697811,35.659700,0</coordinates></Point></Placemark>
<Placemark><name>🍜 Han no Daidokoro curso</name><styleUrl>#shu</styleUrl><description><![CDATA[El curso completo de wagyu — a 5 min esa noche · ¥10,000 · Nivel 🔴 Shu — días: jue 15<br/><a href="https://www.google.com/maps/search/?api=1&amp;query=Han%20no%20Daidokoro%20Bettei%20Shibuya">Abrir en Google Maps</a>]]></description><Point><coordinates>139.697811,35.659700,0</coordinates></Point></Placemark>
<Placemark><name>🍜 Ushigoro S</name><styleUrl>#shu</styleUrl><description><![CDATA[EL yakiniku premium — privados elegantes, reservar semanas antes · ¥15,000 · Nivel 🔴 Shu — días: jue 15<br/><a href="https://www.google.com/maps/search/?api=1&amp;query=Ushigoro%20S%20Shibuya">Abrir en Google Maps</a>]]></description><Point><coordinates>139.696495,35.663371,0</coordinates></Point></Placemark>
<Placemark><name>🍜 Uoya-Itcho</name><styleUrl>#take</styleUrl><description><![CDATA[Izakaya grande de pescado — acomoda mesa de 10 · ¥3,500 · Nivel 🎋 Take — días: vie 16<br/><a href="https://www.google.com/maps/search/?api=1&amp;query=Uoya%20Itcho%20Shinjuku">Abrir en Google Maps</a>]]></description><Point><coordinates>139.703600,35.693500,0</coordinates></Point></Placemark>
<Placemark><name>🍜 Gyukaku</name><styleUrl>#ai</styleUrl><description><![CDATA[Yakiniku de cadena confiable, mesas amplias · ¥4,000 · Nivel 🌊 Ai — días: vie 16<br/><a href="https://www.google.com/maps/search/?api=1&amp;query=Gyu-Kaku%20Shinjuku">Abrir en Google Maps</a>]]></description><Point><coordinates>139.697782,35.694069,0</coordinates></Point></Placemark>
<Placemark><name>🍜 Nabezo Shinjuku</name><styleUrl>#ai</styleUrl><description><![CDATA[Tabehōdai de shabu y sukiyaki — hecho para grupos · ¥4,500 · Nivel 🌊 Ai — días: vie 16<br/><a href="https://www.google.com/maps/search/?api=1&amp;query=Nabezo%20Shinjuku">Abrir en Google Maps</a>]]></description><Point><coordinates>139.705276,35.691302,0</coordinates></Point></Placemark>
<Placemark><name>🍜 Imahan shabu</name><styleUrl>#ai</styleUrl><description><![CDATA[El shabu de la casa de 1895, versión moderna · ¥6,000 · Nivel 🌊 Ai — días: vie 16<br/><a href="https://www.google.com/maps/search/?api=1&amp;query=Imahan%20Shinjuku">Abrir en Google Maps</a>]]></description><Point><coordinates>139.704094,35.691196,0</coordinates></Point></Placemark>
<Placemark><name>🍜 Jojoen</name><styleUrl>#shu</styleUrl><description><![CDATA[Yakiniku premium con privados para 10 — reservar desde México · ¥8–12,000 · Nivel 🔴 Shu — días: vie 16<br/><a href="https://www.google.com/maps/search/?api=1&amp;query=Jojoen%20Shinjuku">Abrir en Google Maps</a>]]></description><Point><coordinates>139.704094,35.691196,0</coordinates></Point></Placemark>
<Placemark><name>🍜 NY Grill (Park Hyatt)</name><styleUrl>#shu</styleUrl><description><![CDATA[El piso 52: steak, jazz en vivo y todo Tokio abajo · ¥15,000+ · Nivel 🔴 Shu — días: vie 16<br/><a href="https://www.google.com/maps/search/?api=1&amp;query=New%20York%20Grill%20Park%20Hyatt%20Tokyo">Abrir en Google Maps</a>]]></description><Point><coordinates>139.690480,35.685660,0</coordinates></Point></Placemark>
<Placemark><name>🍜 Kagari</name><styleUrl>#take</styleUrl><description><![CDATA[Tori-paitan (caldo de pollo cremoso) — Bib Gourmand, fila rápida · ¥1,500 · Nivel 🎋 Take — días: sáb 17<br/><a href="https://www.google.com/maps/search/?api=1&amp;query=Kagari%20Ginza">Abrir en Google Maps</a>]]></description><Point><coordinates>139.767962,35.674837,0</coordinates></Point></Placemark>
<Placemark><name>🍜 Gonpachi</name><styleUrl>#take</styleUrl><description><![CDATA['El restaurante de Kill Bill' — turístico y divertidísimo · ¥5,000 · Nivel 🎋 Take — días: sáb 17<br/><a href="https://www.google.com/maps/search/?api=1&amp;query=Gonpachi%20Nishi-Azabu">Abrir en Google Maps</a>]]></description><Point><coordinates>139.723594,35.660165,0</coordinates></Point></Placemark>
<Placemark><name>🍜 Shibuya Yokocho</name><styleUrl>#resto</styleUrl><description><![CDATA[19 mini-barras regionales en fila, en Miyashita Park · ¥2,500–4,000 · Nivel 🍴 — días: jue 15<br/><a href="https://www.google.com/maps/search/?api=1&amp;query=Shibuya%20Yokocho%20Miyashita%20Park">Abrir en Google Maps</a>]]></description><Point><coordinates>139.701927,35.661956,0</coordinates></Point></Placemark>
<Placemark><name>🍜 Golden Gai</name><styleUrl>#resto</styleUrl><description><![CDATA[200 barras de 5 asientos — para la sobremesa, los 10 se dispersan solos · ¥1,000–2,000/bar · Nivel 🍴 — días: vie 16<br/><a href="https://www.google.com/maps/search/?api=1&amp;query=Golden%20Gai%20Shinjuku">Abrir en Google Maps</a>]]></description><Point><coordinates>139.704700,35.693990,0</coordinates></Point></Placemark>
<Placemark><name>🏨 Rose Garden Shinjuku (Tokio, 6 noches)</name><styleUrl>#hotel</styleUrl><description><![CDATA[<a href="https://www.google.com/maps/search/?api=1&amp;query=Hotel%20Rose%20Garden%20Shinjuku%20Tokyo">Abrir en Google Maps</a>]]></description><Point><coordinates>139.693100,35.694400,0</coordinates></Point></Placemark>
<Placemark><name>✈️ Haneda T3 (llegada dom 4 · salida dom 18)</name><styleUrl>#aero</styleUrl><description><![CDATA[<a href="https://www.google.com/maps/search/?api=1&amp;query=Haneda%20Airport%20Terminal%203">Abrir en Google Maps</a>]]></description><Point><coordinates>139.768652,35.543887,0</coordinates></Point></Placemark>
</Folder><Folder><name>6 · Excursiones (Hakone · Kamakura · Fuji · Disney)</name>
<Placemark><name>⭐ Teleférico de Hakone</name><styleUrl>#sitio_fuji</styleUrl><description><![CDATA[Cabinas cada minuto cruzando sobre el valle volcánico, con el Fuji apareciendo a la derecha si el cielo abre. — EN EL PLAN: mié 14 · 08:00<br/><a href="https://www.google.com/maps/search/?api=1&amp;query=Hakone%20Ropeway">Abrir en Google Maps</a>]]></description><Point><coordinates>139.005961,35.244522,0</coordinates></Point></Placemark>
<Placemark><name>⭐ Ōwakudani</name><styleUrl>#sitio_fuji</styleUrl><description><![CDATA[El 'Gran Valle Hirviente': fumarolas, olor a azufre y los huevos negros cocidos en las pozas — la leyenda dice que cada uno alarga la vida 7 años. — EN EL PLAN: mié 14 · 08:00<br/><a href="https://www.google.com/maps/search/?api=1&amp;query=Owakudani%20Hakone">Abrir en Google Maps</a>]]></description><Point><coordinates>139.024205,35.247406,0</coordinates></Point></Placemark>
<Placemark><name>⭐ Lago Ashi</name><styleUrl>#sitio_fuji</styleUrl><description><![CDATA[El lago del cráter con el torii de Hakone saliendo del agua y barcos 'piratas' cruzándolo — la postal del Fuji cuando está despejado. — EN EL PLAN: mié 14 · 08:00<br/><a href="https://www.google.com/maps/search/?api=1&amp;query=Lake%20Ashi%20Hakone">Abrir en Google Maps</a>]]></description><Point><coordinates>139.001997,35.214483,0</coordinates></Point></Placemark>
<Placemark><name>⭐ Monte Fuji</name><styleUrl>#sitio_fuji</styleUrl><description><![CDATA[La montaña perfecta: 3,776 m de cono volcánico visible desde 100 km. Verla despejada es lotería — en octubre, las mañanas dan la mejor probabilidad. — EN EL PLAN: mié 14 · 08:00 · vie 16 · 06:00<br/><a href="https://www.google.com/maps/search/?api=1&amp;query=Mount%20Fuji">Abrir en Google Maps</a>]]></description><Point><coordinates>138.730768,35.362838,0</coordinates></Point></Placemark>
<Placemark><name>⭐ Santuario de Hakone (Motomiya)</name><styleUrl>#sitio_fuji</styleUrl><description><![CDATA[El santuario del torii en el agua: se hace fila en el embarcadero para LA foto, y el bosque de cedros gigantes detrás vale la subida. — EN EL PLAN: mié 14 · 08:00<br/><a href="https://www.google.com/maps/search/?api=1&amp;query=Hakone%20Shrine">Abrir en Google Maps</a>]]></description><Point><coordinates>139.025583,35.203973,0</coordinates></Point></Placemark>
<Placemark><name>⭐ Gran Buda de Kamakura</name><styleUrl>#sitio_fuji</styleUrl><description><![CDATA[11 m y 121 toneladas de bronce meditando al aire libre desde hace 770 años, con las montañas de Kamakura detrás. Se puede entrar (¥50). — EN EL PLAN: vie 16 · 07:00<br/><a href="https://www.google.com/maps/search/?api=1&amp;query=Kotokuin%20Great%20Buddha%20Kamakura">Abrir en Google Maps</a>]]></description><Point><coordinates>139.535721,35.316848,0</coordinates></Point></Placemark>
<Placemark><name>⭐ Hase-dera (Kamakura)</name><styleUrl>#sitio_fuji</styleUrl><description><![CDATA[El templo de las hortensias y la Kannon dorada de 9 m — la escultura de madera más grande de Japón — con terraza al mar de Kamakura. — EN EL PLAN: vie 16 · 08:40<br/><a href="https://www.google.com/maps/search/?api=1&amp;query=Hasedera%20Kamakura">Abrir en Google Maps</a>]]></description><Point><coordinates>139.533309,35.312269,0</coordinates></Point></Placemark>
<Placemark><name>⭐ Lago Kawaguchiko</name><styleUrl>#sitio_fuji</styleUrl><description><![CDATA[El lago con la vista más famosa del Fuji: la ribera norte lo refleja entero, con los momiji encendidos en otoño. — EN EL PLAN: jue 15 · 21:15 · vie 16 · 07:00<br/><a href="https://www.google.com/maps/search/?api=1&amp;query=Lake%20Kawaguchiko">Abrir en Google Maps</a>]]></description><Point><coordinates>138.764493,35.527236,0</coordinates></Point></Placemark>
<Placemark><name>⭐ Pagoda Chureito</name><styleUrl>#sitio_fuji</styleUrl><description><![CDATA[La pagoda de 5 pisos con el Fuji de fondo — LA foto de Japón. Son 398 escalones para ganársela.<br/><a href="https://www.google.com/maps/search/?api=1&amp;query=Chureito%20Pagoda%20Fujiyoshida">Abrir en Google Maps</a>]]></description><Point><coordinates>138.801356,35.501287,0</coordinates></Point></Placemark>
<Placemark><name>⭐ Tokyo Disneyland</name><styleUrl>#sitio_fuji</styleUrl><description><![CDATA[El Disney japonés: famoso por su nivel de detalle obsesivo, su popcorn de sabores y ser el parque con más visitantes repetidores del mundo. — EN EL PLAN: jue 15 · 05:30<br/><a href="https://www.google.com/maps/search/?api=1&amp;query=Tokyo%20Disneyland">Abrir en Google Maps</a>]]></description><Point><coordinates>139.881417,35.632659,0</coordinates></Point></Placemark>
</Folder></Document></kml>