<?xml version="1.0" encoding="UTF-8"?>
<kml xmlns="http://www.opengis.net/kml/2.2"><Document><name>mié 7 · Nara</name><description>Recorrido del día: gruesa=transporte (color oficial) · delgada=a pie · ＞ sentido · paradas con hora y punto estricto · coordenadas Google.</description><Style id="p1"><IconStyle><scale>0.9</scale><Icon><href>https://maps.google.com/mapfiles/kml/paddle/1.png</href></Icon></IconStyle></Style><Style id="p2"><IconStyle><scale>0.9</scale><Icon><href>https://maps.google.com/mapfiles/kml/paddle/2.png</href></Icon></IconStyle></Style><Style id="p3"><IconStyle><scale>0.9</scale><Icon><href>https://maps.google.com/mapfiles/kml/paddle/3.png</href></Icon></IconStyle></Style><Style id="p4"><IconStyle><scale>0.9</scale><Icon><href>https://maps.google.com/mapfiles/kml/paddle/4.png</href></Icon></IconStyle></Style><Style id="p5"><IconStyle><scale>0.9</scale><Icon><href>https://maps.google.com/mapfiles/kml/paddle/5.png</href></Icon></IconStyle></Style><Style id="p6"><IconStyle><scale>0.9</scale><Icon><href>https://maps.google.com/mapfiles/kml/paddle/6.png</href></Icon></IconStyle></Style><Style id="p7"><IconStyle><scale>0.9</scale><Icon><href>https://maps.google.com/mapfiles/kml/paddle/7.png</href></Icon></IconStyle></Style><Style id="p8"><IconStyle><scale>0.9</scale><Icon><href>https://maps.google.com/mapfiles/kml/paddle/8.png</href></Icon></IconStyle></Style><Style id="p9"><IconStyle><scale>0.9</scale><Icon><href>https://maps.google.com/mapfiles/kml/paddle/9.png</href></Icon></IconStyle></Style><Style id="p10"><IconStyle><scale>0.9</scale><Icon><href>https://maps.google.com/mapfiles/kml/paddle/10.png</href></Icon></IconStyle></Style><Style id="lffb76b0d6"><LineStyle><color>ffb76b0d</color><width>6</width></LineStyle></Style><Style id="lff1700806"><LineStyle><color>ff170080</color><width>6</width></LineStyle></Style><Style id="lb8636f7a3"><LineStyle><color>b8636f7a</color><width>3</width></LineStyle></Style><Style id="lff8628526"><LineStyle><color>ff862852</color><width>6</width></LineStyle></Style><Style id="lff934de46"><LineStyle><color>ff934de4</color><width>6</width></LineStyle></Style><Style id="lff1f17e56"><LineStyle><color>ff1f17e5</color><width>6</width></LineStyle></Style><Style id="lffa0501c6"><LineStyle><color>ffa0501c</color><width>6</width></LineStyle></Style><Style id="lff00d4ff6"><LineStyle><color>ff00d4ff</color><width>6</width></LineStyle></Style><Style id="lffaf5c006"><LineStyle><color>ffaf5c00</color><width>6</width></LineStyle></Style><Style id="lff4499006"><LineStyle><color>ff449900</color><width>6</width></LineStyle></Style><Style id="lff2147816"><LineStyle><color>ff214781</color><width>6</width></LineStyle></Style><Style id="lff669a016"><LineStyle><color>ff669a01</color><width>6</width></LineStyle></Style><Style id="lff0000e86"><LineStyle><color>ff0000e8</color><width>6</width></LineStyle></Style><Style id="lff2900d76"><LineStyle><color>ff2900d7</color><width>6</width></LineStyle></Style><Style id="lffa557276"><LineStyle><color>ffa55727</color><width>6</width></LineStyle></Style><Style id="lff1fc38f6"><LineStyle><color>ff1fc38f</color><width>6</width></LineStyle></Style><Style id="lff9933666"><LineStyle><color>ff993366</color><width>6</width></LineStyle></Style><Style id="lff2b4a7a6"><LineStyle><color>ff2b4a7a</color><width>6</width></LineStyle></Style><Style id="lff0c86c76"><LineStyle><color>ff0c86c7</color><width>6</width></LineStyle></Style><Style id="lff225af16"><LineStyle><color>ff225af1</color><width>6</width></LineStyle></Style><Style id="lff0097f36"><LineStyle><color>ff0097f3</color><width>6</width></LineStyle></Style><Style id="lffc36c0f6"><LineStyle><color>ffc36c0f</color><width>6</width></LineStyle></Style><Style id="lff656eec6"><LineStyle><color>ff656eec</color><width>6</width></LineStyle></Style><Style id="lffa0862c6"><LineStyle><color>ffa0862c</color><width>6</width></LineStyle></Style><Style id="lff2f25c96"><LineStyle><color>ff2f25c9</color><width>6</width></LineStyle></Style><Style id="lff32cd9a6"><LineStyle><color>ff32cd9a</color><width>6</width></LineStyle></Style><Style id="lff301be26"><LineStyle><color>ff301be2</color><width>6</width></LineStyle></Style><Style id="lff0388006"><LineStyle><color>ff038800</color><width>6</width></LineStyle></Style><Style id="lff9c46296"><LineStyle><color>ff9c4629</color><width>6</width></LineStyle></Style><Style id="lff1200e66"><LineStyle><color>ff1200e6</color><width>6</width></LineStyle></Style><Style id="lffb7ae9c6"><LineStyle><color>ffb7ae9c</color><width>6</width></LineStyle></Style><Style id="lff207bf46"><LineStyle><color>ff207bf4</color><width>6</width></LineStyle></Style><Folder><name>mié 7 · Nara</name>
<Placemark><name>1. 06:30 · Parque de Nara (d7)</name><styleUrl>#p1</styleUrl><description><![CDATA[Hora del plan: 06:30. ⏰ SIGUIENTE PUNTO ESTRICTO del día: 07:40 — Tōdai-ji (reserva/transporte: NO se puede llegar tarde).]]></description><Point><coordinates>135.843012,34.685047,0</coordinates></Point></Placemark>
<Placemark><name>2. 07:30 · Tōdai-ji (d7)</name><styleUrl>#p2</styleUrl><description><![CDATA[Hora del plan: 07:30. ⏰ SIGUIENTE PUNTO ESTRICTO del día: 07:40 — Tōdai-ji (reserva/transporte: NO se puede llegar tarde).]]></description><Point><coordinates>135.839816,34.688985,0</coordinates></Point></Placemark>
<Placemark><name>3. 09:35 · Kasuga Taisha (d7)</name><styleUrl>#p3</styleUrl><description><![CDATA[Hora del plan: 09:35. ⏰ SIGUIENTE PUNTO ESTRICTO del día: 15:30 — Osaka-Namba (reserva/transporte: NO se puede llegar tarde).]]></description><Point><coordinates>135.848472,34.681545,0</coordinates></Point></Placemark>
<Placemark><name>4. 10:50 · Kōfuku-ji (d7)</name><styleUrl>#p4</styleUrl><description><![CDATA[Hora del plan: 10:50. ⏰ SIGUIENTE PUNTO ESTRICTO del día: 15:30 — Osaka-Namba (reserva/transporte: NO se puede llegar tarde).]]></description><Point><coordinates>135.831159,34.683231,0</coordinates></Point></Placemark>
<Placemark><name>5. 11:50 · Naramachi (d7)</name><styleUrl>#p5</styleUrl><description><![CDATA[Hora del plan: 11:50. ⏰ SIGUIENTE PUNTO ESTRICTO del día: 15:30 — Osaka-Namba (reserva/transporte: NO se puede llegar tarde).]]></description><Point><coordinates>135.834834,34.676001,0</coordinates></Point></Placemark>
<Placemark><name>6. 13:45 · Jardín Yoshikien (d7)</name><styleUrl>#p6</styleUrl><description><![CDATA[Hora del plan: 13:45. ⏰ SIGUIENTE PUNTO ESTRICTO del día: 15:30 — Osaka-Namba (reserva/transporte: NO se puede llegar tarde).]]></description><Point><coordinates>135.836310,34.685476,0</coordinates></Point></Placemark>
<Placemark><name>d7·1 🚇 05:20 Metro Sakaisuji: Kitahama → Nippombashi ⇒ Parque de Nara</name><styleUrl>#lff2147816</styleUrl><description><![CDATA[SALE 05:20 de Kitahama → LLEGA a Nippombashi · Metro Sakaisuji — sentido Tengachaya (3 tramos) · rumbo del plan: Parque de Nara]]></description><MultiGeometry><LineString><tessellate>1</tessellate><coordinates>135.506652,34.691696,0 135.506976,34.681829,0 135.506331,34.674460,0 135.506120,34.666968,0</coordinates></LineString><LineString><tessellate>1</tessellate><coordinates>135.506962,34.687030,0 135.506814,34.686747,0 135.506648,34.687023,0</coordinates></LineString><LineString><tessellate>1</tessellate><coordinates>135.507154,34.682067,0 135.506973,34.681799,0 135.506841,34.682086,0</coordinates></LineString><LineString><tessellate>1</tessellate><coordinates>135.506722,34.677129,0 135.506541,34.676861,0 135.506409,34.677148,0</coordinates></LineString><LineString><tessellate>1</tessellate><coordinates>135.506424,34.672193,0 135.506259,34.671917,0 135.506110,34.672199,0</coordinates></LineString></MultiGeometry></Placemark>
<Placemark><name>d7·2 🚶 Nippombashi → Osaka-Namba ⇒ Parque de Nara</name><styleUrl>#lb8636f7a3</styleUrl><description><![CDATA[caminando · rumbo del plan: Parque de Nara]]></description><MultiGeometry><LineString><tessellate>1</tessellate><coordinates>135.506116,34.666968,0 135.506119,34.667130,0 135.505944,34.667140,0 135.505947,34.667192,0 135.505947,34.667244,0 135.505665,34.667250,0 135.505636,34.667262,0 135.505608,34.667277,0 135.505526,34.667279,0 135.505253,34.667288,0 135.505207,34.667271,0 135.505155,34.667259,0 135.504936,34.667265,0 135.504346,34.667272,0 135.504289,34.667273,0 135.504253,34.667272,0 135.504225,34.667272,0 135.504201,34.667272,0 135.503775,34.667283,0 135.503457,34.667288,0 135.503389,34.667290,0 135.503141,34.667293,0 135.503025,34.667298,0 135.502407,34.667302,0 135.502310,34.667305,0 135.502183,34.667308,0 135.501461,34.667322,0 135.501357,34.667324,0 135.501223,34.667327,0 135.500885,34.667334,0 135.500659,34.667338,0 135.500530,34.667341,0 135.500531,34.667268,0 135.500531,34.667234,0 135.500530,34.667029,0 135.500530,34.666995,0 135.500528,34.666919,0 135.500454,34.666908,0 135.500402,34.666909,0 135.500353,34.666909,0 135.500296,34.666910,0 135.500149,34.666908,0 135.500139,34.666928,0 135.500017,34.666928,0 135.499847,34.666928,0 135.499420,34.666929,0 135.499318,34.666931,0 135.498827,34.666941,0 135.498509,34.666948,0 135.498202,34.666985,0 135.498189,34.666986,0 135.498117,34.666995,0 135.498018,34.667009,0 135.497989,34.667011,0 135.497929,34.667015,0 135.497885,34.667018,0 135.497824,34.667022,0 135.497793,34.667106,0 135.497606,34.667137,0 135.497531,34.667158,0 135.497492,34.667168,0 135.497404,34.667160,0 135.497226,34.667112,0 135.497046,34.667064,0 135.497016,34.667095,0 135.496980,34.667097,0 135.496951,34.667086,0 135.496893,34.667098,0 135.496835,34.667112,0 135.496841,34.667131,0 135.496815,34.667135,0 135.496791,34.667138,0 135.496759,34.667143,0 135.496705,34.667151,0 135.496687,34.667198,0 135.496624,34.667218,0 135.496592,34.667237,0 135.496539,34.667245,0 135.496512,34.667237,0 135.496405,34.667259,0 135.496387,34.667195,0 135.496406,34.667192,0 135.496409,34.667198,0 135.496427,34.667195,0 135.496597,34.667163,0 135.496625,34.667159,0 135.496622,34.667151,0 135.496651,34.667148,0 135.496687,34.667146,0 135.496826,34.667432,0 135.498550,34.667145,0 135.500342,34.667113,0</coordinates></LineString><LineString><tessellate>1</tessellate><coordinates>135.503647,34.667198,0 135.503433,34.667289,0 135.503654,34.667366,0</coordinates></LineString><LineString><tessellate>1</tessellate><coordinates>135.500633,34.667420,0 135.500531,34.667239,0 135.500429,34.667420,0</coordinates></LineString><LineString><tessellate>1</tessellate><coordinates>135.498121,34.666918,0 135.497912,34.667016,0 135.498137,34.667085,0</coordinates></LineString><LineString><tessellate>1</tessellate><coordinates>135.497147,34.667464,0 135.497340,34.667346,0 135.497107,34.667300,0</coordinates></LineString></MultiGeometry></Placemark>
<Placemark><name>d7·3 🚇 05:30 Kintetsu Nara Line: Osaka-Namba → Kintetsu-Nara ⇒ Parque de Nara</name><styleUrl>#lff2900d76</styleUrl><description><![CDATA[SALE 05:30 de Osaka-Namba → LLEGA a Kintetsu-Nara · Kintetsu Nara Line — sentido Kintetsu-Nara (7 tramos) · rumbo del plan: Parque de Nara]]></description><MultiGeometry><LineString><tessellate>1</tessellate><coordinates>135.500342,34.667098,0 135.506063,34.666976,0 135.520150,34.665581,0 135.530318,34.665246,0 135.697921,34.693236,0 135.750546,34.697283,0 135.782681,34.693798,0 135.827528,34.684249,0</coordinates></LineString><LineString><tessellate>1</tessellate><coordinates>135.536690,34.666442,0 135.537051,34.666370,0 135.536752,34.666188,0</coordinates></LineString><LineString><tessellate>1</tessellate><coordinates>135.572914,34.672492,0 135.573275,34.672420,0 135.572976,34.672237,0</coordinates></LineString><LineString><tessellate>1</tessellate><coordinates>135.609139,34.678541,0 135.609500,34.678469,0 135.609201,34.678287,0</coordinates></LineString><LineString><tessellate>1</tessellate><coordinates>135.645363,34.684591,0 135.645724,34.684519,0 135.645425,34.684336,0</coordinates></LineString><LineString><tessellate>1</tessellate><coordinates>135.681588,34.690640,0 135.681949,34.690568,0 135.681650,34.690386,0</coordinates></LineString><LineString><tessellate>1</tessellate><coordinates>135.718150,34.694922,0 135.718499,34.694818,0 135.718179,34.694663,0</coordinates></LineString><LineString><tessellate>1</tessellate><coordinates>135.754974,34.696934,0 135.755287,34.696769,0 135.754933,34.696677,0</coordinates></LineString><LineString><tessellate>1</tessellate><coordinates>135.791439,34.692067,0 135.791726,34.691872,0 135.791361,34.691816,0</coordinates></LineString></MultiGeometry></Placemark>
<Placemark><name>d7·4 🚶 Kintetsu-Nara → Parque de Nara</name><styleUrl>#lb8636f7a3</styleUrl><description><![CDATA[caminando]]></description><MultiGeometry><LineString><tessellate>1</tessellate><coordinates>135.827517,34.684249,0 135.827517,34.684222,0 135.827623,34.684221,0 135.827708,34.684220,0 135.828091,34.684218,0 135.828569,34.684216,0 135.828677,34.684219,0 135.828757,34.684221,0 135.829170,34.684309,0 135.829428,34.684349,0 135.830623,34.684351,0 135.831801,34.684347,0 135.831872,34.684347,0 135.831950,34.684346,0 135.832729,34.684337,0 135.832958,34.684336,0 135.833042,34.684327,0 135.833126,34.684322,0 135.833962,34.684304,0 135.834150,34.684301,0 135.834351,34.684294,0 135.834615,34.684294,0 135.834818,34.684294,0 135.835274,34.684293,0 135.835778,34.684298,0 135.835907,34.684302,0 135.836233,34.684304,0 135.836409,34.684271,0 135.836490,34.684256,0 135.836817,34.684138,0 135.837421,34.683957,0 135.837449,34.684021,0 135.837464,34.684054,0 135.837797,34.683955,0 135.837975,34.683909,0 135.837995,34.683908,0 135.838055,34.683910,0 135.838138,34.683889,0 135.838193,34.683873,0 135.838228,34.683844,0 135.838773,34.683736,0 135.839016,34.683693,0 135.839601,34.683585,0 135.839697,34.683601,0 135.839758,34.683629,0 135.839894,34.683612,0 135.839961,34.683608,0 135.840019,34.683606,0 135.840019,34.683641,0 135.840077,34.683642,0 135.840306,34.683646,0 135.840308,34.683717,0 135.840476,34.683714,0 135.840742,34.683709,0 135.840745,34.683761,0 135.840946,34.683759,0 135.841055,34.683767,0 135.841130,34.683783,0 135.841218,34.683823,0 135.841291,34.683860,0 135.841399,34.683900,0 135.841492,34.683935,0 135.841629,34.683965,0 135.841754,34.683975,0 135.841901,34.683985,0 135.842009,34.683979,0 135.842079,34.683971,0 135.842178,34.683956,0 135.842252,34.684010,0 135.842368,34.684093,0 135.842499,34.684186,0 135.842593,34.684300,0 135.842651,34.684458,0 135.842755,34.684525,0 135.842904,34.684762,0 135.842887,34.685042,0</coordinates></LineString><LineString><tessellate>1</tessellate><coordinates>135.830047,34.684434,0 135.830265,34.684350,0 135.830048,34.684266,0</coordinates></LineString><LineString><tessellate>1</tessellate><coordinates>135.832853,34.684423,0 135.833063,34.684326,0 135.832839,34.684255,0</coordinates></LineString><LineString><tessellate>1</tessellate><coordinates>135.835640,34.684378,0 135.835861,34.684301,0 135.835648,34.684210,0</coordinates></LineString><LineString><tessellate>1</tessellate><coordinates>135.838259,34.683924,0 135.838447,34.683801,0 135.838211,34.683761,0</coordinates></LineString><LineString><tessellate>1</tessellate><coordinates>135.840792,34.683832,0 135.841018,34.683764,0 135.840810,34.683665,0</coordinates></LineString></MultiGeometry></Placemark>
<Placemark><name>d7·5 🚶 Parque de Nara → Tōdai-ji</name><styleUrl>#lb8636f7a3</styleUrl><description><![CDATA[caminando]]></description><MultiGeometry><LineString><tessellate>1</tessellate><coordinates>135.842887,34.685042,0 135.842882,34.685127,0 135.842888,34.685357,0 135.842894,34.685595,0 135.842891,34.685693,0 135.842880,34.685983,0 135.842874,34.686325,0 135.842885,34.686402,0 135.842894,34.686465,0 135.842718,34.686520,0 135.841831,34.686511,0 135.841833,34.686534,0 135.841837,34.686588,0 135.841841,34.686617,0 135.841841,34.686655,0 135.841845,34.686675,0 135.841103,34.686663,0 135.840711,34.686666,0 135.840692,34.686774,0 135.840694,34.686877,0 135.840740,34.687009,0 135.840751,34.687127,0 135.840768,34.687140,0 135.840820,34.687214,0 135.840857,34.687266,0 135.840862,34.687292,0 135.840885,34.687438,0 135.840897,34.687667,0 135.840894,34.687736,0 135.840895,34.687806,0 135.840771,34.687778,0 135.840719,34.687778,0 135.840666,34.687778,0 135.840665,34.687815,0 135.840665,34.687861,0 135.840035,34.687860,0 135.839861,34.687859,0 135.839861,34.687945,0 135.839861,34.687990,0 135.839860,34.688448,0 135.839846,34.688450,0 135.839833,34.688456,0 135.839823,34.688464,0 135.839817,34.688474,0 135.839815,34.688486,0 135.839817,34.688497,0 135.839823,34.688508,0 135.839833,34.688516,0 135.839846,34.688522,0 135.839860,34.688524,0 135.839856,34.688652,0 135.839854,34.688698,0 135.839816,34.688698,0</coordinates></LineString><LineString><tessellate>1</tessellate><coordinates>135.842250,34.686431,0 135.842031,34.686513,0 135.842247,34.686599,0</coordinates></LineString><LineString><tessellate>1</tessellate><coordinates>135.840778,34.687335,0 135.840889,34.687511,0 135.840981,34.687327,0</coordinates></LineString></MultiGeometry></Placemark>
<Placemark><name>d7·6 🚶 Tōdai-ji → Kasuga Taisha</name><styleUrl>#lb8636f7a3</styleUrl><description><![CDATA[caminando]]></description><MultiGeometry><LineString><tessellate>1</tessellate><coordinates>135.839816,34.688698,0 135.839854,34.688698,0 135.839856,34.688652,0 135.839860,34.688524,0 135.839846,34.688522,0 135.839833,34.688516,0 135.839823,34.688508,0 135.839817,34.688497,0 135.839815,34.688486,0 135.839817,34.688474,0 135.839823,34.688464,0 135.839833,34.688456,0 135.839846,34.688450,0 135.839860,34.688448,0 135.839861,34.687990,0 135.839861,34.687945,0 135.839861,34.687859,0 135.840035,34.687860,0 135.840665,34.687861,0 135.840665,34.687815,0 135.840666,34.687778,0 135.840719,34.687778,0 135.840771,34.687778,0 135.840895,34.687806,0 135.840894,34.687736,0 135.840897,34.687667,0 135.840885,34.687438,0 135.840862,34.687292,0 135.840857,34.687266,0 135.840820,34.687214,0 135.840768,34.687140,0 135.840751,34.687127,0 135.840740,34.687009,0 135.840694,34.686877,0 135.840692,34.686774,0 135.840711,34.686666,0 135.841103,34.686663,0 135.841845,34.686675,0 135.841943,34.686677,0 135.842209,34.686698,0 135.842375,34.686712,0 135.842601,34.686676,0 135.842680,34.686674,0 135.842734,34.686691,0 135.842776,34.686713,0 135.842811,34.686734,0 135.842893,34.686823,0 135.842946,34.686863,0 135.843010,34.686902,0 135.843255,34.687026,0 135.843282,34.687040,0 135.843471,34.687184,0 135.843548,34.687247,0 135.843659,34.687287,0 135.843938,34.687317,0 135.844294,34.687337,0 135.844309,34.687284,0 135.844318,34.687240,0 135.844334,34.687165,0 135.844372,34.687074,0 135.844452,34.686985,0 135.844724,34.686878,0 135.844949,34.686788,0 135.845126,34.686685,0 135.845255,34.686627,0 135.845528,34.686412,0 135.845552,34.686441,0 135.845857,34.686453,0 135.845886,34.686429,0 135.845926,34.686388,0 135.846092,34.686207,0 135.846293,34.685981,0 135.846457,34.685784,0 135.846538,34.685676,0 135.846614,34.685574,0 135.846722,34.685407,0 135.846866,34.685186,0 135.847079,34.684858,0 135.847050,34.684756,0 135.847021,34.684602,0 135.847031,34.684473,0 135.847038,34.684392,0 135.847067,34.684338,0 135.847027,34.684266,0 135.846986,34.684199,0 135.846922,34.683639,0 135.846933,34.683477,0 135.846939,34.683385,0 135.846946,34.683284,0 135.847101,34.683286,0 135.847135,34.682682,0 135.847165,34.682659,0 135.847175,34.682610,0 135.847260,34.682028,0 135.847292,34.681806,0 135.847486,34.681786,0 135.847521,34.681766,0 135.847655,34.681688,0 135.847666,34.681607,0 135.847666,34.681549,0 135.847667,34.681380,0 135.847817,34.681382,0 135.847919,34.681383,0 135.847930,34.681163,0 135.847991,34.681162,0 135.848015,34.681162,0 135.848112,34.681164,0 135.848385,34.681167,0 135.848385,34.681167,0</coordinates></LineString><LineString><tessellate>1</tessellate><coordinates>135.841039,34.687357,0 135.840841,34.687244,0 135.840864,34.687442,0</coordinates></LineString><LineString><tessellate>1</tessellate><coordinates>135.842638,34.686685,0 135.842851,34.686777,0 135.842799,34.686582,0</coordinates></LineString><LineString><tessellate>1</tessellate><coordinates>135.845010,34.686833,0 135.845153,34.686673,0 135.844913,34.686685,0</coordinates></LineString><LineString><tessellate>1</tessellate><coordinates>135.846969,34.685204,0 135.846983,34.685006,0 135.846790,34.685125,0</coordinates></LineString><LineString><tessellate>1</tessellate><coordinates>135.847222,34.682948,0 135.847130,34.682763,0 135.847019,34.682940,0</coordinates></LineString></MultiGeometry></Placemark>
<Placemark><name>d7·7 🚶 Kasuga Taisha → Kōfuku-ji</name><styleUrl>#lb8636f7a3</styleUrl><description><![CDATA[caminando]]></description><MultiGeometry><LineString><tessellate>1</tessellate><coordinates>135.848385,34.681167,0 135.848112,34.681164,0 135.848015,34.681162,0 135.847991,34.681162,0 135.847930,34.681163,0 135.847776,34.681088,0 135.847651,34.681045,0 135.847648,34.681007,0 135.847644,34.680952,0 135.847523,34.680926,0 135.847275,34.680872,0 135.847163,34.680819,0 135.847074,34.680900,0 135.846947,34.681027,0 135.846863,34.680973,0 135.846668,34.680976,0 135.846652,34.681043,0 135.846497,34.681255,0 135.846164,34.681527,0 135.846198,34.681565,0 135.846107,34.681656,0 135.846072,34.681654,0 135.846005,34.681600,0 135.845926,34.681573,0 135.845822,34.681597,0 135.845780,34.681622,0 135.845576,34.681677,0 135.845439,34.682082,0 135.845437,34.682143,0 135.845258,34.682133,0 135.845163,34.682136,0 135.845110,34.682140,0 135.845010,34.682148,0 135.844606,34.682146,0 135.844217,34.682213,0 135.844176,34.682213,0 135.843790,34.682207,0 135.843652,34.682201,0 135.843638,34.682200,0 135.843464,34.682230,0 135.843351,34.682143,0 135.843268,34.682155,0 135.843224,34.682155,0 135.842768,34.682150,0 135.842766,34.682220,0 135.842688,34.682276,0 135.842570,34.682367,0 135.842470,34.682445,0 135.842312,34.682548,0 135.842203,34.682607,0 135.842032,34.682696,0 135.841894,34.682778,0 135.841814,34.682821,0 135.841717,34.682841,0 135.841576,34.682855,0 135.841507,34.682895,0 135.841440,34.682977,0 135.841333,34.683012,0 135.841224,34.683043,0 135.841071,34.683159,0 135.840922,34.683226,0 135.840780,34.683223,0 135.840594,34.683259,0 135.840315,34.683326,0 135.840063,34.683388,0 135.840026,34.683388,0 135.839954,34.683389,0 135.839889,34.683388,0 135.839815,34.683387,0 135.839728,34.683443,0 135.839685,34.683463,0 135.839454,34.683506,0 135.838814,34.683608,0 135.838623,34.683646,0 135.838200,34.683741,0 135.837822,34.683821,0 135.837421,34.683957,0 135.836817,34.684138,0 135.836490,34.684256,0 135.836409,34.684271,0 135.836233,34.684304,0 135.835907,34.684302,0 135.835778,34.684298,0 135.835274,34.684293,0 135.834818,34.684294,0 135.834615,34.684294,0 135.834351,34.684294,0 135.834150,34.684301,0 135.833962,34.684304,0 135.833126,34.684322,0 135.833042,34.684327,0 135.832958,34.684336,0 135.832729,34.684337,0 135.831950,34.684346,0 135.831872,34.684347,0 135.831872,34.684226,0 135.831862,34.683140,0 135.831740,34.683141,0 135.831731,34.682675,0 135.831728,34.682534,0 135.831624,34.682535,0 135.831166,34.682536,0 135.831167,34.682580,0 135.831166,34.682590,0 135.831167,34.682650,0 135.831167,34.682706,0 135.831167,34.682730,0 135.831164,34.682888,0 135.831160,34.683127,0</coordinates></LineString><LineString><tessellate>1</tessellate><coordinates>135.845529,34.681505,0 135.845568,34.681702,0 135.845724,34.681551,0</coordinates></LineString><LineString><tessellate>1</tessellate><coordinates>135.842609,34.682221,0 135.842520,34.682406,0 135.842748,34.682344,0</coordinates></LineString><LineString><tessellate>1</tessellate><coordinates>135.839410,34.683427,0 135.839216,34.683544,0 135.839449,34.683593,0</coordinates></LineString><LineString><tessellate>1</tessellate><coordinates>135.835888,34.684215,0 135.835669,34.684297,0 135.835886,34.684383,0</coordinates></LineString><LineString><tessellate>1</tessellate><coordinates>135.832193,34.684259,0 135.831977,34.684346,0 135.832196,34.684427,0</coordinates></LineString></MultiGeometry></Placemark>
<Placemark><name>d7·8 🚶 Kōfuku-ji → Naramachi</name><styleUrl>#lb8636f7a3</styleUrl><description><![CDATA[caminando]]></description><MultiGeometry><LineString><tessellate>1</tessellate><coordinates>135.831160,34.683127,0 135.831160,34.683127,0 135.831164,34.682888,0 135.831167,34.682730,0 135.831167,34.682706,0 135.831167,34.682650,0 135.831166,34.682590,0 135.831167,34.682580,0 135.831166,34.682536,0 135.831624,34.682535,0 135.831728,34.682534,0 135.831720,34.682091,0 135.831859,34.682104,0 135.833120,34.682123,0 135.833212,34.682121,0 135.833212,34.682078,0 135.833212,34.682038,0 135.833418,34.682036,0 135.833811,34.682040,0 135.833855,34.682040,0 135.834018,34.682038,0 135.834346,34.682045,0 135.834538,34.682041,0 135.834613,34.682022,0 135.834671,34.681988,0 135.834678,34.681922,0 135.834694,34.681800,0 135.834745,34.681381,0 135.834747,34.681346,0 135.834758,34.681279,0 135.834787,34.681088,0 135.834825,34.680962,0 135.834878,34.680751,0 135.834907,34.680642,0 135.834918,34.680389,0 135.834899,34.680052,0 135.834875,34.679851,0 135.834851,34.679710,0 135.834840,34.679667,0 135.834831,34.679574,0 135.834915,34.679383,0 135.834977,34.679208,0 135.834988,34.679108,0 135.834984,34.678939,0 135.834980,34.678809,0 135.834969,34.678605,0 135.834930,34.678477,0 135.834926,34.678268,0 135.834945,34.678133,0 135.834956,34.677971,0 135.834934,34.677894,0 135.834920,34.677871,0 135.834895,34.677813,0 135.834826,34.677743,0 135.834793,34.677731,0 135.834793,34.677717,0 135.834790,34.677681,0 135.834783,34.677565,0 135.834781,34.677538,0 135.834758,34.677505,0 135.834788,34.677474,0 135.834816,34.677445,0 135.834829,34.677409,0 135.834827,34.677214,0 135.834810,34.677192,0 135.834809,34.677173,0 135.834808,34.677157,0 135.834823,34.677142,0 135.834823,34.677129,0 135.834825,34.676929,0 135.834810,34.676078,0 135.834787,34.676063,0 135.834787,34.676033,0 135.834840,34.676022,0</coordinates></LineString><LineString><tessellate>1</tessellate><coordinates>135.832146,34.682192,0 135.832366,34.682112,0 135.832150,34.682024,0</coordinates></LineString><LineString><tessellate>1</tessellate><coordinates>135.834756,34.682146,0 135.834674,34.681959,0 135.834554,34.682131,0</coordinates></LineString><LineString><tessellate>1</tessellate><coordinates>135.835008,34.680112,0 135.834886,34.679941,0 135.834806,34.680129,0</coordinates></LineString><LineString><tessellate>1</tessellate><coordinates>135.835095,34.678092,0 135.834946,34.677935,0 135.834897,34.678130,0</coordinates></LineString></MultiGeometry></Placemark>
<Placemark><name>d7·9 🚶 Naramachi → Jardín Yoshikien</name><styleUrl>#lb8636f7a3</styleUrl><description><![CDATA[caminando]]></description><MultiGeometry><LineString><tessellate>1</tessellate><coordinates>135.834840,34.676022,0 135.834787,34.676033,0 135.834787,34.676063,0 135.834810,34.676078,0 135.834825,34.676929,0 135.834823,34.677129,0 135.834823,34.677142,0 135.834808,34.677157,0 135.834809,34.677173,0 135.834810,34.677192,0 135.834827,34.677214,0 135.834829,34.677409,0 135.834816,34.677445,0 135.834788,34.677474,0 135.834758,34.677505,0 135.834781,34.677538,0 135.834783,34.677565,0 135.834790,34.677681,0 135.834793,34.677717,0 135.834793,34.677731,0 135.834826,34.677743,0 135.834895,34.677813,0 135.834920,34.677871,0 135.834934,34.677894,0 135.834956,34.677971,0 135.834945,34.678133,0 135.834926,34.678268,0 135.834930,34.678477,0 135.834969,34.678605,0 135.834980,34.678809,0 135.834984,34.678939,0 135.834988,34.679108,0 135.834977,34.679208,0 135.834915,34.679383,0 135.834831,34.679574,0 135.834840,34.679667,0 135.834851,34.679710,0 135.834875,34.679851,0 135.834899,34.680052,0 135.834918,34.680389,0 135.834907,34.680642,0 135.834878,34.680751,0 135.834825,34.680962,0 135.834787,34.681088,0 135.834758,34.681279,0 135.834747,34.681346,0 135.834745,34.681381,0 135.834694,34.681800,0 135.834678,34.681922,0 135.834671,34.681988,0 135.834613,34.682022,0 135.834614,34.682089,0 135.834615,34.682161,0 135.834659,34.682201,0 135.834700,34.682271,0 135.834692,34.682714,0 135.834637,34.682714,0 135.834635,34.683362,0 135.834616,34.683467,0 135.834650,34.683611,0 135.834640,34.683673,0 135.834581,34.683761,0 135.834477,34.683850,0 135.834447,34.683900,0 135.834348,34.684141,0 135.834309,34.684175,0 135.834272,34.684184,0 135.834147,34.684189,0 135.834150,34.684301,0 135.834351,34.684294,0 135.834615,34.684294,0 135.834615,34.684603,0 135.834817,34.684603,0 135.834816,34.684690,0 135.834858,34.684691,0 135.834860,34.684553,0 135.834806,34.684613,0 135.834793,34.684680,0 135.834776,34.685573,0 135.834775,34.685661,0 135.834774,34.685705,0 135.835081,34.685715,0 135.835623,34.685721,0 135.836409,34.685732,0 135.836427,34.685708,0 135.836564,34.685692,0 135.836596,34.685693,0 135.836616,34.685701,0 135.836627,34.685701,0 135.836625,34.685688,0 135.836607,34.685665,0 135.836586,34.685649,0 135.836537,34.685653,0 135.836496,34.685648,0 135.836491,34.685630,0 135.836489,34.685591,0 135.836496,34.685533,0 135.836496,34.685475,0</coordinates></LineString><LineString><tessellate>1</tessellate><coordinates>135.834862,34.677864,0 135.834951,34.678049,0 135.835064,34.677874,0</coordinates></LineString><LineString><tessellate>1</tessellate><coordinates>135.834794,34.679993,0 135.834906,34.680170,0 135.834997,34.679986,0</coordinates></LineString><LineString><tessellate>1</tessellate><coordinates>135.834506,34.682132,0 135.834692,34.682258,0 135.834688,34.682059,0</coordinates></LineString><LineString><tessellate>1</tessellate><coordinates>135.834401,34.684095,0 135.834189,34.684187,0 135.834411,34.684263,0</coordinates></LineString><LineString><tessellate>1</tessellate><coordinates>135.834681,34.685238,0 135.834779,34.685419,0 135.834884,34.685240,0</coordinates></LineString></MultiGeometry></Placemark>
<Placemark><name>d7·10 🚶 Jardín Yoshikien → Kintetsu-Nara ⇒ hotel</name><styleUrl>#lb8636f7a3</styleUrl><description><![CDATA[caminando · rumbo del plan: hotel]]></description><MultiGeometry><LineString><tessellate>1</tessellate><coordinates>135.836496,34.685475,0 135.836496,34.685533,0 135.836489,34.685591,0 135.836491,34.685630,0 135.836496,34.685648,0 135.836537,34.685653,0 135.836586,34.685649,0 135.836607,34.685665,0 135.836625,34.685688,0 135.836627,34.685701,0 135.836616,34.685701,0 135.836596,34.685693,0 135.836564,34.685692,0 135.836427,34.685708,0 135.836409,34.685732,0 135.835623,34.685721,0 135.835081,34.685715,0 135.834774,34.685705,0 135.834705,34.685693,0 135.834576,34.685672,0 135.834574,34.685731,0 135.834528,34.685716,0 135.834342,34.685701,0 135.834080,34.685683,0 135.833916,34.685681,0 135.833389,34.685682,0 135.833113,34.685679,0 135.833027,34.685674,0 135.832925,34.685673,0 135.832164,34.685673,0 135.832074,34.685673,0 135.831921,34.685674,0 135.831875,34.685671,0 135.831841,34.685671,0 135.831841,34.685646,0 135.831840,34.685589,0 135.831840,34.685502,0 135.831840,34.685419,0 135.831618,34.685371,0 135.831532,34.685352,0 135.831466,34.685328,0 135.831421,34.685301,0 135.831374,34.685272,0 135.831330,34.685186,0 135.831326,34.685123,0 135.831320,34.685072,0 135.831292,34.685019,0 135.831070,34.684602,0 135.831028,34.684602,0 135.830693,34.684600,0 135.830493,34.684599,0 135.829288,34.684592,0 135.828949,34.684542,0 135.828773,34.684543,0 135.828741,34.684542,0 135.828606,34.684541,0 135.828477,34.684462,0 135.827708,34.684471,0 135.827608,34.684472,0 135.827575,34.684472,0 135.827519,34.684504,0 135.827518,34.684369,0 135.827517,34.684273,0 135.827517,34.684249,0</coordinates></LineString><LineString><tessellate>1</tessellate><coordinates>135.834616,34.685639,0 135.834390,34.685705,0 135.834597,34.685806,0</coordinates></LineString><LineString><tessellate>1</tessellate><coordinates>135.831942,34.685717,0 135.831840,34.685536,0 135.831738,34.685717,0</coordinates></LineString><LineString><tessellate>1</tessellate><coordinates>135.830093,34.684513,0 135.829875,34.684595,0 135.830092,34.684681,0</coordinates></LineString></MultiGeometry></Placemark>
<Placemark><name>d7·11 🚇 15:30 Kintetsu Nara Line: Kintetsu-Nara → Osaka-Namba ⇒ hotel</name><styleUrl>#lff2900d76</styleUrl><description><![CDATA[SALE 15:30 de Kintetsu-Nara → LLEGA a Osaka-Namba · Kintetsu Nara Line — sentido Osaka-Namba / Amagasaki (7 tramos) · rumbo del plan: hotel]]></description><MultiGeometry><LineString><tessellate>1</tessellate><coordinates>135.827528,34.684249,0 135.782681,34.693798,0 135.750546,34.697283,0 135.697921,34.693236,0 135.530318,34.665246,0 135.520150,34.665581,0 135.506063,34.666976,0 135.500342,34.667098,0</coordinates></LineString><LineString><tessellate>1</tessellate><coordinates>135.792023,34.691675,0 135.791736,34.691870,0 135.792101,34.691926,0</coordinates></LineString><LineString><tessellate>1</tessellate><coordinates>135.755618,34.696602,0 135.755305,34.696767,0 135.755659,34.696860,0</coordinates></LineString><LineString><tessellate>1</tessellate><coordinates>135.718871,34.694716,0 135.718521,34.694820,0 135.718842,34.694975,0</coordinates></LineString><LineString><tessellate>1</tessellate><coordinates>135.682331,34.690499,0 135.681970,34.690572,0 135.682269,34.690754,0</coordinates></LineString><LineString><tessellate>1</tessellate><coordinates>135.646100,34.684449,0 135.645739,34.684521,0 135.646038,34.684704,0</coordinates></LineString><LineString><tessellate>1</tessellate><coordinates>135.609869,34.678398,0 135.609508,34.678471,0 135.609807,34.678653,0</coordinates></LineString><LineString><tessellate>1</tessellate><coordinates>135.573639,34.672348,0 135.573278,34.672420,0 135.573576,34.672603,0</coordinates></LineString><LineString><tessellate>1</tessellate><coordinates>135.537408,34.666297,0 135.537047,34.666370,0 135.537346,34.666552,0</coordinates></LineString></MultiGeometry></Placemark>
<Placemark><name>d7·12 🚶 Osaka-Namba → Nippombashi ⇒ hotel</name><styleUrl>#lb8636f7a3</styleUrl><description><![CDATA[caminando · rumbo del plan: hotel]]></description><MultiGeometry><LineString><tessellate>1</tessellate><coordinates>135.500342,34.667113,0 135.498550,34.667145,0 135.496826,34.667432,0 135.496687,34.667146,0 135.496651,34.667148,0 135.496622,34.667151,0 135.496620,34.667145,0 135.496593,34.667149,0 135.496422,34.667180,0 135.496404,34.667184,0 135.496406,34.667192,0 135.496387,34.667195,0 135.496405,34.667259,0 135.496512,34.667237,0 135.496539,34.667245,0 135.496592,34.667237,0 135.496624,34.667218,0 135.496687,34.667198,0 135.496705,34.667151,0 135.496759,34.667143,0 135.496791,34.667138,0 135.496815,34.667135,0 135.496841,34.667131,0 135.496835,34.667112,0 135.496893,34.667098,0 135.496951,34.667086,0 135.496980,34.667097,0 135.497016,34.667095,0 135.497046,34.667064,0 135.497226,34.667112,0 135.497404,34.667160,0 135.497492,34.667168,0 135.497531,34.667158,0 135.497606,34.667137,0 135.497793,34.667106,0 135.497824,34.667022,0 135.497885,34.667018,0 135.497929,34.667015,0 135.497989,34.667011,0 135.498018,34.667009,0 135.498117,34.666995,0 135.498189,34.666986,0 135.498202,34.666985,0 135.498509,34.666948,0 135.498827,34.666941,0 135.499318,34.666931,0 135.499420,34.666929,0 135.499847,34.666928,0 135.500017,34.666928,0 135.500139,34.666928,0 135.500149,34.666908,0 135.500296,34.666910,0 135.500353,34.666909,0 135.500402,34.666909,0 135.500454,34.666908,0 135.500528,34.666919,0 135.500530,34.666995,0 135.500530,34.667029,0 135.500531,34.667234,0 135.500531,34.667268,0 135.500530,34.667341,0 135.500659,34.667338,0 135.500885,34.667334,0 135.501223,34.667327,0 135.501357,34.667324,0 135.501461,34.667322,0 135.502183,34.667308,0 135.502310,34.667305,0 135.502407,34.667302,0 135.503025,34.667298,0 135.503141,34.667293,0 135.503389,34.667290,0 135.503457,34.667288,0 135.503775,34.667283,0 135.504201,34.667272,0 135.504225,34.667272,0 135.504253,34.667272,0 135.504289,34.667273,0 135.504346,34.667272,0 135.504936,34.667265,0 135.505155,34.667259,0 135.505207,34.667271,0 135.505253,34.667288,0 135.505526,34.667279,0 135.505608,34.667277,0 135.505636,34.667262,0 135.505665,34.667250,0 135.505947,34.667244,0 135.505947,34.667192,0 135.505944,34.667140,0 135.506119,34.667130,0 135.506116,34.666968,0</coordinates></LineString><LineString><tessellate>1</tessellate><coordinates>135.497534,34.667228,0 135.497340,34.667346,0 135.497574,34.667393,0</coordinates></LineString><LineString><tessellate>1</tessellate><coordinates>135.497704,34.667115,0 135.497912,34.667016,0 135.497687,34.666947,0</coordinates></LineString><LineString><tessellate>1</tessellate><coordinates>135.500429,34.667059,0 135.500531,34.667240,0 135.500633,34.667059,0</coordinates></LineString><LineString><tessellate>1</tessellate><coordinates>135.503219,34.667379,0 135.503433,34.667289,0 135.503212,34.667211,0</coordinates></LineString></MultiGeometry></Placemark>
<Placemark><name>d7·13 🚇 16:25 Metro Sakaisuji: Nippombashi → Kitahama ⇒ hotel</name><styleUrl>#lff2147816</styleUrl><description><![CDATA[SALE 16:25 de Nippombashi → LLEGA a Kitahama · Metro Sakaisuji — sentido Kita-Senri / Tenjimbashisuji (3 tramos) · rumbo del plan: hotel]]></description><MultiGeometry><LineString><tessellate>1</tessellate><coordinates>135.506120,34.666968,0 135.506331,34.674460,0 135.506976,34.681829,0 135.506652,34.691696,0</coordinates></LineString><LineString><tessellate>1</tessellate><coordinates>135.506095,34.671641,0 135.506259,34.671917,0 135.506408,34.671635,0</coordinates></LineString><LineString><tessellate>1</tessellate><coordinates>135.506360,34.676592,0 135.506541,34.676861,0 135.506673,34.676573,0</coordinates></LineString><LineString><tessellate>1</tessellate><coordinates>135.506792,34.681530,0 135.506973,34.681799,0 135.507105,34.681511,0</coordinates></LineString><LineString><tessellate>1</tessellate><coordinates>135.506666,34.686465,0 135.506814,34.686747,0 135.506980,34.686472,0</coordinates></LineString></MultiGeometry></Placemark>
</Folder></Document></kml>