<?xml version="1.0" encoding="UTF-8"?>
<kml xmlns="http://www.opengis.net/kml/2.2"><Document><name>mié 14 · Hakone</name><description>Recorrido del día: gruesa=transporte (color oficial) · delgada=a pie · ＞ sentido · paradas numeradas con hora y punto estricto.</description><Style id="p1"><IconStyle><scale>0.9</scale><Icon><href>https://maps.google.com/mapfiles/kml/paddle/1.png</href></Icon></IconStyle></Style><Style id="p2"><IconStyle><scale>0.9</scale><Icon><href>https://maps.google.com/mapfiles/kml/paddle/2.png</href></Icon></IconStyle></Style><Style id="p3"><IconStyle><scale>0.9</scale><Icon><href>https://maps.google.com/mapfiles/kml/paddle/3.png</href></Icon></IconStyle></Style><Style id="p4"><IconStyle><scale>0.9</scale><Icon><href>https://maps.google.com/mapfiles/kml/paddle/4.png</href></Icon></IconStyle></Style><Style id="p5"><IconStyle><scale>0.9</scale><Icon><href>https://maps.google.com/mapfiles/kml/paddle/5.png</href></Icon></IconStyle></Style><Style id="p6"><IconStyle><scale>0.9</scale><Icon><href>https://maps.google.com/mapfiles/kml/paddle/6.png</href></Icon></IconStyle></Style><Style id="p7"><IconStyle><scale>0.9</scale><Icon><href>https://maps.google.com/mapfiles/kml/paddle/7.png</href></Icon></IconStyle></Style><Style id="p8"><IconStyle><scale>0.9</scale><Icon><href>https://maps.google.com/mapfiles/kml/paddle/8.png</href></Icon></IconStyle></Style><Style id="p9"><IconStyle><scale>0.9</scale><Icon><href>https://maps.google.com/mapfiles/kml/paddle/9.png</href></Icon></IconStyle></Style><Style id="p10"><IconStyle><scale>0.9</scale><Icon><href>https://maps.google.com/mapfiles/kml/paddle/10.png</href></Icon></IconStyle></Style><Style id="lffb76b0d6"><LineStyle><color>ffb76b0d</color><width>6</width></LineStyle></Style><Style id="lff1700806"><LineStyle><color>ff170080</color><width>6</width></LineStyle></Style><Style id="lb8636f7a3"><LineStyle><color>b8636f7a</color><width>3</width></LineStyle></Style><Style id="lff8628526"><LineStyle><color>ff862852</color><width>6</width></LineStyle></Style><Style id="lff934de46"><LineStyle><color>ff934de4</color><width>6</width></LineStyle></Style><Style id="lff1f17e56"><LineStyle><color>ff1f17e5</color><width>6</width></LineStyle></Style><Style id="lffa0501c6"><LineStyle><color>ffa0501c</color><width>6</width></LineStyle></Style><Style id="lff00d4ff6"><LineStyle><color>ff00d4ff</color><width>6</width></LineStyle></Style><Style id="lffaf5c006"><LineStyle><color>ffaf5c00</color><width>6</width></LineStyle></Style><Style id="lff4499006"><LineStyle><color>ff449900</color><width>6</width></LineStyle></Style><Style id="lff2147816"><LineStyle><color>ff214781</color><width>6</width></LineStyle></Style><Style id="lff669a016"><LineStyle><color>ff669a01</color><width>6</width></LineStyle></Style><Style id="lff0000e86"><LineStyle><color>ff0000e8</color><width>6</width></LineStyle></Style><Style id="lff2900d76"><LineStyle><color>ff2900d7</color><width>6</width></LineStyle></Style><Style id="lffa557276"><LineStyle><color>ffa55727</color><width>6</width></LineStyle></Style><Style id="lff1fc38f6"><LineStyle><color>ff1fc38f</color><width>6</width></LineStyle></Style><Style id="lff9933666"><LineStyle><color>ff993366</color><width>6</width></LineStyle></Style><Style id="lff2b4a7a6"><LineStyle><color>ff2b4a7a</color><width>6</width></LineStyle></Style><Style id="lff0c86c76"><LineStyle><color>ff0c86c7</color><width>6</width></LineStyle></Style><Style id="lff225af16"><LineStyle><color>ff225af1</color><width>6</width></LineStyle></Style><Style id="lff0097f36"><LineStyle><color>ff0097f3</color><width>6</width></LineStyle></Style><Style id="lffc36c0f6"><LineStyle><color>ffc36c0f</color><width>6</width></LineStyle></Style><Style id="lff656eec6"><LineStyle><color>ff656eec</color><width>6</width></LineStyle></Style><Style id="lffa0862c6"><LineStyle><color>ffa0862c</color><width>6</width></LineStyle></Style><Style id="lff2f25c96"><LineStyle><color>ff2f25c9</color><width>6</width></LineStyle></Style><Style id="lff32cd9a6"><LineStyle><color>ff32cd9a</color><width>6</width></LineStyle></Style><Style id="lff301be26"><LineStyle><color>ff301be2</color><width>6</width></LineStyle></Style><Style id="lff0388006"><LineStyle><color>ff038800</color><width>6</width></LineStyle></Style><Style id="lff9c46296"><LineStyle><color>ff9c4629</color><width>6</width></LineStyle></Style><Style id="lff1200e66"><LineStyle><color>ff1200e6</color><width>6</width></LineStyle></Style><Style id="lffb7ae9c6"><LineStyle><color>ffb7ae9c</color><width>6</width></LineStyle></Style><Style id="lff207bf46"><LineStyle><color>ff207bf4</color><width>6</width></LineStyle></Style><Folder><name>mié 14 · Hakone</name>
<Placemark><name>1. 08:00 · Monte Fuji (d14)</name><styleUrl>#p1</styleUrl><description><![CDATA[Hora del plan: 08:00. ⏰ SIGUIENTE PUNTO ESTRICTO del día: 08:00 — SALE EL TOUR (reserva/transporte: NO se puede llegar tarde).]]></description><Point><coordinates>138.730768,35.362838,0</coordinates></Point></Placemark>
<Placemark><name>2. 08:00 · Teleférico de Hakone (d14)</name><styleUrl>#p2</styleUrl><description><![CDATA[Hora del plan: 08:00. ⏰ SIGUIENTE PUNTO ESTRICTO del día: 08:00 — SALE EL TOUR (reserva/transporte: NO se puede llegar tarde).]]></description><Point><coordinates>139.005961,35.244522,0</coordinates></Point></Placemark>
<Placemark><name>3. 08:00 · Ōwakudani (d14)</name><styleUrl>#p3</styleUrl><description><![CDATA[Hora del plan: 08:00. ⏰ SIGUIENTE PUNTO ESTRICTO del día: 08:00 — SALE EL TOUR (reserva/transporte: NO se puede llegar tarde).]]></description><Point><coordinates>139.024205,35.247406,0</coordinates></Point></Placemark>
<Placemark><name>4. 08:00 · Lago Ashi (d14)</name><styleUrl>#p4</styleUrl><description><![CDATA[Hora del plan: 08:00. ⏰ SIGUIENTE PUNTO ESTRICTO del día: 08:00 — SALE EL TOUR (reserva/transporte: NO se puede llegar tarde).]]></description><Point><coordinates>139.001997,35.214483,0</coordinates></Point></Placemark>
<Placemark><name>5. 08:00 · Santuario de Hakone (Motomiya) (d14)</name><styleUrl>#p5</styleUrl><description><![CDATA[Hora del plan: 08:00. ⏰ SIGUIENTE PUNTO ESTRICTO del día: 08:00 — SALE EL TOUR (reserva/transporte: NO se puede llegar tarde).]]></description><Point><coordinates>139.025583,35.203973,0</coordinates></Point></Placemark>
<Placemark><name>d14·1 🚶 Hotel → Shinjuku ⇒ Monte Fuji</name><styleUrl>#lb8636f7a3</styleUrl><description><![CDATA[caminando · rumbo del plan: Monte Fuji]]></description><MultiGeometry><LineString><tessellate>1</tessellate><coordinates>139.693103,35.694399,0 139.693088,35.694372,0 139.693148,35.694243,0 139.693106,35.694173,0 139.693304,35.694117,0 139.693933,35.693938,0 139.693981,35.693923,0 139.694024,35.693910,0 139.694312,35.693827,0 139.694374,35.693809,0 139.694530,35.693766,0 139.694785,35.693696,0 139.694833,35.693653,0 139.694923,35.693625,0 139.695025,35.693590,0 139.695080,35.693575,0 139.695119,35.693563,0 139.695203,35.693584,0 139.695291,35.693558,0 139.695829,35.693402,0 139.696024,35.693345,0 139.696645,35.693165,0 139.696742,35.693136,0 139.696805,35.693112,0 139.696810,35.693109,0 139.696850,35.693074,0 139.696854,35.693071,0 139.696857,35.693013,0 139.696858,35.693007,0 139.696868,35.693004,0 139.697119,35.692981,0 139.697162,35.692900,0 139.697167,35.692896,0 139.697183,35.692881,0 139.697147,35.692869,0 139.697150,35.692864,0 139.697158,35.692850,0 139.697239,35.692870,0 139.697434,35.692718,0 139.697851,35.692378,0 139.697992,35.692258,0 139.698007,35.692215,0 139.698013,35.692182,0 139.698016,35.692171,0 139.698021,35.692144,0 139.698037,35.692120,0 139.698042,35.692053,0 139.698045,35.692011,0 139.698046,35.691997,0 139.698049,35.691968,0 139.698051,35.691944,0 139.698053,35.691924,0 139.698072,35.691662,0 139.698074,35.691642,0 139.698083,35.691518,0 139.698091,35.691413,0 139.698029,35.691344,0 139.698031,35.691300,0 139.698033,35.691266,0 139.698041,35.691125,0 139.698046,35.691035,0 139.698085,35.691024,0 139.698113,35.691005,0 139.698126,35.690983,0 139.698131,35.690962,0 139.698174,35.690379,0 139.698182,35.690321,0 139.698197,35.690279,0 139.698249,35.690233,0 139.698265,35.690220,0 139.698478,35.690160,0 139.698482,35.690095,0 139.698530,35.690064,0 139.698539,35.690002,0 139.698558,35.689870,0 139.698578,35.689727,0 139.698600,35.689573,0 139.698621,35.689430,0 139.698631,35.689353,0 139.698668,35.689128,0 139.698704,35.688896,0 139.698743,35.688873,0 139.698749,35.688820,0 139.698762,35.688726,0</coordinates></LineString><LineString><tessellate>1</tessellate><coordinates>139.695139,35.693691,0 139.695312,35.693552,0 139.695070,35.693533,0</coordinates></LineString><LineString><tessellate>1</tessellate><coordinates>139.697424,35.692845,0 139.697507,35.692658,0 139.697278,35.692726,0</coordinates></LineString><LineString><tessellate>1</tessellate><coordinates>139.698239,35.690892,0 139.698150,35.690707,0 139.698034,35.690882,0</coordinates></LineString></MultiGeometry></Placemark>
<Placemark><name>d14·2 🚇 07:00 JR Chūō Line (rápida): Shinjuku → Tokyo ⇒ Monte Fuji</name><styleUrl>#lff225af16</styleUrl><description><![CDATA[SALE 07:00 de Shinjuku → LLEGA a Tokyo · JR Chūō Line (rápida) — sentido Tokyo (4 tramos) · rumbo del plan: Monte Fuji]]></description><MultiGeometry><LineString><tessellate>1</tessellate><coordinates>139.698762,35.688726,0 139.729482,35.686205,0 139.764244,35.700397,0 139.770698,35.694473,0 139.764615,35.677700,0</coordinates></LineString><LineString><tessellate>1</tessellate><coordinates>139.709585,35.687969,0 139.709908,35.687811,0 139.709553,35.687710,0</coordinates></LineString><LineString><tessellate>1</tessellate><coordinates>139.720731,35.687054,0 139.721054,35.686897,0 139.720699,35.686795,0</coordinates></LineString><LineString><tessellate>1</tessellate><coordinates>139.731550,35.687195,0 139.731926,35.687203,0 139.731692,35.686962,0</coordinates></LineString><LineString><tessellate>1</tessellate><coordinates>139.741572,35.691286,0 139.741948,35.691294,0 139.741714,35.691054,0</coordinates></LineString><LineString><tessellate>1</tessellate><coordinates>139.751595,35.695378,0 139.751971,35.695386,0 139.751737,35.695145,0</coordinates></LineString><LineString><tessellate>1</tessellate><coordinates>139.761617,35.699470,0 139.761993,35.699478,0 139.761759,35.699237,0</coordinates></LineString><LineString><tessellate>1</tessellate><coordinates>139.769915,35.695387,0 139.770023,35.695092,0 139.769678,35.695214,0</coordinates></LineString><LineString><tessellate>1</tessellate><coordinates>139.768050,35.686715,0 139.767801,35.686484,0 139.767746,35.686789,0</coordinates></LineString></MultiGeometry></Placemark>
<Placemark><name>d14·3 🚶 Teleférico de Hakone → Ōwakudani</name><styleUrl>#lb8636f7a3</styleUrl><description><![CDATA[caminando]]></description><MultiGeometry><LineString><tessellate>1</tessellate><coordinates>139.005815,35.244572,0 139.005815,35.244572,0 139.005856,35.244685,0 139.005893,35.244775,0 139.005719,35.244826,0 139.005416,35.244768,0 139.005055,35.245043,0 139.004733,35.245229,0 139.004147,35.245351,0 139.003608,35.245704,0 139.003617,35.245826,0 139.003725,35.246498,0 139.003769,35.246699,0 139.003815,35.246969,0 139.003930,35.246917,0 139.004076,35.246849,0 139.004151,35.246814,0 139.004524,35.246641,0 139.004634,35.246610,0 139.004829,35.247758,0 139.004856,35.247931,0 139.004924,35.247947,0 139.005555,35.247924,0 139.005562,35.247930,0 139.006008,35.247913,0 139.006481,35.247885,0 139.006817,35.247868,0 139.006920,35.247857,0 139.007243,35.247834,0 139.007456,35.247817,0 139.007867,35.247761,0 139.008189,35.247705,0 139.008272,35.247699,0 139.008526,35.247654,0 139.008828,35.247575,0 139.008926,35.247560,0 139.009524,35.247416,0 139.010277,35.247202,0 139.010449,35.247383,0 139.010579,35.247627,0 139.010686,35.247884,0 139.010831,35.248205,0 139.010917,35.248402,0 139.010947,35.248572,0 139.010948,35.248775,0 139.010884,35.249006,0 139.010650,35.249640,0 139.010600,35.249849,0 139.010605,35.249952,0 139.010658,35.250054,0 139.010713,35.250101,0 139.010784,35.250130,0 139.010909,35.250119,0 139.011002,35.250089,0 139.011538,35.249651,0 139.012667,35.250589,0 139.012841,35.250731,0 139.012953,35.250801,0 139.013040,35.250841,0 139.013133,35.250867,0 139.013296,35.250879,0 139.013416,35.250865,0 139.013527,35.250832,0 139.013650,35.250783,0 139.013756,35.250704,0 139.013891,35.250566,0 139.014018,35.250432,0 139.014186,35.250271,0 139.014387,35.250136,0 139.014579,35.250032,0 139.014775,35.249957,0 139.014955,35.249858,0 139.015133,35.249770,0 139.015252,35.249753,0 139.015381,35.249764,0 139.015555,35.249811,0 139.015753,35.249928,0 139.016011,35.250076,0 139.016227,35.250188,0 139.016447,35.250225,0 139.016633,35.250213,0 139.016772,35.250170,0 139.017005,35.250056,0 139.017250,35.249917,0 139.018266,35.249285,0 139.018420,35.249210,0 139.018548,35.249190,0 139.018780,35.249205,0 139.019624,35.249283,0 139.019775,35.249269,0 139.019903,35.249217,0 139.020033,35.249149,0 139.020148,35.249077,0 139.020324,35.249040,0 139.020397,35.249047,0 139.020488,35.249074,0 139.020543,35.249107,0 139.020586,35.249146,0 139.020615,35.249201,0 139.020624,35.249253,0 139.020636,35.249297,0 139.020669,35.249516,0 139.020676,35.249578,0 139.020700,35.249654,0 139.020738,35.249834,0 139.020816,35.249980,0 139.020899,35.250076,0 139.021087,35.250287,0 139.021181,35.250454,0 139.021279,35.250682,0 139.021389,35.250967,0 139.021468,35.251094,0 139.021565,35.251192,0 139.022418,35.251697,0 139.022493,35.251742,0 139.022604,35.251783,0 139.022728,35.251791,0 139.022845,35.251779,0 139.022952,35.251762,0 139.023059,35.251743,0 139.023218,35.251674,0 139.023414,35.251548,0 139.023581,35.251440,0 139.024116,35.251088,0 139.024323,35.250938,0 139.024481,35.250778,0 139.024571,35.250629,0 139.024621,35.250502,0 139.024697,35.250360,0 139.024774,35.250296,0 139.024900,35.250219,0 139.025103,35.250095,0 139.025200,35.250039,0 139.025267,35.250011,0 139.025408,35.249988,0 139.025588,35.249993,0 139.025757,35.250001,0 139.025847,35.249982,0 139.025857,35.249979,0 139.025905,35.249944,0 139.025958,35.249883,0 139.025973,35.249769,0 139.025966,35.249653,0 139.025945,35.249562,0 139.025897,35.249454,0 139.025827,35.249333,0 139.025790,35.249230,0 139.025815,35.249156,0 139.025870,35.249101,0 139.026021,35.248962,0</coordinates></LineString><LineString><tessellate>1</tessellate><coordinates>139.004623,35.247154,0 139.004755,35.247321,0 139.004826,35.247131,0</coordinates></LineString><LineString><tessellate>1</tessellate><coordinates>139.010063,35.247114,0 139.010279,35.247204,0 139.010224,35.247010,0</coordinates></LineString><LineString><tessellate>1</tessellate><coordinates>139.012352,35.250447,0 139.012579,35.250516,0 139.012497,35.250328,0</coordinates></LineString><LineString><tessellate>1</tessellate><coordinates>139.017704,35.249740,0 139.017818,35.249564,0 139.017581,35.249606,0</coordinates></LineString><LineString><tessellate>1</tessellate><coordinates>139.021767,35.251415,0 139.022004,35.251452,0 139.021886,35.251278,0</coordinates></LineString></MultiGeometry></Placemark>
<Placemark><name>d14·4 🚡 tour: Ōwakudani → Lago Ashi</name><styleUrl>#lffa0862c6</styleUrl><description><![CDATA[tramo escénico del tour (teleférico/barco, esquemático)]]></description><MultiGeometry><LineString><tessellate>1</tessellate><coordinates>139.024205,35.247406,0 139.001997,35.214483,0</coordinates></LineString><LineString><tessellate>1</tessellate><coordinates>139.020806,35.242099,0 139.020504,35.241919,0 139.020530,35.242225,0</coordinates></LineString><LineString><tessellate>1</tessellate><coordinates>139.017105,35.236612,0 139.016802,35.236431,0 139.016828,35.236738,0</coordinates></LineString><LineString><tessellate>1</tessellate><coordinates>139.013403,35.231125,0 139.013101,35.230944,0 139.013127,35.231251,0</coordinates></LineString><LineString><tessellate>1</tessellate><coordinates>139.009702,35.225638,0 139.009399,35.225457,0 139.009426,35.225764,0</coordinates></LineString><LineString><tessellate>1</tessellate><coordinates>139.006001,35.220151,0 139.005698,35.219970,0 139.005724,35.220277,0</coordinates></LineString></MultiGeometry></Placemark>
<Placemark><name>d14·5 🚶 Lago Ashi → Santuario de Hakone (Motomiya)</name><styleUrl>#lb8636f7a3</styleUrl><description><![CDATA[caminando]]></description><MultiGeometry><LineString><tessellate>1</tessellate><coordinates>139.004356,35.216702,0 139.004466,35.216624,0 139.004679,35.216485,0 139.004813,35.216427,0 139.004975,35.216354,0 139.005111,35.216287,0 139.005246,35.216208,0 139.005349,35.216155,0 139.005485,35.216105,0 139.005693,35.216032,0 139.006015,35.215923,0 139.006169,35.215876,0 139.006237,35.215862,0 139.006343,35.215848,0 139.006512,35.215782,0 139.006579,35.215732,0 139.006636,35.215672,0 139.006677,35.215622,0 139.006712,35.215565,0 139.006747,35.215492,0 139.006784,35.215373,0 139.006805,35.215297,0 139.006833,35.215183,0 139.006864,35.215093,0 139.006931,35.215001,0 139.006987,35.214950,0 139.007046,35.214891,0 139.007210,35.214771,0 139.007362,35.214670,0 139.007499,35.214584,0 139.007625,35.214521,0 139.007794,35.214451,0 139.007987,35.214368,0 139.008241,35.214272,0 139.008355,35.214220,0 139.008823,35.214010,0 139.008878,35.213980,0 139.009013,35.213915,0 139.010055,35.213456,0 139.010206,35.213365,0 139.010227,35.213353,0 139.010247,35.213340,0 139.010273,35.213324,0 139.010298,35.213307,0 139.010322,35.213289,0 139.010346,35.213271,0 139.010369,35.213252,0 139.010391,35.213233,0 139.010467,35.213166,0 139.010892,35.212798,0 139.011288,35.212442,0 139.011350,35.212331,0 139.011376,35.212249,0 139.011450,35.212013,0 139.011460,35.211944,0 139.011500,35.211692,0 139.011532,35.211545,0 139.011607,35.211363,0 139.011728,35.211102,0 139.011793,35.210978,0 139.011862,35.210843,0 139.012075,35.210614,0 139.012276,35.210355,0 139.012337,35.210275,0 139.012511,35.210088,0 139.012591,35.210025,0 139.012677,35.209971,0 139.013105,35.209789,0 139.013418,35.209646,0 139.013549,35.209569,0 139.013651,35.209504,0 139.013701,35.209454,0 139.013749,35.209390,0 139.013779,35.209326,0 139.013839,35.209145,0 139.013858,35.209102,0 139.013893,35.209060,0 139.013932,35.209031,0 139.013981,35.209009,0 139.014173,35.208964,0 139.014215,35.208949,0 139.014258,35.208927,0 139.014293,35.208888,0 139.014302,35.208849,0 139.014303,35.208809,0 139.014239,35.208647,0 139.014227,35.208596,0 139.014238,35.208549,0 139.014257,35.208506,0 139.014296,35.208473,0 139.014372,35.208416,0 139.014460,35.208369,0 139.014512,35.208351,0 139.014739,35.208304,0 139.014779,35.208292,0 139.014818,35.208276,0 139.014867,35.208246,0 139.014923,35.208202,0 139.015070,35.208062,0 139.015245,35.207883,0 139.015276,35.207856,0 139.015325,35.207829,0 139.015389,35.207804,0 139.015443,35.207793,0 139.015500,35.207785,0 139.015556,35.207788,0 139.015640,35.207801,0 139.015755,35.207827,0 139.015973,35.207865,0 139.016050,35.207874,0 139.016129,35.207875,0 139.016213,35.207870,0 139.016430,35.207835,0 139.016706,35.207778,0 139.016747,35.207761,0 139.016776,35.207745,0 139.016795,35.207726,0 139.016827,35.207681,0 139.016840,35.207651,0 139.016846,35.207620,0 139.016878,35.207495,0 139.016917,35.207294,0 139.016989,35.206997,0 139.017015,35.206924,0 139.017047,35.206861,0 139.017078,35.206805,0 139.017130,35.206739,0 139.017459,35.206390,0 139.017491,35.206348,0 139.017612,35.206115,0 139.017645,35.206061,0 139.017674,35.206023,0 139.017711,35.205987,0 139.017854,35.205874,0 139.017856,35.205760,0 139.017910,35.205664,0 139.018058,35.205535,0 139.018223,35.205429,0 139.018314,35.205359,0 139.018428,35.205259,0 139.018615,35.205119,0 139.018869,35.205048,0 139.018971,35.204979,0 139.019045,35.204932,0 139.019114,35.204911,0 139.019152,35.204863,0 139.019247,35.204776,0 139.019489,35.204659,0 139.019792,35.204580,0 139.020205,35.204516,0 139.020387,35.204428,0 139.020930,35.204166,0 139.021368,35.204094,0 139.021592,35.204101,0 139.021630,35.204089,0 139.021959,35.203989,0 139.022237,35.203860,0 139.022343,35.203855,0 139.022427,35.203857,0 139.022438,35.203745,0 139.022877,35.203406,0 139.023059,35.203329,0 139.023245,35.203271,0 139.023382,35.203246,0 139.023518,35.203234,0 139.023841,35.203227,0 139.023953,35.203205,0 139.024042,35.203189,0 139.024170,35.203147,0 139.024247,35.203131,0 139.024603,35.203131,0 139.024751,35.203098,0 139.024923,35.203094,0 139.025078,35.203086,0 139.025403,35.202991,0 139.025518,35.202967,0 139.025702,35.202937,0 139.025653,35.203182,0 139.025621,35.203339,0 139.025587,35.203506,0 139.025573,35.203578,0 139.025494,35.203966,0 139.025582,35.203978,0</coordinates></LineString><LineString><tessellate>1</tessellate><coordinates>139.008135,35.214416,0 139.008278,35.214255,0 139.008036,35.214269,0</coordinates></LineString><LineString><tessellate>1</tessellate><coordinates>139.011631,35.211547,0 139.011614,35.211348,0 139.011440,35.211487,0</coordinates></LineString><LineString><tessellate>1</tessellate><coordinates>139.014469,35.208447,0 139.014657,35.208321,0 139.014419,35.208283,0</coordinates></LineString><LineString><tessellate>1</tessellate><coordinates>139.017866,35.205943,0 139.017865,35.205744,0 139.017680,35.205872,0</coordinates></LineString><LineString><tessellate>1</tessellate><coordinates>139.022076,35.203952,0 139.022289,35.203858,0 139.022065,35.203784,0</coordinates></LineString></MultiGeometry></Placemark>
<Placemark><name>d14·6 🚇 18:30 JR Chūō Line (rápida): Tokyo → Shinjuku ⇒ hotel</name><styleUrl>#lff225af16</styleUrl><description><![CDATA[SALE 18:30 de Tokyo → LLEGA a Shinjuku · JR Chūō Line (rápida) — sentido Nakano / Takao (4 tramos) · rumbo del plan: hotel]]></description><MultiGeometry><LineString><tessellate>1</tessellate><coordinates>139.764615,35.677700,0 139.770698,35.694473,0 139.764244,35.700397,0 139.729482,35.686205,0 139.698762,35.688726,0</coordinates></LineString><LineString><tessellate>1</tessellate><coordinates>139.767552,35.686254,0 139.767801,35.686484,0 139.767856,35.686180,0</coordinates></LineString><LineString><tessellate>1</tessellate><coordinates>139.770132,35.694797,0 139.770024,35.695092,0 139.770370,35.694970,0</coordinates></LineString><LineString><tessellate>1</tessellate><coordinates>139.762371,35.699487,0 139.761995,35.699478,0 139.762229,35.699719,0</coordinates></LineString><LineString><tessellate>1</tessellate><coordinates>139.752347,35.695394,0 139.751971,35.695386,0 139.752205,35.695627,0</coordinates></LineString><LineString><tessellate>1</tessellate><coordinates>139.742324,35.691302,0 139.741948,35.691294,0 139.742182,35.691535,0</coordinates></LineString><LineString><tessellate>1</tessellate><coordinates>139.732300,35.687210,0 139.731924,35.687202,0 139.732158,35.687443,0</coordinates></LineString><LineString><tessellate>1</tessellate><coordinates>139.721376,35.686740,0 139.721052,35.686897,0 139.721407,35.686998,0</coordinates></LineString><LineString><tessellate>1</tessellate><coordinates>139.710231,35.687654,0 139.709907,35.687811,0 139.710262,35.687913,0</coordinates></LineString></MultiGeometry></Placemark>
</Folder></Document></kml>