<?xml version="1.0" encoding="UTF-8"?>
<kml xmlns="http://www.opengis.net/kml/2.2"><Document><name>vie 16 · subgrupos</name><description>Recorrido del día: gruesa=transporte (color oficial) · delgada=a pie · ＞ sentido · paradas numeradas con hora y punto estricto.</description><Style id="p1"><IconStyle><scale>0.9</scale><Icon><href>https://maps.google.com/mapfiles/kml/paddle/1.png</href></Icon></IconStyle></Style><Style id="p2"><IconStyle><scale>0.9</scale><Icon><href>https://maps.google.com/mapfiles/kml/paddle/2.png</href></Icon></IconStyle></Style><Style id="p3"><IconStyle><scale>0.9</scale><Icon><href>https://maps.google.com/mapfiles/kml/paddle/3.png</href></Icon></IconStyle></Style><Style id="p4"><IconStyle><scale>0.9</scale><Icon><href>https://maps.google.com/mapfiles/kml/paddle/4.png</href></Icon></IconStyle></Style><Style id="p5"><IconStyle><scale>0.9</scale><Icon><href>https://maps.google.com/mapfiles/kml/paddle/5.png</href></Icon></IconStyle></Style><Style id="p6"><IconStyle><scale>0.9</scale><Icon><href>https://maps.google.com/mapfiles/kml/paddle/6.png</href></Icon></IconStyle></Style><Style id="p7"><IconStyle><scale>0.9</scale><Icon><href>https://maps.google.com/mapfiles/kml/paddle/7.png</href></Icon></IconStyle></Style><Style id="p8"><IconStyle><scale>0.9</scale><Icon><href>https://maps.google.com/mapfiles/kml/paddle/8.png</href></Icon></IconStyle></Style><Style id="p9"><IconStyle><scale>0.9</scale><Icon><href>https://maps.google.com/mapfiles/kml/paddle/9.png</href></Icon></IconStyle></Style><Style id="p10"><IconStyle><scale>0.9</scale><Icon><href>https://maps.google.com/mapfiles/kml/paddle/10.png</href></Icon></IconStyle></Style><Style id="lffb76b0d6"><LineStyle><color>ffb76b0d</color><width>6</width></LineStyle></Style><Style id="lff1700806"><LineStyle><color>ff170080</color><width>6</width></LineStyle></Style><Style id="lb8636f7a3"><LineStyle><color>b8636f7a</color><width>3</width></LineStyle></Style><Style id="lff8628526"><LineStyle><color>ff862852</color><width>6</width></LineStyle></Style><Style id="lff934de46"><LineStyle><color>ff934de4</color><width>6</width></LineStyle></Style><Style id="lff1f17e56"><LineStyle><color>ff1f17e5</color><width>6</width></LineStyle></Style><Style id="lffa0501c6"><LineStyle><color>ffa0501c</color><width>6</width></LineStyle></Style><Style id="lff00d4ff6"><LineStyle><color>ff00d4ff</color><width>6</width></LineStyle></Style><Style id="lffaf5c006"><LineStyle><color>ffaf5c00</color><width>6</width></LineStyle></Style><Style id="lff4499006"><LineStyle><color>ff449900</color><width>6</width></LineStyle></Style><Style id="lff2147816"><LineStyle><color>ff214781</color><width>6</width></LineStyle></Style><Style id="lff669a016"><LineStyle><color>ff669a01</color><width>6</width></LineStyle></Style><Style id="lff0000e86"><LineStyle><color>ff0000e8</color><width>6</width></LineStyle></Style><Style id="lff2900d76"><LineStyle><color>ff2900d7</color><width>6</width></LineStyle></Style><Style id="lffa557276"><LineStyle><color>ffa55727</color><width>6</width></LineStyle></Style><Style id="lff1fc38f6"><LineStyle><color>ff1fc38f</color><width>6</width></LineStyle></Style><Style id="lff9933666"><LineStyle><color>ff993366</color><width>6</width></LineStyle></Style><Style id="lff2b4a7a6"><LineStyle><color>ff2b4a7a</color><width>6</width></LineStyle></Style><Style id="lff0c86c76"><LineStyle><color>ff0c86c7</color><width>6</width></LineStyle></Style><Style id="lff225af16"><LineStyle><color>ff225af1</color><width>6</width></LineStyle></Style><Style id="lff0097f36"><LineStyle><color>ff0097f3</color><width>6</width></LineStyle></Style><Style id="lffc36c0f6"><LineStyle><color>ffc36c0f</color><width>6</width></LineStyle></Style><Style id="lff656eec6"><LineStyle><color>ff656eec</color><width>6</width></LineStyle></Style><Style id="lffa0862c6"><LineStyle><color>ffa0862c</color><width>6</width></LineStyle></Style><Style id="lff2f25c96"><LineStyle><color>ff2f25c9</color><width>6</width></LineStyle></Style><Style id="lff32cd9a6"><LineStyle><color>ff32cd9a</color><width>6</width></LineStyle></Style><Style id="lff301be26"><LineStyle><color>ff301be2</color><width>6</width></LineStyle></Style><Style id="lff0388006"><LineStyle><color>ff038800</color><width>6</width></LineStyle></Style><Style id="lff9c46296"><LineStyle><color>ff9c4629</color><width>6</width></LineStyle></Style><Style id="lff1200e66"><LineStyle><color>ff1200e6</color><width>6</width></LineStyle></Style><Style id="lffb7ae9c6"><LineStyle><color>ffb7ae9c</color><width>6</width></LineStyle></Style><Style id="lff207bf46"><LineStyle><color>ff207bf4</color><width>6</width></LineStyle></Style><Folder><name>vie 16 · subgrupos</name>
<Placemark><name>1. 07:00 · Gran Buda de Kamakura (d16)</name><styleUrl>#p1</styleUrl><description><![CDATA[Hora del plan: 07:00. ⏰ SIGUIENTE PUNTO ESTRICTO del día: 16:30 — punto fijo (reserva/transporte: NO se puede llegar tarde).]]></description><Point><coordinates>139.535721,35.316848,0</coordinates></Point></Placemark>
<Placemark><name>2. 08:40 · Hase-dera (Kamakura) (d16)</name><styleUrl>#p2</styleUrl><description><![CDATA[Hora del plan: 08:40. ⏰ SIGUIENTE PUNTO ESTRICTO del día: 16:30 — punto fijo (reserva/transporte: NO se puede llegar tarde).]]></description><Point><coordinates>139.533309,35.312269,0</coordinates></Point></Placemark>
<Placemark><name>3. 07:00 · Lago Kawaguchiko (d16)</name><styleUrl>#p3</styleUrl><description><![CDATA[Hora del plan: 07:00. ⏰ SIGUIENTE PUNTO ESTRICTO del día: 16:30 — punto fijo (reserva/transporte: NO se puede llegar tarde).]]></description><Point><coordinates>138.764493,35.527236,0</coordinates></Point></Placemark>
<Placemark><name>4. 10:30 · teamLab Planets (d16)</name><styleUrl>#p4</styleUrl><description><![CDATA[Hora del plan: 10:30. ⏰ SIGUIENTE PUNTO ESTRICTO del día: 16:30 — punto fijo (reserva/transporte: NO se puede llegar tarde).]]></description><Point><coordinates>139.789728,35.649380,0</coordinates></Point></Placemark>
<Placemark><name>5. 14:15 · Akihabara (d16)</name><styleUrl>#p5</styleUrl><description><![CDATA[Hora del plan: 14:15. ⏰ SIGUIENTE PUNTO ESTRICTO del día: 16:30 — punto fijo (reserva/transporte: NO se puede llegar tarde).]]></description><Point><coordinates>139.774368,35.701893,0</coordinates></Point></Placemark>
<Placemark><name>d16·1 🚶 Hotel → Shinjuku ⇒ Gran Buda de Kamakura</name><styleUrl>#lb8636f7a3</styleUrl><description><![CDATA[caminando · rumbo del plan: Gran Buda de Kamakura]]></description><MultiGeometry><LineString><tessellate>1</tessellate><coordinates>139.693103,35.694399,0 139.693088,35.694372,0 139.693148,35.694243,0 139.693106,35.694173,0 139.693304,35.694117,0 139.693933,35.693938,0 139.693981,35.693923,0 139.694024,35.693910,0 139.694312,35.693827,0 139.694374,35.693809,0 139.694530,35.693766,0 139.694785,35.693696,0 139.694833,35.693653,0 139.694923,35.693625,0 139.695025,35.693590,0 139.695080,35.693575,0 139.695119,35.693563,0 139.695203,35.693584,0 139.695291,35.693558,0 139.695829,35.693402,0 139.696024,35.693345,0 139.696645,35.693165,0 139.696742,35.693136,0 139.696805,35.693112,0 139.696810,35.693109,0 139.696850,35.693074,0 139.696854,35.693071,0 139.696857,35.693013,0 139.696858,35.693007,0 139.696868,35.693004,0 139.697119,35.692981,0 139.697162,35.692900,0 139.697167,35.692896,0 139.697183,35.692881,0 139.697147,35.692869,0 139.697150,35.692864,0 139.697158,35.692850,0 139.697239,35.692870,0 139.697434,35.692718,0 139.697851,35.692378,0 139.697992,35.692258,0 139.698007,35.692215,0 139.698013,35.692182,0 139.698016,35.692171,0 139.698021,35.692144,0 139.698037,35.692120,0 139.698042,35.692053,0 139.698045,35.692011,0 139.698046,35.691997,0 139.698049,35.691968,0 139.698051,35.691944,0 139.698053,35.691924,0 139.698072,35.691662,0 139.698074,35.691642,0 139.698083,35.691518,0 139.698091,35.691413,0 139.698029,35.691344,0 139.698031,35.691300,0 139.698033,35.691266,0 139.698041,35.691125,0 139.698046,35.691035,0 139.698085,35.691024,0 139.698113,35.691005,0 139.698126,35.690983,0 139.698131,35.690962,0 139.698174,35.690379,0 139.698182,35.690321,0 139.698197,35.690279,0 139.698249,35.690233,0 139.698265,35.690220,0 139.698478,35.690160,0 139.698482,35.690095,0 139.698530,35.690064,0 139.698539,35.690002,0 139.698558,35.689870,0 139.698578,35.689727,0 139.698600,35.689573,0 139.698621,35.689430,0 139.698631,35.689353,0 139.698668,35.689128,0 139.698704,35.688896,0 139.698743,35.688873,0 139.698749,35.688820,0 139.698762,35.688726,0</coordinates></LineString><LineString><tessellate>1</tessellate><coordinates>139.695139,35.693691,0 139.695312,35.693552,0 139.695070,35.693533,0</coordinates></LineString><LineString><tessellate>1</tessellate><coordinates>139.697424,35.692845,0 139.697507,35.692658,0 139.697278,35.692726,0</coordinates></LineString><LineString><tessellate>1</tessellate><coordinates>139.698239,35.690892,0 139.698150,35.690707,0 139.698034,35.690882,0</coordinates></LineString></MultiGeometry></Placemark>
<Placemark><name>d16·2 🚇 07:00 JR Shōnan-Shinjuku Line: Shinjuku → Kamakura ⇒ Gran Buda de Kamakura</name><styleUrl>#lff301be26</styleUrl><description><![CDATA[SALE 07:00 de Shinjuku → LLEGA a Kamakura · JR Shōnan-Shinjuku Line — sentido Zushi (12 tramos) · rumbo del plan: Gran Buda de Kamakura]]></description><MultiGeometry><LineString><tessellate>1</tessellate><coordinates>139.698762,35.688726,0 139.702497,35.659011,0 139.707823,35.646245,0 139.729254,35.619464,0 139.721995,35.601780,0 139.703567,35.619905,0 139.742672,35.628527,0 139.599702,35.446689,0 139.841711,35.695362,0 139.694456,35.716965,0 139.848863,35.689501,0 139.546500,35.337000,0 139.550200,35.319000,0</coordinates></LineString><LineString><tessellate>1</tessellate><coordinates>139.740879,35.626006,0 139.740561,35.625842,0 139.740612,35.626147,0</coordinates></LineString><LineString><tessellate>1</tessellate><coordinates>139.639087,35.496542,0 139.638770,35.496378,0 139.638820,35.496682,0</coordinates></LineString><LineString><tessellate>1</tessellate><coordinates>139.671517,35.520690,0 139.671853,35.520827,0 139.671765,35.520528,0</coordinates></LineString><LineString><tessellate>1</tessellate><coordinates>139.788608,35.641005,0 139.788944,35.641142,0 139.788856,35.640843,0</coordinates></LineString><LineString><tessellate>1</tessellate><coordinates>139.740231,35.710118,0 139.739923,35.710295,0 139.740287,35.710374,0</coordinates></LineString><LineString><tessellate>1</tessellate><coordinates>139.833001,35.692455,0 139.833301,35.692269,0 139.832934,35.692201,0</coordinates></LineString><LineString><tessellate>1</tessellate><coordinates>139.750223,35.574279,0 139.749898,35.574126,0 139.749964,35.574428,0</coordinates></LineString><LineString><tessellate>1</tessellate><coordinates>139.642115,35.448244,0 139.641790,35.448091,0 139.641855,35.448394,0</coordinates></LineString></MultiGeometry></Placemark>
<Placemark><name>d16·3 🚶 Kamakura → Gran Buda de Kamakura</name><styleUrl>#lb8636f7a3</styleUrl><description><![CDATA[caminando]]></description><MultiGeometry><LineString><tessellate>1</tessellate><coordinates>139.550120,35.319018,0 139.550120,35.319018,0 139.550091,35.319018,0 139.550093,35.319049,0 139.550064,35.319181,0 139.550203,35.319176,0 139.550224,35.319425,0 139.550160,35.319425,0 139.550136,35.319414,0 139.550065,35.319418,0 139.549972,35.319404,0 139.549901,35.319365,0 139.549846,35.319300,0 139.549776,35.319130,0 139.549252,35.319295,0 139.548850,35.319427,0 139.548707,35.319444,0 139.548687,35.319404,0 139.547184,35.319614,0 139.546387,35.319730,0 139.546251,35.319747,0 139.545603,35.319824,0 139.545433,35.319841,0 139.544678,35.319912,0 139.544256,35.319995,0 139.544082,35.320046,0 139.543764,35.320141,0 139.543462,35.320250,0 139.542756,35.320506,0 139.542664,35.320540,0 139.542370,35.320634,0 139.541842,35.320766,0 139.541450,35.320854,0 139.540701,35.321031,0 139.540433,35.321076,0 139.540269,35.321088,0 139.539372,35.321122,0 139.538681,35.321139,0 139.538390,35.320053,0 139.538385,35.320038,0 139.538139,35.319236,0 139.538130,35.319198,0 139.537978,35.318634,0 139.537808,35.318048,0 139.537685,35.317593,0 139.537637,35.317414,0 139.537629,35.317399,0 139.537557,35.317094,0 139.537514,35.316958,0 139.537422,35.316832,0 139.537279,35.316756,0 139.536692,35.316568,0 139.536596,35.316533,0 139.536273,35.316221,0 139.536012,35.315863,0 139.535912,35.315673,0 139.535767,35.315401,0 139.535606,35.315219,0 139.535402,35.315068,0 139.535155,35.315126,0 139.535196,35.315379,0 139.535191,35.315612,0 139.535281,35.315612,0 139.535282,35.315624,0 139.535282,35.315631,0 139.535281,35.315662,0 139.535281,35.315671,0 139.535310,35.315736,0 139.535318,35.315750,0 139.535322,35.315758,0 139.535333,35.315777,0 139.535385,35.315874,0 139.535421,35.315933,0 139.535448,35.315980,0 139.535355,35.316047,0 139.535326,35.316067,0 139.535338,35.316112,0 139.535346,35.316148,0 139.535358,35.316191,0 139.535388,35.316318,0 139.535498,35.316359,0 139.535541,35.316560,0 139.535545,35.316589,0 139.535563,35.316667,0 139.535576,35.316729,0 139.535608,35.316797,0 139.535652,35.316761,0 139.535683,35.316753,0</coordinates></LineString><LineString><tessellate>1</tessellate><coordinates>139.547437,35.319493,0 139.547237,35.319607,0 139.547471,35.319659,0</coordinates></LineString><LineString><tessellate>1</tessellate><coordinates>139.543513,35.320139,0 139.543354,35.320289,0 139.543596,35.320293,0</coordinates></LineString><LineString><tessellate>1</tessellate><coordinates>139.539738,35.321024,0 139.539524,35.321116,0 139.539748,35.321192,0</coordinates></LineString><LineString><tessellate>1</tessellate><coordinates>139.538124,35.318774,0 139.537973,35.318618,0 139.537925,35.318813,0</coordinates></LineString><LineString><tessellate>1</tessellate><coordinates>139.536301,35.316095,0 139.536100,35.315984,0 139.536125,35.316182,0</coordinates></LineString></MultiGeometry></Placemark>
<Placemark><name>d16·4 🚶 Gran Buda de Kamakura → Kamakura ⇒ Hase-dera (Kamakura)</name><styleUrl>#lb8636f7a3</styleUrl><description><![CDATA[caminando · rumbo del plan: Hase-dera (Kamakura)]]></description><MultiGeometry><LineString><tessellate>1</tessellate><coordinates>139.535683,35.316753,0 139.535652,35.316761,0 139.535608,35.316797,0 139.535576,35.316729,0 139.535563,35.316667,0 139.535545,35.316589,0 139.535541,35.316560,0 139.535498,35.316359,0 139.535388,35.316318,0 139.535358,35.316191,0 139.535346,35.316148,0 139.535338,35.316112,0 139.535326,35.316067,0 139.535355,35.316047,0 139.535448,35.315980,0 139.535421,35.315933,0 139.535385,35.315874,0 139.535333,35.315777,0 139.535322,35.315758,0 139.535318,35.315750,0 139.535310,35.315736,0 139.535281,35.315671,0 139.535281,35.315662,0 139.535282,35.315631,0 139.535282,35.315624,0 139.535281,35.315612,0 139.535191,35.315612,0 139.535196,35.315379,0 139.535155,35.315126,0 139.535402,35.315068,0 139.535606,35.315219,0 139.535767,35.315401,0 139.535912,35.315673,0 139.536012,35.315863,0 139.536273,35.316221,0 139.536596,35.316533,0 139.536692,35.316568,0 139.537279,35.316756,0 139.537422,35.316832,0 139.537514,35.316958,0 139.537557,35.317094,0 139.537629,35.317399,0 139.537637,35.317414,0 139.537685,35.317593,0 139.537808,35.318048,0 139.537978,35.318634,0 139.538130,35.319198,0 139.538139,35.319236,0 139.538385,35.320038,0 139.538390,35.320053,0 139.538681,35.321139,0 139.539372,35.321122,0 139.540269,35.321088,0 139.540433,35.321076,0 139.540701,35.321031,0 139.541450,35.320854,0 139.541842,35.320766,0 139.542370,35.320634,0 139.542664,35.320540,0 139.542756,35.320506,0 139.543462,35.320250,0 139.543764,35.320141,0 139.544082,35.320046,0 139.544256,35.319995,0 139.544678,35.319912,0 139.545433,35.319841,0 139.545603,35.319824,0 139.546251,35.319747,0 139.546387,35.319730,0 139.547184,35.319614,0 139.548687,35.319404,0 139.548707,35.319444,0 139.548850,35.319427,0 139.549252,35.319295,0 139.549776,35.319130,0 139.549846,35.319300,0 139.549901,35.319365,0 139.549972,35.319404,0 139.550065,35.319418,0 139.550136,35.319414,0 139.550160,35.319425,0 139.550224,35.319425,0 139.550203,35.319176,0 139.550064,35.319181,0 139.550093,35.319049,0 139.550091,35.319018,0 139.550120,35.319018,0</coordinates></LineString><LineString><tessellate>1</tessellate><coordinates>139.535899,35.315872,0 139.536100,35.315984,0 139.536075,35.315786,0</coordinates></LineString><LineString><tessellate>1</tessellate><coordinates>139.537823,35.318462,0 139.537973,35.318618,0 139.538022,35.318423,0</coordinates></LineString><LineString><tessellate>1</tessellate><coordinates>139.539309,35.321209,0 139.539523,35.321116,0 139.539299,35.321041,0</coordinates></LineString><LineString><tessellate>1</tessellate><coordinates>139.543194,35.320439,0 139.543354,35.320289,0 139.543112,35.320285,0</coordinates></LineString><LineString><tessellate>1</tessellate><coordinates>139.547038,35.319720,0 139.547237,35.319607,0 139.547004,35.319554,0</coordinates></LineString></MultiGeometry></Placemark>
<Placemark><name>d16·5 🚇 08:40 Enoden: Kamakura → Hase ⇒ Hase-dera (Kamakura)</name><styleUrl>#lff0388006</styleUrl><description><![CDATA[SALE 08:40 de Kamakura → LLEGA a Hase · Enoden — sentido Fujisawa (3 tramos) · ruta escénica · rumbo del plan: Hase-dera (Kamakura)]]></description><MultiGeometry><LineString><tessellate>1</tessellate><coordinates>139.550200,35.319000,0 139.544500,35.315600,0 139.539600,35.312200,0 139.533200,35.312500,0</coordinates></LineString><LineString><tessellate>1</tessellate><coordinates>139.545208,35.315862,0 139.544841,35.315803,0 139.545022,35.316072,0</coordinates></LineString><LineString><tessellate>1</tessellate><coordinates>139.540123,35.312393,0 139.539762,35.312312,0 139.539919,35.312591,0</coordinates></LineString></MultiGeometry></Placemark>
<Placemark><name>d16·6 🚇 10:00 Yurikamome: Shimbashi → Shin-Toyosu ⇒ teamLab Planets</name><styleUrl>#lff9c46296</styleUrl><description><![CDATA[SALE 10:00 de Shimbashi → LLEGA a Shin-Toyosu · Yurikamome — sentido Toyosu (14 tramos) · ruta escénica · rumbo del plan: teamLab Planets]]></description><MultiGeometry><LineString><tessellate>1</tessellate><coordinates>139.759614,35.667144,0 139.760272,35.663238,0 139.761907,35.653974,0 139.759100,35.649189,0 139.757772,35.641738,0 139.778178,35.629740,0 139.772453,35.626388,0 139.773081,35.621401,0 139.778704,35.618158,0 139.781300,35.624754,0 139.791370,35.630197,0 139.796789,35.641511,0 139.788792,35.640103,0 139.785799,35.645771,0 139.789614,35.648518,0</coordinates></LineString><LineString><tessellate>1</tessellate><coordinates>139.761809,35.655438,0 139.761701,35.655143,0 139.761495,35.655400,0</coordinates></LineString><LineString><tessellate>1</tessellate><coordinates>139.758313,35.643872,0 139.758106,35.643615,0 139.757998,35.643910,0</coordinates></LineString><LineString><tessellate>1</tessellate><coordinates>139.767735,35.636040,0 139.767919,35.635772,0 139.767549,35.635829,0</coordinates></LineString><LineString><tessellate>1</tessellate><coordinates>139.776775,35.628759,0 139.776406,35.628702,0 139.776590,35.628970,0</coordinates></LineString><LineString><tessellate>1</tessellate><coordinates>139.776020,35.619865,0 139.776207,35.619598,0 139.775837,35.619652,0</coordinates></LineString><LineString><tessellate>1</tessellate><coordinates>139.783672,35.626192,0 139.784044,35.626237,0 139.783847,35.625975,0</coordinates></LineString><LineString><tessellate>1</tessellate><coordinates>139.793299,35.634580,0 139.793571,35.634792,0 139.793595,35.634485,0</coordinates></LineString><LineString><tessellate>1</tessellate><coordinates>139.791295,35.640411,0 139.790929,35.640479,0 139.791229,35.640665,0</coordinates></LineString></MultiGeometry></Placemark>
<Placemark><name>d16·7 🚇 14:15 JR Chūō Line (rápida): Akihabara → Shinjuku</name><styleUrl>#lff225af16</styleUrl><description><![CDATA[SALE 14:15 de Akihabara → LLEGA a Shinjuku · JR Chūō Line (rápida) — sentido Nakano / Mitaka, el local amarillo (9 tramos)]]></description><MultiGeometry><LineString><tessellate>1</tessellate><coordinates>139.775451,35.697919,0 139.764244,35.700397,0 139.752207,35.702133,0 139.747482,35.701033,0 139.736818,35.691392,0 139.729482,35.686205,0 139.720495,35.680024,0 139.711118,35.681083,0 139.702070,35.683015,0 139.698762,35.688726,0</coordinates></LineString><LineString><tessellate>1</tessellate><coordinates>139.765803,35.699917,0 139.765516,35.700116,0 139.765886,35.700168,0</coordinates></LineString><LineString><tessellate>1</tessellate><coordinates>139.755713,35.701495,0 139.755405,35.701671,0 139.755768,35.701751,0</coordinates></LineString><LineString><tessellate>1</tessellate><coordinates>139.746398,35.699859,0 139.746051,35.699739,0 139.746162,35.700033,0</coordinates></LineString><LineString><tessellate>1</tessellate><coordinates>139.739493,35.693616,0 139.739147,35.693497,0 139.739257,35.693791,0</coordinates></LineString><LineString><tessellate>1</tessellate><coordinates>139.732020,35.687827,0 139.731658,35.687743,0 139.731812,35.688024,0</coordinates></LineString><LineString><tessellate>1</tessellate><coordinates>139.724170,35.682382,0 139.723807,35.682302,0 139.723966,35.682581,0</coordinates></LineString><LineString><tessellate>1</tessellate><coordinates>139.714904,35.680524,0 139.714588,35.680691,0 139.714948,35.680781,0</coordinates></LineString><LineString><tessellate>1</tessellate><coordinates>139.704841,35.682289,0 139.704551,35.682485,0 139.704921,35.682540,0</coordinates></LineString></MultiGeometry></Placemark>
</Folder></Document></kml>