<?xml version="1.0" encoding="UTF-8"?>
<kml xmlns="http://www.opengis.net/kml/2.2"><Document><name>vie 9 · Kioto este</name><description>Recorrido del día: gruesa=transporte (color oficial) · delgada=a pie · ＞ sentido · paradas numeradas con hora y punto estricto.</description><Style id="p1"><IconStyle><scale>0.9</scale><Icon><href>https://maps.google.com/mapfiles/kml/paddle/1.png</href></Icon></IconStyle></Style><Style id="p2"><IconStyle><scale>0.9</scale><Icon><href>https://maps.google.com/mapfiles/kml/paddle/2.png</href></Icon></IconStyle></Style><Style id="p3"><IconStyle><scale>0.9</scale><Icon><href>https://maps.google.com/mapfiles/kml/paddle/3.png</href></Icon></IconStyle></Style><Style id="p4"><IconStyle><scale>0.9</scale><Icon><href>https://maps.google.com/mapfiles/kml/paddle/4.png</href></Icon></IconStyle></Style><Style id="p5"><IconStyle><scale>0.9</scale><Icon><href>https://maps.google.com/mapfiles/kml/paddle/5.png</href></Icon></IconStyle></Style><Style id="p6"><IconStyle><scale>0.9</scale><Icon><href>https://maps.google.com/mapfiles/kml/paddle/6.png</href></Icon></IconStyle></Style><Style id="p7"><IconStyle><scale>0.9</scale><Icon><href>https://maps.google.com/mapfiles/kml/paddle/7.png</href></Icon></IconStyle></Style><Style id="p8"><IconStyle><scale>0.9</scale><Icon><href>https://maps.google.com/mapfiles/kml/paddle/8.png</href></Icon></IconStyle></Style><Style id="p9"><IconStyle><scale>0.9</scale><Icon><href>https://maps.google.com/mapfiles/kml/paddle/9.png</href></Icon></IconStyle></Style><Style id="p10"><IconStyle><scale>0.9</scale><Icon><href>https://maps.google.com/mapfiles/kml/paddle/10.png</href></Icon></IconStyle></Style><Style id="lffb76b0d6"><LineStyle><color>ffb76b0d</color><width>6</width></LineStyle></Style><Style id="lff1700806"><LineStyle><color>ff170080</color><width>6</width></LineStyle></Style><Style id="lb8636f7a3"><LineStyle><color>b8636f7a</color><width>3</width></LineStyle></Style><Style id="lff8628526"><LineStyle><color>ff862852</color><width>6</width></LineStyle></Style><Style id="lff934de46"><LineStyle><color>ff934de4</color><width>6</width></LineStyle></Style><Style id="lff1f17e56"><LineStyle><color>ff1f17e5</color><width>6</width></LineStyle></Style><Style id="lffa0501c6"><LineStyle><color>ffa0501c</color><width>6</width></LineStyle></Style><Style id="lff00d4ff6"><LineStyle><color>ff00d4ff</color><width>6</width></LineStyle></Style><Style id="lffaf5c006"><LineStyle><color>ffaf5c00</color><width>6</width></LineStyle></Style><Style id="lff4499006"><LineStyle><color>ff449900</color><width>6</width></LineStyle></Style><Style id="lff2147816"><LineStyle><color>ff214781</color><width>6</width></LineStyle></Style><Style id="lff669a016"><LineStyle><color>ff669a01</color><width>6</width></LineStyle></Style><Style id="lff0000e86"><LineStyle><color>ff0000e8</color><width>6</width></LineStyle></Style><Style id="lff2900d76"><LineStyle><color>ff2900d7</color><width>6</width></LineStyle></Style><Style id="lffa557276"><LineStyle><color>ffa55727</color><width>6</width></LineStyle></Style><Style id="lff1fc38f6"><LineStyle><color>ff1fc38f</color><width>6</width></LineStyle></Style><Style id="lff9933666"><LineStyle><color>ff993366</color><width>6</width></LineStyle></Style><Style id="lff2b4a7a6"><LineStyle><color>ff2b4a7a</color><width>6</width></LineStyle></Style><Style id="lff0c86c76"><LineStyle><color>ff0c86c7</color><width>6</width></LineStyle></Style><Style id="lff225af16"><LineStyle><color>ff225af1</color><width>6</width></LineStyle></Style><Style id="lff0097f36"><LineStyle><color>ff0097f3</color><width>6</width></LineStyle></Style><Style id="lffc36c0f6"><LineStyle><color>ffc36c0f</color><width>6</width></LineStyle></Style><Style id="lff656eec6"><LineStyle><color>ff656eec</color><width>6</width></LineStyle></Style><Style id="lffa0862c6"><LineStyle><color>ffa0862c</color><width>6</width></LineStyle></Style><Style id="lff2f25c96"><LineStyle><color>ff2f25c9</color><width>6</width></LineStyle></Style><Style id="lff32cd9a6"><LineStyle><color>ff32cd9a</color><width>6</width></LineStyle></Style><Style id="lff301be26"><LineStyle><color>ff301be2</color><width>6</width></LineStyle></Style><Style id="lff0388006"><LineStyle><color>ff038800</color><width>6</width></LineStyle></Style><Style id="lff9c46296"><LineStyle><color>ff9c4629</color><width>6</width></LineStyle></Style><Style id="lff1200e66"><LineStyle><color>ff1200e6</color><width>6</width></LineStyle></Style><Style id="lffb7ae9c6"><LineStyle><color>ffb7ae9c</color><width>6</width></LineStyle></Style><Style id="lff207bf46"><LineStyle><color>ff207bf4</color><width>6</width></LineStyle></Style><Folder><name>vie 9 · Kioto este</name>
<Placemark><name>1. 05:00 · Kiyomizu-dera (d9)</name><styleUrl>#p1</styleUrl><description><![CDATA[Hora del plan: 05:00. ⏰ SIGUIENTE PUNTO ESTRICTO del día: 05:00 — Desayuno konbini (reserva/transporte: NO se puede llegar tarde).]]></description><Point><coordinates>135.784439,34.994303,0</coordinates></Point></Placemark>
<Placemark><name>2. 07:15 · Sannenzaka y Ninenzaka (d9)</name><styleUrl>#p2</styleUrl><description><![CDATA[Hora del plan: 07:15. ⏰ SIGUIENTE PUNTO ESTRICTO del día: 15:50 — punto fijo (reserva/transporte: NO se puede llegar tarde).]]></description><Point><coordinates>135.781318,34.996479,0</coordinates></Point></Placemark>
<Placemark><name>3. 07:15 · Pagoda Yasaka (Hōkan-ji) (d9)</name><styleUrl>#p3</styleUrl><description><![CDATA[Hora del plan: 07:15. ⏰ SIGUIENTE PUNTO ESTRICTO del día: 15:50 — punto fijo (reserva/transporte: NO se puede llegar tarde).]]></description><Point><coordinates>135.778764,34.998567,0</coordinates></Point></Placemark>
<Placemark><name>4. 08:00 · Santuario Yasaka (d9)</name><styleUrl>#p4</styleUrl><description><![CDATA[Hora del plan: 08:00. ⏰ SIGUIENTE PUNTO ESTRICTO del día: 15:50 — punto fijo (reserva/transporte: NO se puede llegar tarde).]]></description><Point><coordinates>135.778261,35.003603,0</coordinates></Point></Placemark>
<Placemark><name>5. 08:40 · Ryōzen Kannon (d9)</name><styleUrl>#p5</styleUrl><description><![CDATA[Hora del plan: 08:40. ⏰ SIGUIENTE PUNTO ESTRICTO del día: 15:50 — punto fijo (reserva/transporte: NO se puede llegar tarde).]]></description><Point><coordinates>135.781821,34.999782,0</coordinates></Point></Placemark>
<Placemark><name>6. 09:10 · Gion (d9)</name><styleUrl>#p6</styleUrl><description><![CDATA[Hora del plan: 09:10. ⏰ SIGUIENTE PUNTO ESTRICTO del día: 15:50 — punto fijo (reserva/transporte: NO se puede llegar tarde).]]></description><Point><coordinates>135.771957,35.003226,0</coordinates></Point></Placemark>
<Placemark><name>7. 09:30 · Sanjūsangen-dō (d9)</name><styleUrl>#p7</styleUrl><description><![CDATA[Hora del plan: 09:30. ⏰ SIGUIENTE PUNTO ESTRICTO del día: 15:50 — punto fijo (reserva/transporte: NO se puede llegar tarde).]]></description><Point><coordinates>135.771778,34.988172,0</coordinates></Point></Placemark>
<Placemark><name>d9·1 🚶 Hotel → Kiyomizu-dera</name><styleUrl>#lb8636f7a3</styleUrl><description><![CDATA[caminando]]></description><MultiGeometry><LineString><tessellate>1</tessellate><coordinates>135.759573,34.998314,0 135.759581,34.997724,0 135.759601,34.997723,0 135.759655,34.997723,0 135.759769,34.997722,0 135.759810,34.997722,0 135.759831,34.997723,0 135.759832,34.997679,0 135.759832,34.997658,0 135.759832,34.997636,0 135.759832,34.997597,0 135.759842,34.996484,0 135.759842,34.996431,0 135.759850,34.996415,0 135.759970,34.996412,0 135.760127,34.996410,0 135.760232,34.996408,0 135.760295,34.996407,0 135.760905,34.996391,0 135.761025,34.996389,0 135.761070,34.996388,0 135.761102,34.996388,0 135.761250,34.996380,0 135.761840,34.996358,0 135.762518,34.996338,0 135.762567,34.996339,0 135.762601,34.996340,0 135.762627,34.996339,0 135.762722,34.996333,0 135.762850,34.996326,0 135.763201,34.996311,0 135.763229,34.996310,0 135.763316,34.996306,0 135.764042,34.996261,0 135.764273,34.996248,0 135.764589,34.996231,0 135.764714,34.996226,0 135.764748,34.996224,0 135.764775,34.996223,0 135.764907,34.996214,0 135.765432,34.996192,0 135.765938,34.996144,0 135.766147,34.996122,0 135.766172,34.996119,0 135.766189,34.996118,0 135.766324,34.996189,0 135.766344,34.996180,0 135.766426,34.996151,0 135.766523,34.996115,0 135.766535,34.996111,0 135.766647,34.996069,0 135.767039,34.996022,0 135.767078,34.996017,0 135.767116,34.996012,0 135.767131,34.996010,0 135.767158,34.996006,0 135.767376,34.995981,0 135.767433,34.995974,0 135.767460,34.995970,0 135.767495,34.995966,0 135.767521,34.995962,0 135.767517,34.995942,0 135.767519,34.995925,0 135.767526,34.995910,0 135.767538,34.995897,0 135.767553,34.995886,0 135.767570,34.995879,0 135.767590,34.995875,0 135.768315,34.995772,0 135.768346,34.995767,0 135.768354,34.995792,0 135.768363,34.995796,0 135.768371,34.995802,0 135.768377,34.995808,0 135.768381,34.995816,0 135.768423,34.995938,0 135.768469,34.995920,0 135.768511,34.995903,0 135.768578,34.995873,0 135.768632,34.995850,0 135.768673,34.995832,0 135.768710,34.995816,0 135.768825,34.995787,0 135.768972,34.995744,0 135.769024,34.995734,0 135.769539,34.995659,0 135.769615,34.995649,0 135.769751,34.995630,0 135.769909,34.995605,0 135.769970,34.995595,0 135.770155,34.995566,0 135.770212,34.995558,0 135.771138,34.995419,0 135.771410,34.995383,0 135.771679,34.995347,0 135.771729,34.995340,0 135.771779,34.995333,0 135.771817,34.995330,0 135.771910,34.995314,0 135.772695,34.995169,0 135.773136,34.995061,0 135.773239,34.995034,0 135.773548,34.994956,0 135.773633,34.994934,0 135.773856,34.994879,0 135.774062,34.994828,0 135.774413,34.994742,0 135.775027,34.994601,0 135.775517,34.994495,0 135.775602,34.994476,0 135.775799,34.994430,0 135.775924,34.994406,0 135.776045,34.994409,0 135.776193,34.994603,0 135.776285,34.994578,0 135.776380,34.994553,0 135.776382,34.994515,0 135.776373,34.994451,0 135.776368,34.994409,0 135.776434,34.994400,0 135.776454,34.994392,0 135.776473,34.994388,0 135.776507,34.994383,0 135.776536,34.994380,0 135.776594,34.994373,0 135.776630,34.994366,0 135.776659,34.994358,0 135.776689,34.994345,0 135.776895,34.994208,0 135.777060,34.994102,0 135.777338,34.993958,0 135.777415,34.993927,0 135.777639,34.993841,0 135.777971,34.993729,0 135.778164,34.993677,0 135.778384,34.993623,0 135.778779,34.993534,0 135.778795,34.993534,0 135.778945,34.993536,0 135.778979,34.993545,0 135.779041,34.993589,0 135.779059,34.993602,0 135.779092,34.993624,0 135.779154,34.993666,0 135.779223,34.993717,0 135.779314,34.993766,0 135.779472,34.993848,0 135.779657,34.993893,0 135.779870,34.993930,0 135.780318,34.993989,0 135.780420,34.993992,0 135.780776,34.994071,0 135.780790,34.994074,0 135.780952,34.994107,0 135.781003,34.994120,0 135.781051,34.994136,0 135.781125,34.994166,0 135.781220,34.994204,0 135.781294,34.994221,0 135.781374,34.994241,0 135.781427,34.994254,0 135.781469,34.994260,0 135.781499,34.994260,0 135.781534,34.994254,0 135.781638,34.994232,0 135.781681,34.994231,0 135.781726,34.994234,0 135.781785,34.994247,0 135.781844,34.994269,0 135.782217,34.994448,0 135.782298,34.994481,0 135.782413,34.994529,0 135.782496,34.994560,0 135.782580,34.994589,0 135.782789,34.994634,0 135.782873,34.994682,0 135.782923,34.994685,0 135.782946,34.994680,0 135.782970,34.994680,0 135.782992,34.994687,0 135.783011,34.994698,0 135.783025,34.994714,0 135.783121,34.994669,0 135.783172,34.994658,0 135.783216,34.994660,0 135.783303,34.994660,0 135.783468,34.994640,0 135.783481,34.994606,0 135.783500,34.994545,0 135.783521,34.994530,0 135.783549,34.994525,0 135.783578,34.994536,0 135.783675,34.994631,0 135.783758,34.994655,0 135.783784,34.994651,0 135.783916,34.994477,0 135.783904,34.994350,0 135.783846,34.994286,0 135.783858,34.994240,0 135.784096,34.994135,0 135.784169,34.994127,0 135.784257,34.994154,0 135.784474,34.994249,0</coordinates></LineString><LineString><tessellate>1</tessellate><coordinates>135.761980,34.996438,0 135.762195,34.996348,0 135.761973,34.996270,0</coordinates></LineString><LineString><tessellate>1</tessellate><coordinates>135.766820,34.996133,0 135.767022,34.996024,0 135.766791,34.995967,0</coordinates></LineString><LineString><tessellate>1</tessellate><coordinates>135.771388,34.995471,0 135.771588,34.995359,0 135.771356,34.995305,0</coordinates></LineString><LineString><tessellate>1</tessellate><coordinates>135.776026,34.994737,0 135.776202,34.994601,0 135.775962,34.994577,0</coordinates></LineString><LineString><tessellate>1</tessellate><coordinates>135.780263,34.994044,0 135.780501,34.994010,0 135.780316,34.993882,0</coordinates></LineString></MultiGeometry></Placemark>
<Placemark><name>d9·2 🚶 Kiyomizu-dera → Sannenzaka y Ninenzaka</name><styleUrl>#lb8636f7a3</styleUrl><description><![CDATA[caminando]]></description><MultiGeometry><LineString><tessellate>1</tessellate><coordinates>135.784474,34.994249,0 135.784548,34.994281,0 135.784592,34.994283,0 135.784611,34.994267,0 135.784611,34.994241,0 135.784558,34.994177,0 135.784517,34.994080,0 135.784584,34.994030,0 135.784607,34.993935,0 135.784627,34.993922,0 135.784745,34.993899,0 135.784896,34.993958,0 135.784978,34.993954,0 135.784988,34.993989,0 135.785022,34.994075,0 135.785059,34.994164,0 135.785099,34.994259,0 135.785152,34.994387,0 135.785048,34.994427,0 135.784938,34.994470,0 135.784889,34.994494,0 135.784875,34.994530,0 135.784804,34.994542,0 135.784722,34.994559,0 135.784606,34.994580,0 135.784553,34.994590,0 135.784241,34.994545,0 135.783707,34.994765,0 135.783594,34.994765,0 135.783514,34.994789,0 135.783390,34.994834,0 135.783272,34.994863,0 135.783178,34.994865,0 135.783135,34.994887,0 135.783110,34.994925,0 135.783096,34.994947,0 135.783069,34.994989,0 135.783057,34.995008,0 135.783103,34.995068,0 135.783117,34.995242,0 135.783092,34.995256,0 135.783053,34.995275,0 135.782917,34.995513,0 135.782322,34.995502,0 135.782282,34.995503,0 135.782242,34.995507,0 135.782203,34.995514,0 135.782165,34.995523,0 135.782127,34.995534,0 135.782091,34.995548,0 135.782057,34.995565,0 135.782024,34.995583,0 135.781993,34.995604,0 135.781964,34.995626,0 135.781902,34.995675,0 135.781869,34.995698,0 135.781846,34.995714,0 135.781821,34.995728,0 135.781696,34.995793,0 135.781303,34.995994,0 135.781271,34.996008,0 135.781235,34.996022,0 135.781201,34.996034,0 135.780791,34.996178,0 135.780808,34.996209,0 135.780886,34.996354,0 135.780945,34.996474,0 135.781019,34.996657,0 135.781185,34.996584,0 135.781217,34.996571,0 135.781248,34.996565,0 135.781324,34.996562,0</coordinates></LineString><LineString><tessellate>1</tessellate><coordinates>135.784311,34.994422,0 135.784161,34.994578,0 135.784402,34.994573,0</coordinates></LineString><LineString><tessellate>1</tessellate><coordinates>135.782452,34.995401,0 135.782247,34.995507,0 135.782476,34.995568,0</coordinates></LineString></MultiGeometry></Placemark>
<Placemark><name>d9·3 🚶 Sannenzaka y Ninenzaka → Pagoda Yasaka (Hōkan-ji)</name><styleUrl>#lb8636f7a3</styleUrl><description><![CDATA[caminando]]></description><MultiGeometry><LineString><tessellate>1</tessellate><coordinates>135.781324,34.996562,0 135.781248,34.996565,0 135.781217,34.996571,0 135.781185,34.996584,0 135.781019,34.996657,0 135.781024,34.996718,0 135.781027,34.996894,0 135.781028,34.996947,0 135.781063,34.997495,0 135.781059,34.997650,0 135.781053,34.997706,0 135.781046,34.997767,0 135.781040,34.997789,0 135.781030,34.997810,0 135.781005,34.997851,0 135.780988,34.997873,0 135.780965,34.997897,0 135.780941,34.997917,0 135.780920,34.997932,0 135.780805,34.997998,0 135.780783,34.998007,0 135.780760,34.998015,0 135.780733,34.998023,0 135.780708,34.998028,0 135.780593,34.998050,0 135.780293,34.998083,0 135.780237,34.998096,0 135.780194,34.998109,0 135.779926,34.998230,0 135.779888,34.998252,0 135.779852,34.998278,0 135.779825,34.998300,0 135.779800,34.998317,0 135.779769,34.998328,0 135.779503,34.998366,0 135.779256,34.998401,0 135.779113,34.998420,0 135.779010,34.998435,0 135.779025,34.998546,0 135.778990,34.998549,0 135.778771,34.998563,0 135.778764,34.998563,0</coordinates></LineString><LineString><tessellate>1</tessellate><coordinates>135.780882,34.997908,0 135.780692,34.998031,0 135.780929,34.998072,0</coordinates></LineString></MultiGeometry></Placemark>
<Placemark><name>d9·4 🚶 Pagoda Yasaka (Hōkan-ji) → Santuario Yasaka</name><styleUrl>#lb8636f7a3</styleUrl><description><![CDATA[caminando]]></description><MultiGeometry><LineString><tessellate>1</tessellate><coordinates>135.778764,34.998563,0 135.778771,34.998563,0 135.778794,34.999240,0 135.778797,34.999315,0 135.778817,34.999765,0 135.778802,34.999780,0 135.778800,34.999835,0 135.778794,35.000141,0 135.778793,35.000218,0 135.778764,35.000234,0 135.778761,35.000312,0 135.778729,35.000478,0 135.778718,35.000496,0 135.778652,35.000831,0 135.778648,35.000849,0 135.778646,35.000872,0 135.778635,35.000964,0 135.778594,35.001452,0 135.778585,35.001636,0 135.778567,35.001788,0 135.778539,35.002018,0 135.778564,35.002026,0 135.778579,35.002477,0 135.778574,35.002591,0 135.778570,35.002642,0 135.778565,35.002651,0 135.778562,35.002662,0 135.778561,35.002672,0 135.778562,35.002683,0 135.778567,35.002690,0 135.778576,35.002694,0 135.778584,35.002695,0 135.778585,35.002723,0 135.778585,35.002756,0 135.778499,35.002756,0 135.778500,35.002766,0 135.778504,35.003036,0 135.778515,35.003152,0 135.778516,35.003156,0 135.778532,35.003319,0 135.778435,35.003326,0 135.778442,35.003399,0 135.778135,35.003419,0 135.778138,35.003449,0 135.778234,35.003442,0 135.778250,35.003604,0</coordinates></LineString><LineString><tessellate>1</tessellate><coordinates>135.778679,35.000204,0 135.778745,35.000395,0 135.778880,35.000230,0</coordinates></LineString><LineString><tessellate>1</tessellate><coordinates>135.778463,35.002048,0 135.778571,35.002226,0 135.778667,35.002044,0</coordinates></LineString></MultiGeometry></Placemark>
<Placemark><name>d9·5 🚶 Santuario Yasaka → Ryōzen Kannon</name><styleUrl>#lb8636f7a3</styleUrl><description><![CDATA[caminando]]></description><MultiGeometry><LineString><tessellate>1</tessellate><coordinates>135.778250,35.003604,0 135.778234,35.003442,0 135.778138,35.003449,0 135.778135,35.003419,0 135.778442,35.003399,0 135.778435,35.003326,0 135.778532,35.003319,0 135.778516,35.003156,0 135.778515,35.003152,0 135.778504,35.003036,0 135.778500,35.002766,0 135.778499,35.002756,0 135.778585,35.002756,0 135.778585,35.002723,0 135.778584,35.002695,0 135.778576,35.002694,0 135.778567,35.002690,0 135.778562,35.002683,0 135.778561,35.002672,0 135.778562,35.002662,0 135.778565,35.002651,0 135.778570,35.002642,0 135.778574,35.002591,0 135.778579,35.002477,0 135.778564,35.002026,0 135.778539,35.002018,0 135.778567,35.001788,0 135.778585,35.001636,0 135.778594,35.001452,0 135.778635,35.000964,0 135.778646,35.000872,0 135.778648,35.000849,0 135.778652,35.000831,0 135.778718,35.000496,0 135.778729,35.000478,0 135.778761,35.000312,0 135.779194,35.000318,0 135.779497,35.000269,0 135.779461,35.000121,0 135.779506,35.000068,0 135.779494,34.999962,0 135.779827,34.999938,0 135.779880,34.999934,0 135.779905,34.999931,0 135.779944,34.999931,0 135.779962,34.999930,0 135.779960,34.999696,0 135.780038,34.999641,0 135.780123,34.999593,0 135.780123,34.999560,0 135.780119,34.999376,0 135.780705,34.999383,0 135.780794,34.999384,0 135.780984,34.999389,0 135.781013,34.999396,0 135.781139,34.999408,0 135.781232,34.999418,0 135.781393,34.999450,0 135.781411,34.999400,0 135.781522,34.999432,0 135.781537,34.999537,0 135.781667,34.999524,0 135.781678,34.999597,0 135.781678,34.999597,0</coordinates></LineString><LineString><tessellate>1</tessellate><coordinates>135.778659,35.001876,0 135.778579,35.001688,0 135.778456,35.001859,0</coordinates></LineString><LineString><tessellate>1</tessellate><coordinates>135.779394,35.000054,0 135.779603,34.999954,0 135.779377,34.999886,0</coordinates></LineString></MultiGeometry></Placemark>
<Placemark><name>d9·6 🚶 Ryōzen Kannon → Gion</name><styleUrl>#lb8636f7a3</styleUrl><description><![CDATA[caminando]]></description><MultiGeometry><LineString><tessellate>1</tessellate><coordinates>135.781678,34.999597,0 135.781678,34.999597,0 135.781667,34.999524,0 135.781537,34.999537,0 135.781522,34.999432,0 135.781411,34.999400,0 135.781393,34.999450,0 135.781232,34.999418,0 135.781139,34.999408,0 135.781013,34.999396,0 135.780984,34.999389,0 135.780794,34.999384,0 135.780705,34.999383,0 135.780119,34.999376,0 135.780123,34.999560,0 135.780123,34.999593,0 135.780038,34.999641,0 135.779960,34.999696,0 135.779962,34.999930,0 135.779944,34.999931,0 135.779905,34.999931,0 135.779880,34.999934,0 135.779827,34.999938,0 135.779494,34.999962,0 135.779506,35.000068,0 135.779461,35.000121,0 135.779497,35.000269,0 135.779194,35.000318,0 135.778761,35.000312,0 135.778729,35.000478,0 135.778718,35.000496,0 135.778652,35.000831,0 135.778648,35.000849,0 135.778646,35.000872,0 135.778635,35.000964,0 135.778594,35.001452,0 135.778585,35.001636,0 135.778567,35.001788,0 135.778539,35.002018,0 135.778564,35.002026,0 135.778579,35.002477,0 135.778574,35.002591,0 135.778570,35.002642,0 135.778565,35.002651,0 135.778562,35.002662,0 135.778561,35.002672,0 135.778562,35.002683,0 135.778567,35.002690,0 135.778576,35.002694,0 135.778584,35.002695,0 135.778585,35.002723,0 135.778585,35.002756,0 135.778499,35.002756,0 135.778500,35.002766,0 135.778504,35.003036,0 135.778515,35.003152,0 135.778516,35.003156,0 135.778532,35.003319,0 135.778435,35.003326,0 135.778442,35.003399,0 135.778450,35.003476,0 135.778410,35.003531,0 135.778380,35.003562,0 135.778360,35.003603,0 135.778379,35.003799,0 135.778270,35.003806,0 135.778251,35.003840,0 135.778196,35.003929,0 135.778169,35.003922,0 135.778105,35.004075,0 135.778093,35.004113,0 135.778111,35.004196,0 135.778162,35.004221,0 135.778188,35.004271,0 135.778249,35.004391,0 135.778315,35.004444,0 135.778300,35.004634,0 135.778264,35.004731,0 135.778299,35.004753,0 135.778344,35.004774,0 135.778366,35.004780,0</coordinates></LineString><LineString><tessellate>1</tessellate><coordinates>135.779858,34.999727,0 135.779962,34.999907,0 135.780062,34.999726,0</coordinates></LineString><LineString><tessellate>1</tessellate><coordinates>135.778541,35.000863,0 135.778628,35.001049,0 135.778745,35.000875,0</coordinates></LineString><LineString><tessellate>1</tessellate><coordinates>135.778386,35.002866,0 135.778504,35.003040,0 135.778589,35.002853,0</coordinates></LineString></MultiGeometry></Placemark>
<Placemark><name>d9·7 🚌 09:10 Bus urbano de Kioto: Gion → Hakubutsukan-Sanjūsangendō-mae</name><styleUrl>#lff1fc38f6</styleUrl><description><![CDATA[SALE 09:10 de Gion → LLEGA a Hakubutsukan-Sanjūsangendō-mae · Bus urbano de Kioto — sentido hacia Kyoto-eki (6 tramos)]]></description><MultiGeometry><LineString><tessellate>1</tessellate><coordinates>135.778403,35.004690,0 135.777539,35.000217,0 135.779755,34.996316,0 135.779755,34.996316,0 135.774866,34.992633,0 135.774525,34.988354,0 135.771742,34.989079,0</coordinates></LineString><LineString><tessellate>1</tessellate><coordinates>135.777908,34.999873,0 135.777909,34.999565,0 135.777623,34.999762,0</coordinates></LineString><LineString><tessellate>1</tessellate><coordinates>135.778625,34.995288,0 135.778269,34.995196,0 135.778412,34.995480,0</coordinates></LineString><LineString><tessellate>1</tessellate><coordinates>135.774930,34.991458,0 135.774751,34.991189,0 135.774616,34.991475,0</coordinates></LineString></MultiGeometry></Placemark>
<Placemark><name>d9·8 🚶 Hakubutsukan-Sanjūsangendō-mae → Gion</name><styleUrl>#lb8636f7a3</styleUrl><description><![CDATA[caminando]]></description><MultiGeometry><LineString><tessellate>1</tessellate><coordinates>135.771742,34.989078,0 135.771404,34.989091,0 135.771356,34.989099,0 135.771362,34.989143,0 135.771373,34.989209,0 135.771383,34.989279,0 135.771325,34.989310,0 135.771287,34.989349,0 135.771265,34.989394,0 135.771259,34.989438,0 135.771276,34.990051,0 135.771289,34.990295,0 135.771324,34.990997,0 135.771368,34.991548,0 135.771371,34.991583,0 135.771378,34.991652,0 135.771415,34.992043,0 135.771422,34.992105,0 135.771428,34.992153,0 135.771511,34.992712,0 135.771530,34.992848,0 135.771491,34.992854,0 135.771502,34.992901,0 135.771508,34.992928,0 135.771564,34.993259,0 135.771612,34.993549,0 135.771671,34.993989,0 135.771705,34.994326,0 135.771715,34.994444,0 135.771716,34.994451,0 135.771724,34.994558,0 135.771757,34.994930,0 135.771638,34.994947,0 135.771640,34.994966,0 135.771647,34.995034,0 135.771654,34.995101,0 135.771663,34.995192,0 135.771669,34.995256,0 135.771676,34.995320,0 135.771677,34.995327,0 135.771679,34.995347,0 135.771410,34.995383,0 135.771138,34.995419,0 135.771190,34.995891,0 135.771210,34.996173,0 135.771183,34.996175,0 135.771213,34.996461,0 135.771238,34.996742,0 135.771253,34.996912,0 135.771262,34.997010,0 135.771235,34.997045,0 135.771183,34.997053,0 135.771196,34.997093,0 135.771209,34.997134,0 135.771074,34.997166,0 135.770296,34.997371,0 135.770277,34.997388,0 135.770277,34.997414,0 135.770446,34.997988,0 135.770501,34.998193,0 135.770506,34.998244,0 135.770478,34.998246,0 135.770514,34.998613,0 135.770544,34.998767,0 135.770331,34.998792,0 135.770259,34.998786,0 135.770188,34.998789,0 135.770089,34.998809,0 135.770044,34.998810,0 135.770052,34.998844,0 135.770058,34.998873,0 135.770064,34.998898,0 135.770074,34.998952,0 135.770358,34.999610,0 135.770421,34.999737,0 135.770487,34.999870,0 135.770660,35.000221,0 135.770889,35.000668,0 135.770909,35.000709,0 135.770927,35.000746,0 135.771465,35.001892,0 135.771487,35.001927,0 135.771506,35.001931,0 135.771529,35.001937,0 135.771545,35.001974,0 135.771561,35.002015,0 135.771583,35.002070,0 135.771656,35.002249,0 135.771882,35.002810,0 135.771910,35.002887,0 135.771846,35.002903,0 135.771865,35.002950,0 135.771925,35.003100,0 135.771958,35.003185,0 135.771970,35.003223,0</coordinates></LineString><LineString><tessellate>1</tessellate><coordinates>135.771246,34.991295,0 135.771362,34.991469,0 135.771449,34.991283,0</coordinates></LineString><LineString><tessellate>1</tessellate><coordinates>135.771568,34.993986,0 135.771688,34.994158,0 135.771772,34.993972,0</coordinates></LineString><LineString><tessellate>1</tessellate><coordinates>135.771086,34.996230,0 135.771207,34.996402,0 135.771290,34.996215,0</coordinates></LineString><LineString><tessellate>1</tessellate><coordinates>135.770382,34.998314,0 135.770502,34.998487,0 135.770586,34.998300,0</coordinates></LineString><LineString><tessellate>1</tessellate><coordinates>135.770734,35.000575,0 135.770910,35.000711,0 135.770923,35.000512,0</coordinates></LineString></MultiGeometry></Placemark>
<Placemark><name>d9·9 🚶 Gion → Sanjūsangen-dō</name><styleUrl>#lb8636f7a3</styleUrl><description><![CDATA[caminando]]></description><MultiGeometry><LineString><tessellate>1</tessellate><coordinates>135.771970,35.003223,0 135.771958,35.003185,0 135.771925,35.003100,0 135.771865,35.002950,0 135.771846,35.002903,0 135.771910,35.002887,0 135.771882,35.002810,0 135.771656,35.002249,0 135.771583,35.002070,0 135.771561,35.002015,0 135.771545,35.001974,0 135.771529,35.001937,0 135.771506,35.001931,0 135.771487,35.001927,0 135.771465,35.001892,0 135.770927,35.000746,0 135.770909,35.000709,0 135.770889,35.000668,0 135.770660,35.000221,0 135.770487,34.999870,0 135.770421,34.999737,0 135.770358,34.999610,0 135.770074,34.998952,0 135.770064,34.998898,0 135.770058,34.998873,0 135.770052,34.998844,0 135.770044,34.998810,0 135.770089,34.998809,0 135.770188,34.998789,0 135.770259,34.998786,0 135.770331,34.998792,0 135.770544,34.998767,0 135.770514,34.998613,0 135.770478,34.998246,0 135.770506,34.998244,0 135.770501,34.998193,0 135.770446,34.997988,0 135.770277,34.997414,0 135.770277,34.997388,0 135.770296,34.997371,0 135.771074,34.997166,0 135.771209,34.997134,0 135.771196,34.997093,0 135.771183,34.997053,0 135.771235,34.997045,0 135.771262,34.997010,0 135.771253,34.996912,0 135.771238,34.996742,0 135.771213,34.996461,0 135.771183,34.996175,0 135.771210,34.996173,0 135.771190,34.995891,0 135.771138,34.995419,0 135.771410,34.995383,0 135.771679,34.995347,0 135.771677,34.995327,0 135.771676,34.995320,0 135.771669,34.995256,0 135.771663,34.995192,0 135.771654,34.995101,0 135.771647,34.995034,0 135.771640,34.994966,0 135.771638,34.994947,0 135.771757,34.994930,0 135.771724,34.994558,0 135.771716,34.994451,0 135.771715,34.994444,0 135.771705,34.994326,0 135.771671,34.993989,0 135.771612,34.993549,0 135.771564,34.993259,0 135.771508,34.992928,0 135.771502,34.992901,0 135.771491,34.992854,0 135.771530,34.992848,0 135.771511,34.992712,0 135.771428,34.992153,0 135.771422,34.992105,0 135.771415,34.992043,0 135.771378,34.991652,0 135.771371,34.991583,0 135.771368,34.991548,0 135.771324,34.990997,0 135.771289,34.990295,0 135.771276,34.990051,0 135.771259,34.989438,0 135.771265,34.989394,0 135.771287,34.989349,0 135.771325,34.989310,0 135.771383,34.989279,0 135.771479,34.989248,0 135.772386,34.989212,0 135.772381,34.989158,0 135.772377,34.989098,0 135.772373,34.989055,0 135.772417,34.989053,0 135.772408,34.988919,0 135.772386,34.988909,0 135.772383,34.988869,0 135.772382,34.988853,0 135.772381,34.988836,0 135.772402,34.988823,0 135.772343,34.987845,0 135.772331,34.987845,0 135.772264,34.987846,0 135.772196,34.987848,0 135.772189,34.987848,0 135.771936,34.987853,0 135.771928,34.987853,0 135.771928,34.987853,0</coordinates></LineString><LineString><tessellate>1</tessellate><coordinates>135.770925,35.000522,0 135.770746,35.000389,0 135.770737,35.000588,0</coordinates></LineString><LineString><tessellate>1</tessellate><coordinates>135.770547,34.997975,0 135.770396,34.997819,0 135.770349,34.998015,0</coordinates></LineString><LineString><tessellate>1</tessellate><coordinates>135.770989,34.995524,0 135.771189,34.995412,0 135.770957,34.995358,0</coordinates></LineString><LineString><tessellate>1</tessellate><coordinates>135.771649,34.992966,0 135.771523,34.992797,0 135.771447,34.992986,0</coordinates></LineString><LineString><tessellate>1</tessellate><coordinates>135.771374,34.989901,0 135.771267,34.989722,0 135.771170,34.989905,0</coordinates></LineString></MultiGeometry></Placemark>
<Placemark><name>d9·10 🚌 10:30 Bus urbano de Kioto: Hakubutsukan-Sanjūsangendō-mae → Kyoto-eki-mae ⇒ hotel</name><styleUrl>#lff1fc38f6</styleUrl><description><![CDATA[SALE 10:30 de Hakubutsukan-Sanjūsangendō-mae → LLEGA a Kyoto-eki-mae · Bus urbano de Kioto — sentido Kyoto-eki (2 tramos) · rumbo del plan: hotel]]></description><MultiGeometry><LineString><tessellate>1</tessellate><coordinates>135.771742,34.989079,0 135.769791,34.989364,0 135.758799,34.986989,0</coordinates></LineString><LineString><tessellate>1</tessellate><coordinates>135.767772,34.988794,0 135.767405,34.988849,0 135.767692,34.989045,0</coordinates></LineString><LineString><tessellate>1</tessellate><coordinates>135.763469,34.987864,0 135.763102,34.987919,0 135.763389,34.988115,0</coordinates></LineString></MultiGeometry></Placemark>
<Placemark><name>d9·11 🚶 Kyoto-eki-mae → Kyoto ⇒ hotel</name><styleUrl>#lb8636f7a3</styleUrl><description><![CDATA[caminando · rumbo del plan: hotel]]></description><MultiGeometry><LineString><tessellate>1</tessellate><coordinates>135.758800,34.987149,0 135.759276,34.987148,0 135.759503,34.987153,0 135.759503,34.987085,0 135.759503,34.987075,0 135.759419,34.987074,0 135.759420,34.987025,0 135.759420,34.987005,0 135.759219,34.987003,0 135.759220,34.986927,0 135.759221,34.986882,0 135.759225,34.986562,0 135.759227,34.986428,0 135.759228,34.986394,0 135.759230,34.986224,0 135.758907,34.986221,0 135.758777,34.986220,0</coordinates></LineString><LineString><tessellate>1</tessellate><coordinates>135.759318,34.987090,0 135.759220,34.986908,0 135.759114,34.987087,0</coordinates></LineString></MultiGeometry></Placemark>
<Placemark><name>d9·12 🚇 12:15 Metro Karasuma (Kioto): Kyoto → Gojō ⇒ hotel</name><styleUrl>#lff4499006</styleUrl><description><![CDATA[SALE 12:15 de Kyoto → LLEGA a Gojō · Metro Karasuma (Kioto) — sentido Kokusaikaikan (1 tramos) · rumbo del plan: hotel]]></description><MultiGeometry><LineString><tessellate>1</tessellate><coordinates>135.758766,34.985350,0 135.759700,34.996900,0</coordinates></LineString><LineString><tessellate>1</tessellate><coordinates>135.758898,34.988930,0 135.759077,34.989200,0 135.759212,34.988913,0</coordinates></LineString><LineString><tessellate>1</tessellate><coordinates>135.759209,34.992780,0 135.759389,34.993050,0 135.759523,34.992763,0</coordinates></LineString></MultiGeometry></Placemark>
</Folder></Document></kml>