<?xml version="1.0" encoding="UTF-8"?>
<kml xmlns="http://www.opengis.net/kml/2.2"><Document>
<name>Japón 2026 — parte 3 (mié14–dom18)</name>
<Style id="n1"><IconStyle><color>ffffffff</color><scale>1.0</scale><Icon><href>https://maps.google.com/mapfiles/kml/paddle/1.png</href></Icon></IconStyle></Style>
<Style id="n2"><IconStyle><color>ffffffff</color><scale>1.0</scale><Icon><href>https://maps.google.com/mapfiles/kml/paddle/2.png</href></Icon></IconStyle></Style>
<Style id="n3"><IconStyle><color>ffffffff</color><scale>1.0</scale><Icon><href>https://maps.google.com/mapfiles/kml/paddle/3.png</href></Icon></IconStyle></Style>
<Style id="n4"><IconStyle><color>ffffffff</color><scale>1.0</scale><Icon><href>https://maps.google.com/mapfiles/kml/paddle/4.png</href></Icon></IconStyle></Style>
<Style id="n5"><IconStyle><color>ffffffff</color><scale>1.0</scale><Icon><href>https://maps.google.com/mapfiles/kml/paddle/5.png</href></Icon></IconStyle></Style>
<Style id="resto_Ai"><IconStyle><color>ffa06b2c</color><scale>1.0</scale><Icon><href>https://maps.google.com/mapfiles/kml/shapes/dining.png</href></Icon></IconStyle></Style>
<Style id="resto_Shu"><IconStyle><color>ff2a3ab2</color><scale>1.0</scale><Icon><href>https://maps.google.com/mapfiles/kml/shapes/dining.png</href></Icon></IconStyle></Style>
<Style id="k_site"><IconStyle><color>ff2a3ab2</color><scale>1.0</scale><Icon><href>https://maps.google.com/mapfiles/kml/shapes/star.png</href></Icon></IconStyle></Style>
<Style id="L7a6f633"><LineStyle><color>ff636f7a</color><width>3</width></LineStyle></Style>
<Style id="Lf15a226"><LineStyle><color>ff225af1</color><width>6</width></LineStyle></Style>
<Style id="L2c86a05"><LineStyle><color>ffa0862c</color><width>5</width></LineStyle></Style>
<Style id="n6"><IconStyle><color>ffffffff</color><scale>1.0</scale><Icon><href>https://maps.google.com/mapfiles/kml/paddle/6.png</href></Icon></IconStyle></Style>
<Style id="resto_Take"><IconStyle><color>ff4a7d3a</color><scale>1.0</scale><Icon><href>https://maps.google.com/mapfiles/kml/shapes/dining.png</href></Icon></IconStyle></Style>
<Style id="resto_"><IconStyle><color>ff8a7f72</color><scale>1.0</scale><Icon><href>https://maps.google.com/mapfiles/kml/shapes/dining.png</href></Icon></IconStyle></Style>
<Style id="Lc9252f6"><LineStyle><color>ff2f25c9</color><width>6</width></LineStyle></Style>
<Style id="L9acd326"><LineStyle><color>ff32cd9a</color><width>6</width></LineStyle></Style>
<Style id="Le21b306"><LineStyle><color>ff301be2</color><width>6</width></LineStyle></Style>
<Style id="L0088036"><LineStyle><color>ff038800</color><width>6</width></LineStyle></Style>
<Style id="L29469c6"><LineStyle><color>ff9c4629</color><width>6</width></LineStyle></Style>
<Style id="n7"><IconStyle><color>ffffffff</color><scale>1.0</scale><Icon><href>https://maps.google.com/mapfiles/kml/paddle/7.png</href></Icon></IconStyle></Style>
<Style id="n8"><IconStyle><color>ffffffff</color><scale>1.0</scale><Icon><href>https://maps.google.com/mapfiles/kml/paddle/8.png</href></Icon></IconStyle></Style>
<Style id="Le600126"><LineStyle><color>ff1200e6</color><width>6</width></LineStyle></Style>
<Style id="L9caeb76"><LineStyle><color>ffb7ae9c</color><width>6</width></LineStyle></Style>
<Style id="Lf47b205"><LineStyle><color>ff207bf4</color><width>5</width></LineStyle></Style>
<Folder><name>mié 14 · lugares</name><Placemark><name>1. 08:00 · Monte Fuji (d14)</name><styleUrl>#n1</styleUrl><description><![CDATA[]]></description><Point><coordinates>138.727363,35.360625,0</coordinates></Point></Placemark><Placemark><name>2. 08:00 · Teleférico de Hakone (d14)</name><styleUrl>#n2</styleUrl><description><![CDATA[]]></description><Point><coordinates>139.015041,35.244427,0</coordinates></Point></Placemark><Placemark><name>3. 08:00 · Ōwakudani (d14)</name><styleUrl>#n3</styleUrl><description><![CDATA[]]></description><Point><coordinates>139.019354,35.243449,0</coordinates></Point></Placemark><Placemark><name>4. 08:00 · Lago Ashi (d14)</name><styleUrl>#n4</styleUrl><description><![CDATA[]]></description><Point><coordinates>139.003463,35.209567,0</coordinates></Point></Placemark><Placemark><name>5. 08:00 · Santuario de Hakone (Motomiya) (d14)</name><styleUrl>#n5</styleUrl><description><![CDATA[]]></description><Point><coordinates>139.025378,35.204826,0</coordinates></Point></Placemark><Placemark><name>🍜 Tonkatsu Bairin</name><styleUrl>#resto_Ai</styleUrl><description><![CDATA[El tonkatsu de Ginza desde 1927 — inventó la salsa · ¥2,500 · Nivel 🌊 Ai — días: mié 14 · sáb 17  Abrir en Google Maps<br/><a href="https://www.google.com/maps/search/?api=1&amp;query=35.669586,139.762748">Google Maps</a>]]></description><Point><coordinates>139.762748,35.669586,0</coordinates></Point></Placemark><Placemark><name>🍜 Ginza Lion</name><styleUrl>#resto_Ai</styleUrl><description><![CDATA[La cervecería más vieja de Japón (1934), salón art déco intacto · ¥3,500 · Nivel 🌊 Ai — días: mié 14 · sáb 17  Abrir en Google Maps<br/><a href="https://www.google.com/maps/search/?api=1&amp;query=35.669202,139.763159">Google Maps</a>]]></description><Point><coordinates>139.763159,35.669202,0</coordinates></Point></Placemark><Placemark><name>🍜 Sushi no Midori</name><styleUrl>#resto_Ai</styleUrl><description><![CDATA[La mejor relación calidad/precio del sushi de Tokio — por eso la fila · ¥4,000 · Nivel 🌊 Ai — días: mié 14 · sáb 17  Abrir en Google Maps<br/><a href="https://www.google.com/maps/search/?api=1&amp;query=35.670440,139.759658">Google Maps</a>]]></description><Point><coordinates>139.759658,35.670440,0</coordinates></Point></Placemark><Placemark><name>🍜 Tempura con estrella</name><styleUrl>#resto_Shu</styleUrl><description><![CDATA[Barra de tempura estrellada (Kondo y similares) — reservar · ¥15,000 · Nivel 🔴 Shu — días: mié 14  Abrir en Google Maps<br/><a href="https://www.google.com/maps/search/?api=1&amp;query=35.671170,139.763179">Google Maps</a>]]></description><Point><coordinates>139.763179,35.671170,0</coordinates></Point></Placemark><Placemark><name>⭐ Teleférico de Hakone</name><styleUrl>#k_site</styleUrl><description><![CDATA[Cabinas cada minuto cruzando sobre el valle volcánico, con el Fuji apareciendo a la derecha si el cielo abre. — EN EL PLAN: mié 14 · 08:00  Abrir en Google Maps<br/><a href="https://www.google.com/maps/search/?api=1&amp;query=35.244427,139.015041">Google Maps</a>]]></description><Point><coordinates>139.015041,35.244427,0</coordinates></Point></Placemark><Placemark><name>⭐ Ōwakudani</name><styleUrl>#k_site</styleUrl><description><![CDATA[El 'Gran Valle Hirviente': fumarolas, olor a azufre y los huevos negros cocidos en las pozas — la leyenda dice que cada uno alarga la vida 7 años. — EN EL PLAN: mié 14 · 08:00  Abrir en Google Maps<br/><a href="https://www.google.com/maps/search/?api=1&amp;query=35.243449,139.019354">Google Maps</a>]]></description><Point><coordinates>139.019354,35.243449,0</coordinates></Point></Placemark><Placemark><name>⭐ Lago Ashi</name><styleUrl>#k_site</styleUrl><description><![CDATA[El lago del cráter con el torii de Hakone saliendo del agua y barcos 'piratas' cruzándolo — la postal del Fuji cuando está despejado. — EN EL PLAN: mié 14 · 08:00  Abrir en Google Maps<br/><a href="https://www.google.com/maps/search/?api=1&amp;query=35.209567,139.003463">Google Maps</a>]]></description><Point><coordinates>139.003463,35.209567,0</coordinates></Point></Placemark><Placemark><name>⭐ Monte Fuji</name><styleUrl>#k_site</styleUrl><description><![CDATA[La montaña perfecta: 3,776 m de cono volcánico visible desde 100 km. Verla despejada es lotería — en octubre, las mañanas dan la mejor probabilidad. — EN EL PLAN: mié 14 · 08:00 · vie 16 · 06:00  Abrir en Google Maps<br/><a href="https://www.google.com/maps/search/?api=1&amp;query=35.360625,138.727363">Google Maps</a>]]></description><Point><coordinates>138.727363,35.360625,0</coordinates></Point></Placemark><Placemark><name>⭐ Santuario de Hakone (Motomiya)</name><styleUrl>#k_site</styleUrl><description><![CDATA[El santuario del torii en el agua: se hace fila en el embarcadero para LA foto, y el bosque de cedros gigantes detrás vale la subida. — EN EL PLAN: mié 14 · 08:00  Abrir en Google Maps<br/><a href="https://www.google.com/maps/search/?api=1&amp;query=35.204826,139.025378">Google Maps</a>]]></description><Point><coordinates>139.025378,35.204826,0</coordinates></Point></Placemark></Folder>
<Folder><name>mié 14 · rutas</name><Placemark><name>d14·1 🚶 Hotel → Shinjuku ⇒ Monte Fuji</name><styleUrl>#L7a6f633</styleUrl><LineString><tessellate>1</tessellate><coordinates>139.693676,35.694462,0 139.693581,35.694278,0 139.694093,35.694118,0 139.694149,35.694103,0 139.694444,35.694022,0 139.694871,35.693898,0 139.694990,35.693863,0 139.695283,35.693784,0 139.695256,35.693718,0 139.695222,35.693643,0 139.695207,35.693608,0 139.695203,35.693584,0 139.695291,35.693558,0 139.695829,35.693402,0 139.696024,35.693345,0 139.696645,35.693165,0 139.696742,35.693136,0 139.696805,35.693112,0 139.696810,35.693109,0 139.696850,35.693074,0 139.696854,35.693071,0 139.696857,35.693013,0 139.696858,35.693007,0 139.696868,35.693004,0 139.697119,35.692981,0 139.697162,35.692900,0 139.697167,35.692896,0 139.697183,35.692881,0 139.697147,35.692869,0 139.697150,35.692864,0 139.697158,35.692850,0 139.697239,35.692870,0 139.697434,35.692718,0 139.697851,35.692378,0 139.697992,35.692258,0 139.698007,35.692215,0 139.698013,35.692182,0 139.698016,35.692171,0 139.698021,35.692144,0 139.698037,35.692120,0 139.698042,35.692053,0 139.698045,35.692011,0 139.698046,35.691997,0 139.698049,35.691968,0 139.698051,35.691944,0 139.698053,35.691924,0 139.698072,35.691662,0 139.698074,35.691642,0 139.698083,35.691518,0 139.698091,35.691413,0 139.698029,35.691344,0 139.698031,35.691300,0 139.698033,35.691266,0 139.698041,35.691125,0 139.698046,35.691035,0 139.698085,35.691024,0 139.698113,35.691005,0 139.698126,35.690983,0 139.698131,35.690962,0 139.698174,35.690379,0 139.698182,35.690321,0 139.698197,35.690279,0 139.698249,35.690233,0 139.698265,35.690220,0 139.698478,35.690160,0 139.698482,35.690095,0 139.698530,35.690064,0 139.698539,35.690002,0 139.698558,35.689870,0 139.698578,35.689727,0 139.698600,35.689573,0 139.698621,35.689430,0 139.698631,35.689353,0 139.698668,35.689128,0 139.698704,35.688896,0 139.698743,35.688873,0 139.698749,35.688820,0 139.698762,35.688726,0</coordinates></LineString></Placemark><Placemark><name>d14·2 🚇 07:00 JR Chūō Line (rápida): Shinjuku → Tokyo ⇒ Monte Fuji</name><styleUrl>#Lf15a226</styleUrl><LineString><tessellate>1</tessellate><coordinates>139.698762,35.688726,0 139.729482,35.686205,0 139.764440,35.699717,0 139.770698,35.694473,0 139.764615,35.677700,0</coordinates></LineString></Placemark><Placemark><name>d14·3 🚶 Teleférico de Hakone → Ōwakudani</name><styleUrl>#L7a6f633</styleUrl><LineString><tessellate>1</tessellate><coordinates>139.015564,35.245310,0 139.015707,35.245254,0 139.016182,35.245041,0 139.016393,35.245006,0 139.016390,35.244884,0 139.016370,35.244714,0 139.016363,35.244506,0 139.016388,35.244405,0 139.016447,35.244334,0 139.016558,35.244247,0 139.016724,35.244177,0 139.016945,35.244105,0 139.017131,35.244053,0 139.017299,35.244005,0 139.017448,35.243950,0 139.017577,35.243886,0 139.017680,35.243824,0 139.017710,35.243806,0 139.017769,35.243747,0 139.017812,35.243687,0 139.017896,35.243499,0 139.018022,35.243151,0 139.018140,35.242988,0 139.018267,35.242922,0 139.018387,35.242919,0 139.018496,35.242942,0 139.018577,35.243005,0 139.018622,35.243057,0 139.018644,35.243142,0 139.018642,35.243356,0 139.018650,35.243443,0 139.018669,35.243511,0 139.018692,35.243556,0 139.018750,35.243594,0 139.018820,35.243626,0 139.018919,35.243630,0 139.019019,35.243611,0 139.019133,35.243562,0 139.019145,35.243551,0 139.019186,35.243589,0 139.019250,35.243578,0 139.019375,35.243465,0</coordinates></LineString></Placemark><Placemark><name>d14·4 🚡 tour: Ōwakudani → Lago Ashi</name><styleUrl>#L2c86a05</styleUrl><LineString><tessellate>1</tessellate><coordinates>139.016975,35.238015,0 139.016705,35.237802,0 139.016680,35.238109,0</coordinates></LineString></Placemark><Placemark><name>d14·5 🚶 Lago Ashi → Santuario de Hakone (Motomiya)</name><styleUrl>#L7a6f633</styleUrl><LineString><tessellate>1</tessellate><coordinates>139.008518,35.211327,0 139.008580,35.211302,0 139.008655,35.211423,0 139.008656,35.211483,0 139.008912,35.211905,0 139.008937,35.211943,0 139.009008,35.212068,0 139.009059,35.212146,0 139.009479,35.212828,0 139.009482,35.212832,0 139.009497,35.212858,0 139.009734,35.212757,0 139.009750,35.212788,0 139.009810,35.212894,0 139.009874,35.212929,0 139.009921,35.212945,0 139.009972,35.212951,0 139.010014,35.212943,0 139.010142,35.212913,0 139.010231,35.212891,0 139.010357,35.212884,0 139.010986,35.212320,0 139.011008,35.212283,0 139.011068,35.211953,0 139.011258,35.211949,0 139.011460,35.211944,0 139.011500,35.211692,0 139.011532,35.211545,0 139.011607,35.211363,0 139.011728,35.211102,0 139.011793,35.210978,0 139.011862,35.210843,0 139.012075,35.210614,0 139.012276,35.210355,0 139.012337,35.210275,0 139.012511,35.210088,0 139.012591,35.210025,0 139.012677,35.209971,0 139.013105,35.209789,0 139.013418,35.209646,0 139.013549,35.209569,0 139.013651,35.209504,0 139.013701,35.209454,0 139.013749,35.209390,0 139.013779,35.209326,0 139.013839,35.209145,0 139.013858,35.209102,0 139.013893,35.209060,0 139.013932,35.209031,0 139.013981,35.209009,0 139.014173,35.208964,0 139.014215,35.208949,0 139.014258,35.208927,0 139.014293,35.208888,0 139.014302,35.208849,0 139.014303,35.208809,0 139.014239,35.208647,0 139.014227,35.208596,0 139.014238,35.208549,0 139.014257,35.208506,0 139.014296,35.208473,0 139.014372,35.208416,0 139.014460,35.208369,0 139.014512,35.208351,0 139.014739,35.208304,0 139.014779,35.208292,0 139.014818,35.208276,0 139.014867,35.208246,0 139.014923,35.208202,0 139.015070,35.208062,0 139.015245,35.207883,0 139.015276,35.207856,0 139.015325,35.207829,0 139.015389,35.207804,0 139.015443,35.207793,0 139.015500,35.207785,0 139.015556,35.207788,0 139.015640,35.207801,0 139.015755,35.207827,0 139.015973,35.207865,0 139.016050,35.207874,0 139.016129,35.207875,0 139.016213,35.207870,0 139.016430,35.207835,0 139.016706,35.207778,0 139.016747,35.207761,0 139.016776,35.207745,0 139.016795,35.207726,0 139.016827,35.207681,0 139.016840,35.207651,0 139.016846,35.207620,0 139.016878,35.207495,0 139.016917,35.207294,0 139.016989,35.206997,0 139.017015,35.206924,0 139.017047,35.206861,0 139.017078,35.206805,0 139.017130,35.206739,0 139.017459,35.206390,0 139.017491,35.206348,0 139.017612,35.206115,0 139.017645,35.206061,0 139.017674,35.206023,0 139.017711,35.205987,0 139.017854,35.205874,0 139.017856,35.205760,0 139.017910,35.205664,0 139.018058,35.205535,0 139.018223,35.205429,0 139.018314,35.205359,0 139.018428,35.205259,0 139.018615,35.205119,0 139.018869,35.205048,0 139.018971,35.204979,0 139.019045,35.204932,0 139.019114,35.204911,0 139.019152,35.204863,0 139.019247,35.204776,0 139.019489,35.204659,0 139.019792,35.204580,0 139.020205,35.204516,0 139.020387,35.204428,0 139.020930,35.204166,0 139.021368,35.204094,0 139.021592,35.204101,0 139.021630,35.204089,0 139.021959,35.203989,0 139.022237,35.203860,0 139.022343,35.203855,0 139.022427,35.203857,0 139.022438,35.203745,0 139.022877,35.203406,0 139.023059,35.203329,0 139.023245,35.203271,0 139.023382,35.203246,0 139.023518,35.203234,0 139.023841,35.203227,0 139.023953,35.203205,0 139.024042,35.203189,0 139.024170,35.203147,0 139.024247,35.203131,0 139.024603,35.203131,0 139.024751,35.203098,0 139.024923,35.203094,0 139.025078,35.203086,0 139.025403,35.202991,0 139.025518,35.202967,0 139.025702,35.202937,0 139.025653,35.203182,0 139.025621,35.203339,0 139.025587,35.203506,0 139.025573,35.203578,0 139.025494,35.203966,0 139.025467,35.204102,0 139.025408,35.204390,0 139.025352,35.204390,0 139.025354,35.204438,0 139.025359,35.204568,0 139.025362,35.204622,0 139.025362,35.204641,0 139.025363,35.204661,0</coordinates></LineString></Placemark><Placemark><name>d14·6 🚇 18:30 JR Chūō Line (rápida): Tokyo → Shinjuku ⇒ hotel</name><styleUrl>#Lf15a226</styleUrl><LineString><tessellate>1</tessellate><coordinates>139.764615,35.677700,0 139.770698,35.694473,0 139.764440,35.699717,0 139.729482,35.686205,0 139.698762,35.688726,0</coordinates></LineString></Placemark></Folder>
<Folder><name>jue 15 · lugares</name><Placemark><name>1. 05:30 · Santuario Meiji (d15)</name><styleUrl>#n1</styleUrl><description><![CDATA[]]></description><Point><coordinates>139.699326,35.676398,0</coordinates></Point></Placemark><Placemark><name>2. 05:30 · Tokyo Disneyland (d15)</name><styleUrl>#n2</styleUrl><description><![CDATA[]]></description><Point><coordinates>139.880394,35.632896,0</coordinates></Point></Placemark><Placemark><name>3. 06:00 · Santuario Meiji (d15)</name><styleUrl>#n3</styleUrl><description><![CDATA[]]></description><Point><coordinates>139.699326,35.676398,0</coordinates></Point></Placemark><Placemark><name>4. 10:15 · Takeshita Street + Omotesandō (d15)</name><styleUrl>#n4</styleUrl><description><![CDATA[]]></description><Point><coordinates>139.705182,35.671034,0</coordinates></Point></Placemark><Placemark><name>5. 15:45 · Cruce de Shibuya (d15)</name><styleUrl>#n5</styleUrl><description><![CDATA[]]></description><Point><coordinates>139.700560,35.659482,0</coordinates></Point></Placemark><Placemark><name>6. 16:45 · Shibuya Sky (d15)</name><styleUrl>#n6</styleUrl><description><![CDATA[]]></description><Point><coordinates>139.701985,35.658672,0</coordinates></Point></Placemark><Placemark><name>⭐ Santuario Meiji</name><styleUrl>#k_site</styleUrl><description><![CDATA[Un bosque de 100,000 árboles donados en medio de Tokio, con el santuario del emperador Meiji al centro: torii gigantes de ciprés, barriles de sake y, con suerte, una boda sintoísta. — EN EL PLAN: jue 15 · 05:30  Abrir en<br/><a href="https://www.google.com/maps/search/?api=1&amp;query=35.676398,139.699326">Google Maps</a>]]></description><Point><coordinates>139.699326,35.676398,0</coordinates></Point></Placemark><Placemark><name>⭐ Takeshita Street + Omotesandō</name><styleUrl>#k_site</styleUrl><description><![CDATA[Los 350 m del kawaii: crepas, calcetas imposibles y adolescentes en su hábitat — y al lado, Omotesandō: la avenida elegante de flagships y arquitectura de autor. — EN EL PLAN: jue 15 · 10:15  Abrir en Google Maps<br/><a href="https://www.google.com/maps/search/?api=1&amp;query=35.671034,139.705182">Google Maps</a>]]></description><Point><coordinates>139.705182,35.671034,0</coordinates></Point></Placemark><Placemark><name>⭐ Cruce de Shibuya</name><styleUrl>#k_site</styleUrl><description><![CDATA[El cruce peatonal más famoso del mundo: hasta 3,000 personas por luz verde, en 5 direcciones — y nadie choca. Cruzarlo tres veces es parte del rito. — EN EL PLAN: jue 15 · 15:45  Abrir en Google Maps<br/><a href="https://www.google.com/maps/search/?api=1&amp;query=35.659482,139.700560">Google Maps</a>]]></description><Point><coordinates>139.700560,35.659482,0</coordinates></Point></Placemark><Placemark><name>⭐ Shibuya Sky</name><styleUrl>#k_site</styleUrl><description><![CDATA[La azotea abierta a 229 m sobre el cruce: esquinas de cristal, hamacas de red mirando al cielo y el atardecer con el Fuji de fondo si el día ayuda. — EN EL PLAN: jue 15 · 16:45  Abrir en Google Maps<br/><a href="https://www.google.com/maps/search/?api=1&amp;query=35.658672,139.701985">Google Maps</a>]]></description><Point><coordinates>139.701985,35.658672,0</coordinates></Point></Placemark><Placemark><name>🍜 Ichiran Shinjuku</name><styleUrl>#resto_Take</styleUrl><description><![CDATA[Abierto 24 h — el seguro a cualquier hora · ¥980–1,320 · Nivel 🎋 Take — días: lun 12 · jue 15  Abrir en Google Maps<br/><a href="https://www.google.com/maps/search/?api=1&amp;query=35.690586,139.702805">Google Maps</a>]]></description><Point><coordinates>139.702805,35.690586,0</coordinates></Point></Placemark><Placemark><name>🍜 Harajuku Gyozarō</name><styleUrl>#resto_Take</styleUrl><description><![CDATA[6 gyozas perfectas a precio de risa — la fila avanza rápido · ¥800 · Nivel 🎋 Take — días: jue 15  Abrir en Google Maps<br/><a href="https://www.google.com/maps/search/?api=1&amp;query=35.667502,139.706103">Google Maps</a>]]></description><Point><coordinates>139.706103,35.667502,0</coordinates></Point></Placemark><Placemark><name>🍜 Afuri</name><styleUrl>#resto_Take</styleUrl><description><![CDATA[Ramen de yuzu — ligero, cítrico, moderno · ¥1,400 · Nivel 🎋 Take — días: jue 15  Abrir en Google Maps<br/><a href="https://www.google.com/maps/search/?api=1&amp;query=35.673005,139.703802">Google Maps</a>]]></description><Point><coordinates>139.703802,35.673005,0</coordinates></Point></Placemark><Placemark><name>🍜 Luke's Lobster</name><styleUrl>#resto_Ai</styleUrl><description><![CDATA[Lobster roll de culto en Cat Street · ¥1,500 · Nivel 🌊 Ai — días: jue 15  Abrir en Google Maps<br/><a href="https://www.google.com/maps/search/?api=1&amp;query=35.665503,139.704508">Google Maps</a>]]></description><Point><coordinates>139.704508,35.665503,0</coordinates></Point></Placemark><Placemark><name>🍜 Golden Brown</name><styleUrl>#resto_Ai</styleUrl><description><![CDATA[Hamburguesa artesanal japonesa · ¥1,800 · Nivel 🌊 Ai — días: jue 15  Abrir en Google Maps<br/><a href="https://www.google.com/maps/search/?api=1&amp;query=35.667408,139.708838">Google Maps</a>]]></description><Point><coordinates>139.708838,35.667408,0</coordinates></Point></Placemark><Placemark><name>🍜 bills</name><styleUrl>#resto_Ai</styleUrl><description><![CDATA[Los hotcakes 'más famosos del mundo', versión Omotesandō · ¥2,200 · Nivel 🌊 Ai — días: jue 15  Abrir en Google Maps<br/><a href="https://www.google.com/maps/search/?api=1&amp;query=35.668582,139.705781">Google Maps</a>]]></description><Point><coordinates>139.705781,35.668582,0</coordinates></Point></Placemark><Placemark><name>🍜 Gyukatsu Motomura</name><styleUrl>#resto_Shu</styleUrl><description><![CDATA[El gyukatsu de las filas eternas — vale si avanza · ¥2,200 · Nivel 🔴 Shu — días: jue 15  Abrir en Google Maps<br/><a href="https://www.google.com/maps/search/?api=1&amp;query=35.655358,139.706156">Google Maps</a>]]></description><Point><coordinates>139.706156,35.655358,0</coordinates></Point></Placemark><Placemark><name>🍜 Maisen</name><styleUrl>#resto_Shu</styleUrl><description><![CDATA[Tonkatsu en una ex-casa de baños — el clásico de Omotesandō · ¥3,000 · Nivel 🔴 Shu — días: jue 15  Abrir en Google Maps<br/><a href="https://www.google.com/maps/search/?api=1&amp;query=35.667925,139.711536">Google Maps</a>]]></description><Point><coordinates>139.711536,35.667925,0</coordinates></Point></Placemark><Placemark><name>🍜 Uobei</name><styleUrl>#resto_Take</styleUrl><description><![CDATA[Sushi que llega en riel a tu pantalla — los primos chicos felices · ¥1,500/persona · Nivel 🎋 Take — días: jue 15  Abrir en Google Maps<br/><a href="https://www.google.com/maps/search/?api=1&amp;query=35.659435,139.697921">Google Maps</a>]]></description><Point><coordinates>139.697921,35.659435,0</coordinates></Point></Placemark><Placemark><name>🍜 Genki Sushi</name><styleUrl>#resto_Take</styleUrl><description><![CDATA[El hermano de Uobei, mismo sistema · ¥1,800 · Nivel 🎋 Take — días: jue 15  Abrir en Google Maps<br/><a href="https://www.google.com/maps/search/?api=1&amp;query=35.647418,139.696522">Google Maps</a>]]></description><Point><coordinates>139.696522,35.647418,0</coordinates></Point></Placemark><Placemark><name>🍜 Nabezo Shibuya</name><styleUrl>#resto_Ai</styleUrl><description><![CDATA[Shabu-shabu tabehōdai — mesas grandes · ¥4,500 · Nivel 🌊 Ai — días: jue 15  Abrir en Google Maps<br/><a href="https://www.google.com/maps/search/?api=1&amp;query=35.661171,139.700209">Google Maps</a>]]></description><Point><coordinates>139.700209,35.661171,0</coordinates></Point></Placemark><Placemark><name>🍜 Han no Daidokoro (entrada)</name><styleUrl>#resto_Ai</styleUrl><description><![CDATA[Yakiniku de calidad, curso corto · ¥6,000 · Nivel 🌊 Ai — días: jue 15  Abrir en Google Maps<br/><a href="https://www.google.com/maps/search/?api=1&amp;query=35.659255,139.697958">Google Maps</a>]]></description><Point><coordinates>139.697958,35.659255,0</coordinates></Point></Placemark><Placemark><name>🍜 Han no Daidokoro curso</name><styleUrl>#resto_Shu</styleUrl><description><![CDATA[El curso completo de wagyu — a 5 min esa noche · ¥10,000 · Nivel 🔴 Shu — días: jue 15  Abrir en Google Maps<br/><a href="https://www.google.com/maps/search/?api=1&amp;query=35.659255,139.697958">Google Maps</a>]]></description><Point><coordinates>139.697958,35.659255,0</coordinates></Point></Placemark><Placemark><name>🍜 Ushigoro S</name><styleUrl>#resto_Shu</styleUrl><description><![CDATA[EL yakiniku premium — privados elegantes, reservar semanas antes · ¥15,000 · Nivel 🔴 Shu — días: jue 15  Abrir en Google Maps<br/><a href="https://www.google.com/maps/search/?api=1&amp;query=35.690985,139.705963">Google Maps</a>]]></description><Point><coordinates>139.705963,35.690985,0</coordinates></Point></Placemark><Placemark><name>🍜 Shibuya Yokocho</name><styleUrl>#resto_</styleUrl><description><![CDATA[19 mini-barras regionales en fila, en Miyashita Park · ¥2,500–4,000 · Nivel 🍴 — días: jue 15  Abrir en Google Maps<br/><a href="https://www.google.com/maps/search/?api=1&amp;query=35.660607,139.701785">Google Maps</a>]]></description><Point><coordinates>139.701785,35.660607,0</coordinates></Point></Placemark><Placemark><name>⭐ Lago Kawaguchiko</name><styleUrl>#k_site</styleUrl><description><![CDATA[El lago con la vista más famosa del Fuji: la ribera norte lo refleja entero, con los momiji encendidos en otoño. — EN EL PLAN: jue 15 · 21:15 · vie 16 · 07:00  Abrir en Google Maps<br/><a href="https://www.google.com/maps/search/?api=1&amp;query=35.517095,138.751779">Google Maps</a>]]></description><Point><coordinates>138.751779,35.517095,0</coordinates></Point></Placemark><Placemark><name>⭐ Tokyo Disneyland</name><styleUrl>#k_site</styleUrl><description><![CDATA[El Disney japonés: famoso por su nivel de detalle obsesivo, su popcorn de sabores y ser el parque con más visitantes repetidores del mundo. — EN EL PLAN: jue 15 · 05:30  Abrir en Google Maps<br/><a href="https://www.google.com/maps/search/?api=1&amp;query=35.632896,139.880394">Google Maps</a>]]></description><Point><coordinates>139.880394,35.632896,0</coordinates></Point></Placemark></Folder>
<Folder><name>jue 15 · rutas</name><Placemark><name>d15·1 🚶 Hotel → Santuario Meiji</name><styleUrl>#L7a6f633</styleUrl><LineString><tessellate>1</tessellate><coordinates>139.693676,35.694462,0 139.693581,35.694278,0 139.694093,35.694118,0 139.694149,35.694103,0 139.694444,35.694022,0 139.694871,35.693898,0 139.694990,35.693863,0 139.695283,35.693784,0 139.695256,35.693718,0 139.695222,35.693643,0 139.695207,35.693608,0 139.695203,35.693584,0 139.695291,35.693558,0 139.695829,35.693402,0 139.696024,35.693345,0 139.696645,35.693165,0 139.696742,35.693136,0 139.696805,35.693112,0 139.696810,35.693109,0 139.696850,35.693074,0 139.696854,35.693071,0 139.696857,35.693013,0 139.696858,35.693007,0 139.696868,35.693004,0 139.697119,35.692981,0 139.697162,35.692900,0 139.697167,35.692896,0 139.697183,35.692881,0 139.697147,35.692869,0 139.697150,35.692864,0 139.697158,35.692850,0 139.697239,35.692870,0 139.697434,35.692718,0 139.697851,35.692378,0 139.697992,35.692258,0 139.698007,35.692215,0 139.698013,35.692182,0 139.698016,35.692171,0 139.698021,35.692144,0 139.698037,35.692120,0 139.698042,35.692053,0 139.698045,35.692011,0 139.698046,35.691997,0 139.698049,35.691968,0 139.698051,35.691944,0 139.698053,35.691924,0 139.698072,35.691662,0 139.698074,35.691642,0 139.698083,35.691518,0 139.698091,35.691413,0 139.698029,35.691344,0 139.698031,35.691300,0 139.698033,35.691266,0 139.698041,35.691125,0 139.698046,35.691035,0 139.698085,35.691024,0 139.698113,35.691005,0 139.698126,35.690983,0 139.698131,35.690962,0 139.698174,35.690379,0 139.698182,35.690321,0 139.698197,35.690279,0 139.698249,35.690233,0 139.698265,35.690220,0 139.698478,35.690160,0 139.698482,35.690095,0 139.698530,35.690064,0 139.698539,35.690002,0 139.698558,35.689870,0 139.698578,35.689727,0 139.698600,35.689573,0 139.698621,35.689430,0 139.698631,35.689353,0 139.698668,35.689128,0 139.698704,35.688896,0 139.698726,35.688790,0 139.698766,35.688729,0 139.698733,35.688680,0 139.698702,35.688659,0 139.698749,35.688578,0 139.698810,35.688475,0 139.698857,35.688398,0 139.698949,35.688399,0 139.698993,35.688337,0 139.699036,35.688250,0 139.699073,35.688155,0 139.699096,35.688095,0 139.699241,35.687692,0 139.699424,35.687135,0 139.699458,35.687055,0 139.699525,35.686901,0 139.699602,35.686694,0 139.699697,35.686529,0 139.699913,35.686274,0 139.700583,35.685705,0 139.700612,35.685665,0 139.700676,35.685607,0 139.700717,35.685569,0 139.700752,35.685537,0 139.700790,35.685503,0 139.700857,35.685441,0 139.700841,35.685404,0 139.700874,35.685370,0 139.700950,35.685284,0 139.700979,35.685246,0 139.701019,35.685198,0 139.701062,35.685073,0 139.701163,35.684790,0 139.701187,35.684721,0 139.701260,35.684513,0 139.701428,35.683899,0 139.701507,35.683596,0 139.701514,35.683570,0 139.701503,35.683543,0 139.701488,35.683537,0 139.701504,35.683454,0 139.701520,35.683377,0 139.701572,35.683301,0 139.701580,35.683270,0 139.701622,35.683112,0 139.701654,35.682941,0 139.701673,35.682945,0 139.701689,35.682873,0 139.701684,35.682847,0 139.701681,35.682836,0 139.701674,35.682800,0 139.701638,35.682767,0 139.701612,35.682759,0 139.701624,35.682715,0 139.701638,35.682663,0 139.701686,35.682655,0 139.701733,35.682623,0 139.701802,35.682432,0 139.702099,35.681555,0 139.702153,35.681405,0 139.702177,35.681342,0 139.702358,35.680805,0 139.702382,35.680753,0 139.702431,35.680703,0 139.702538,35.680617,0 139.702629,35.680560,0 139.702724,35.680514,0 139.702792,35.680466,0 139.702861,35.680404,0 139.702900,35.680360,0 139.702938,35.680194,0 139.702904,35.680152,0 139.702820,35.680116,0 139.702732,35.680076,0 139.702702,35.680064,0 139.702661,35.680042,0 139.702754,35.680008,0 139.702526,35.679828,0 139.702240,35.679386,0 139.702120,35.679134,0 139.702001,35.679107,0 139.701516,35.679154,0 139.701417,35.679178,0 139.701018,35.678885,0 139.700644,35.678504,0 139.700369,35.678117,0 139.700455,35.677769,0 139.700567,35.677467,0 139.700617,35.677353,0 139.700806,35.676918,0 139.700770,35.676911,0 139.700684,35.676884,0 139.700525,35.676704,0 139.700314,35.676550,0 139.700184,35.676507,0 139.700258,35.675925,0 139.700268,35.675847,0 139.700273,35.675811,0 139.700298,35.675639,0 139.700252,35.675636,0 139.700072,35.675629,0 139.699454,35.675603,0 139.699426,35.675869,0</coordinates></LineString></Placemark><Placemark><name>d15·2 🚇 05:30 JR Chūō Line (rápida): Shinjuku → Tokyo ⇒ Santuario Meiji</name><styleUrl>#Lf15a226</styleUrl><LineString><tessellate>1</tessellate><coordinates>139.698762,35.688726,0 139.729482,35.686205,0 139.764440,35.699717,0 139.770698,35.694473,0 139.764615,35.677700,0</coordinates></LineString></Placemark><Placemark><name>d15·3 🚇 05:30 JR Keiyo Line: Tokyo → Maihama ⇒ Santuario Meiji</name><styleUrl>#Lc9252f6</styleUrl><LineString><tessellate>1</tessellate><coordinates>139.764615,35.677700,0 139.776469,35.674006,0 139.792284,35.668191,0 139.817251,35.658703,0 139.826463,35.645085,0 139.860845,35.644679,0 139.776085,35.616744,0</coordinates></LineString></Placemark><Placemark><name>d15·4 🚇 05:50 JR Yamanote Line: Shinjuku → Harajuku ⇒ Santuario Meiji</name><styleUrl>#L9acd326</styleUrl><LineString><tessellate>1</tessellate><coordinates>139.698762,35.688726,0 139.702056,35.683033,0 139.702466,35.670090,0</coordinates></LineString></Placemark><Placemark><name>d15·5 🚶 Harajuku → Santuario Meiji</name><styleUrl>#L7a6f633</styleUrl><LineString><tessellate>1</tessellate><coordinates>139.702523,35.670074,0 139.702488,35.669992,0 139.702309,35.669998,0 139.702292,35.669999,0 139.702283,35.669999,0 139.702178,35.669846,0 139.702126,35.669840,0 139.702083,35.669839,0 139.702108,35.670041,0 139.702149,35.670798,0 139.702213,35.671145,0 139.702362,35.671704,0 139.702561,35.672181,0 139.702735,35.672597,0 139.702528,35.672631,0 139.702593,35.672820,0 139.702668,35.673006,0 139.702598,35.673153,0 139.702207,35.673303,0 139.702117,35.673325,0 139.701984,35.673363,0 139.701867,35.673382,0 139.701851,35.673545,0 139.701784,35.673848,0 139.701737,35.673973,0 139.701686,35.674049,0 139.701726,35.674162,0 139.701787,35.674252,0 139.701867,35.674385,0 139.701904,35.674435,0 139.701874,35.674483,0 139.701868,35.674567,0 139.701883,35.674660,0 139.701868,35.674821,0 139.701839,35.674992,0 139.701804,35.675060,0 139.701732,35.675259,0 139.701582,35.675288,0 139.701413,35.675321,0 139.701090,35.675525,0 139.700928,35.675628,0 139.700773,35.675677,0 139.700699,35.675675,0 139.700499,35.675661,0 139.700430,35.675653,0 139.700298,35.675639,0 139.700252,35.675636,0 139.700072,35.675629,0 139.699454,35.675603,0 139.699426,35.675869,0</coordinates></LineString></Placemark><Placemark><name>d15·6 🚶 Santuario Meiji → Takeshita Street + Omotesandō</name><styleUrl>#L7a6f633</styleUrl><LineString><tessellate>1</tessellate><coordinates>139.699426,35.675869,0 139.699426,35.675869,0 139.699454,35.675603,0 139.700072,35.675629,0 139.700252,35.675636,0 139.700298,35.675639,0 139.700430,35.675653,0 139.700499,35.675661,0 139.700699,35.675675,0 139.700773,35.675677,0 139.700928,35.675628,0 139.701090,35.675525,0 139.701413,35.675321,0 139.701582,35.675288,0 139.701732,35.675259,0 139.701804,35.675060,0 139.701839,35.674992,0 139.701868,35.674821,0 139.701883,35.674660,0 139.701868,35.674567,0 139.701874,35.674483,0 139.701904,35.674435,0 139.701867,35.674385,0 139.701787,35.674252,0 139.701726,35.674162,0 139.701686,35.674049,0 139.701737,35.673973,0 139.701784,35.673848,0 139.701851,35.673545,0 139.701867,35.673382,0 139.701984,35.673363,0 139.702117,35.673325,0 139.702207,35.673303,0 139.702598,35.673153,0 139.702668,35.673006,0 139.702593,35.672820,0 139.702528,35.672631,0 139.702735,35.672597,0 139.702561,35.672181,0 139.702362,35.671704,0 139.702213,35.671145,0 139.702149,35.670798,0 139.702108,35.670041,0 139.702083,35.669839,0 139.702126,35.669840,0 139.702178,35.669846,0 139.702275,35.669837,0 139.702586,35.669808,0 139.702656,35.669820,0 139.702628,35.669736,0 139.702689,35.669731,0 139.702811,35.669719,0 139.702873,35.669714,0 139.702907,35.669710,0 139.702935,35.669926,0 139.702981,35.669916,0 139.703016,35.669894,0 139.703044,35.669865,0 139.703073,35.669882,0 139.703187,35.669755,0 139.703310,35.669824,0 139.703425,35.669822,0 139.703591,35.669864,0 139.703636,35.669872,0 139.703722,35.669894,0 139.703879,35.669935,0 139.703984,35.669965,0 139.704020,35.669973,0 139.704028,35.669952,0 139.704125,35.670007,0 139.704249,35.670102,0 139.704286,35.670132,0 139.704330,35.670187,0 139.704470,35.670462,0 139.704511,35.670608,0 139.704694,35.670577,0 139.704879,35.670751,0 139.705179,35.671035,0 139.705182,35.671034,0</coordinates></LineString></Placemark><Placemark><name>d15·7 🚶 Takeshita Street + Omotesandō → Harajuku ⇒ Cruce de Shibuya</name><styleUrl>#L7a6f633</styleUrl><LineString><tessellate>1</tessellate><coordinates>139.705182,35.671034,0 139.705179,35.671035,0 139.704874,35.671207,0 139.704845,35.671219,0 139.704817,35.671229,0 139.704127,35.671372,0 139.703798,35.671440,0 139.703117,35.671584,0 139.703106,35.671543,0 139.703102,35.671524,0 139.703096,35.671502,0 139.703009,35.671170,0 139.702959,35.670903,0 139.702948,35.670788,0 139.702965,35.670617,0 139.702951,35.670564,0 139.702962,35.670291,0 139.702869,35.670295,0 139.702803,35.670298,0 139.702789,35.670176,0 139.702777,35.670095,0 139.702717,35.670100,0 139.702540,35.670116,0 139.702523,35.670074,0</coordinates></LineString></Placemark><Placemark><name>d15·8 🚇 15:15 JR Yamanote Line: Harajuku → Shibuya ⇒ Cruce de Shibuya</name><styleUrl>#L9acd326</styleUrl><LineString><tessellate>1</tessellate><coordinates>139.702635,35.666676,0 139.702476,35.666397,0 139.702317,35.666676,0</coordinates></LineString></Placemark><Placemark><name>d15·9 🚶 Shibuya → Cruce de Shibuya</name><styleUrl>#L7a6f633</styleUrl><LineString><tessellate>1</tessellate><coordinates>139.702508,35.659013,0 139.702519,35.658980,0 139.702575,35.658855,0 139.702529,35.658837,0 139.702576,35.658748,0 139.702636,35.658635,0 139.702759,35.658680,0 139.702828,35.658534,0 139.702864,35.658520,0 139.702852,35.658547,0 139.702842,35.658571,0 139.702834,35.658588,0 139.702536,35.658380,0 139.702516,35.658423,0 139.702503,35.658451,0 139.702368,35.658727,0 139.702301,35.658706,0 139.702217,35.658679,0 139.702207,35.658701,0 139.702060,35.658656,0 139.702034,35.658713,0 139.701810,35.659265,0 139.701559,35.659315,0 139.701486,35.659307,0 139.701237,35.659286,0 139.701190,35.659281,0 139.701196,35.659242,0 139.701121,35.659234,0 139.701023,35.659224,0 139.700976,35.659211,0 139.700736,35.659281,0 139.700664,35.659367,0 139.700656,35.659377,0 139.700572,35.659482,0 139.700560,35.659483,0</coordinates></LineString></Placemark><Placemark><name>d15·10 🚶 Cruce de Shibuya → Shibuya Sky</name><styleUrl>#L7a6f633</styleUrl><LineString><tessellate>1</tessellate><coordinates>139.700560,35.659483,0 139.700572,35.659482,0 139.700656,35.659377,0 139.700664,35.659367,0 139.700736,35.659281,0 139.700976,35.659211,0 139.701023,35.659224,0 139.701121,35.659234,0 139.701196,35.659242,0 139.701190,35.659281,0 139.701237,35.659286,0 139.701486,35.659307,0 139.701559,35.659315,0 139.701810,35.659265,0 139.702034,35.658713,0 139.702045,35.658690,0</coordinates></LineString></Placemark></Folder>
<Folder><name>vie 16 · lugares</name><Placemark><name>1. 07:00 · Gran Buda de Kamakura (d16)</name><styleUrl>#n1</styleUrl><description><![CDATA[]]></description><Point><coordinates>139.535744,35.316814,0</coordinates></Point></Placemark><Placemark><name>2. 08:40 · Hase-dera (Kamakura) (d16)</name><styleUrl>#n2</styleUrl><description><![CDATA[]]></description><Point><coordinates>139.533063,35.312464,0</coordinates></Point></Placemark><Placemark><name>3. 07:00 · Lago Kawaguchiko (d16)</name><styleUrl>#n3</styleUrl><description><![CDATA[]]></description><Point><coordinates>138.751779,35.517095,0</coordinates></Point></Placemark><Placemark><name>4. 10:30 · teamLab Planets (d16)</name><styleUrl>#n4</styleUrl><description><![CDATA[]]></description><Point><coordinates>139.789774,35.649121,0</coordinates></Point></Placemark><Placemark><name>5. 14:15 · Akihabara (d16)</name><styleUrl>#n5</styleUrl><description><![CDATA[]]></description><Point><coordinates>139.771370,35.699647,0</coordinates></Point></Placemark><Placemark><name>🍜 Torikizoku</name><styleUrl>#resto_Take</styleUrl><description><![CDATA[Yakitori de cadena: TODO a ¥370 el pincho — ideal 10 personas · ¥2,500 · Nivel 🎋 Take — días: mié 7 · vie 16  Abrir en Google Maps<br/><a href="https://www.google.com/maps/search/?api=1&amp;query=34.664054,135.502786">Google Maps</a>]]></description><Point><coordinates>135.502786,34.664054,0</coordinates></Point></Placemark><Placemark><name>⭐ teamLab Planets</name><styleUrl>#k_site</styleUrl><description><![CDATA[El museo donde el arte te toca: caminas descalzo por agua con koi de luz, cuartos infinitos de flores y esferas que responden a tu paso. — EN EL PLAN: vie 16 · 10:30  Abrir en Google Maps<br/><a href="https://www.google.com/maps/search/?api=1&amp;query=35.649121,139.789774">Google Maps</a>]]></description><Point><coordinates>139.789774,35.649121,0</coordinates></Point></Placemark><Placemark><name>⭐ Akihabara</name><styleUrl>#k_site</styleUrl><description><![CDATA[La 'Ciudad Eléctrica': edificios de 8 pisos de anime, retro-games, figuras, maid cafés y arcades en cada cuadra. — EN EL PLAN: vie 16 · 14:15 · sáb 17 · 14:00  Abrir en Google Maps<br/><a href="https://www.google.com/maps/search/?api=1&amp;query=35.699647,139.771370">Google Maps</a>]]></description><Point><coordinates>139.771370,35.699647,0</coordinates></Point></Placemark><Placemark><name>🍜 Uoya-Itcho</name><styleUrl>#resto_Take</styleUrl><description><![CDATA[Izakaya grande de pescado — acomoda mesa de 10 · ¥3,500 · Nivel 🎋 Take — días: vie 16  Abrir en Google Maps<br/><a href="https://www.google.com/maps/search/?api=1&amp;query=35.691030,139.707505">Google Maps</a>]]></description><Point><coordinates>139.707505,35.691030,0</coordinates></Point></Placemark><Placemark><name>🍜 Gyukaku</name><styleUrl>#resto_Ai</styleUrl><description><![CDATA[Yakiniku de cadena confiable, mesas amplias · ¥4,000 · Nivel 🌊 Ai — días: vie 16  Abrir en Google Maps<br/><a href="https://www.google.com/maps/search/?api=1&amp;query=35.694387,139.701282">Google Maps</a>]]></description><Point><coordinates>139.701282,35.694387,0</coordinates></Point></Placemark><Placemark><name>🍜 Nabezo Shinjuku</name><styleUrl>#resto_Ai</styleUrl><description><![CDATA[Tabehōdai de shabu y sukiyaki — hecho para grupos · ¥4,500 · Nivel 🌊 Ai — días: vie 16  Abrir en Google Maps<br/><a href="https://www.google.com/maps/search/?api=1&amp;query=35.668070,139.740806">Google Maps</a>]]></description><Point><coordinates>139.740806,35.668070,0</coordinates></Point></Placemark><Placemark><name>🍜 Imahan shabu</name><styleUrl>#resto_Ai</styleUrl><description><![CDATA[El shabu de la casa de 1895, versión moderna · ¥6,000 · Nivel 🌊 Ai — días: vie 16  Abrir en Google Maps<br/><a href="https://www.google.com/maps/search/?api=1&amp;query=35.691344,139.691502">Google Maps</a>]]></description><Point><coordinates>139.691502,35.691344,0</coordinates></Point></Placemark><Placemark><name>🍜 Jojoen</name><styleUrl>#resto_Shu</styleUrl><description><![CDATA[Yakiniku premium con privados para 10 — reservar desde México · ¥8–12,000 · Nivel 🔴 Shu — días: vie 16  Abrir en Google Maps<br/><a href="https://www.google.com/maps/search/?api=1&amp;query=35.691254,139.701963">Google Maps</a>]]></description><Point><coordinates>139.701963,35.691254,0</coordinates></Point></Placemark><Placemark><name>🍜 NY Grill (Park Hyatt)</name><styleUrl>#resto_Shu</styleUrl><description><![CDATA[El piso 52: steak, jazz en vivo y todo Tokio abajo · ¥15,000+ · Nivel 🔴 Shu — días: vie 16  Abrir en Google Maps<br/><a href="https://www.google.com/maps/search/?api=1&amp;query=35.685500,139.690739">Google Maps</a>]]></description><Point><coordinates>139.690739,35.685500,0</coordinates></Point></Placemark><Placemark><name>🍜 Golden Gai</name><styleUrl>#resto_</styleUrl><description><![CDATA[200 barras de 5 asientos — para la sobremesa, los 10 se dispersan solos · ¥1,000–2,000/bar · Nivel 🍴 — días: vie 16  Abrir en Google Maps<br/><a href="https://www.google.com/maps/search/?api=1&amp;query=35.694112,139.704761">Google Maps</a>]]></description><Point><coordinates>139.704761,35.694112,0</coordinates></Point></Placemark><Placemark><name>⭐ Monte Fuji</name><styleUrl>#k_site</styleUrl><description><![CDATA[La montaña perfecta: 3,776 m de cono volcánico visible desde 100 km. Verla despejada es lotería — en octubre, las mañanas dan la mejor probabilidad. — EN EL PLAN: mié 14 · 08:00 · vie 16 · 06:00  Abrir en Google Maps<br/><a href="https://www.google.com/maps/search/?api=1&amp;query=35.360625,138.727363">Google Maps</a>]]></description><Point><coordinates>138.727363,35.360625,0</coordinates></Point></Placemark><Placemark><name>⭐ Gran Buda de Kamakura</name><styleUrl>#k_site</styleUrl><description><![CDATA[11 m y 121 toneladas de bronce meditando al aire libre desde hace 770 años, con las montañas de Kamakura detrás. Se puede entrar (¥50). — EN EL PLAN: vie 16 · 07:00  Abrir en Google Maps<br/><a href="https://www.google.com/maps/search/?api=1&amp;query=35.316814,139.535744">Google Maps</a>]]></description><Point><coordinates>139.535744,35.316814,0</coordinates></Point></Placemark><Placemark><name>⭐ Hase-dera (Kamakura)</name><styleUrl>#k_site</styleUrl><description><![CDATA[El templo de las hortensias y la Kannon dorada de 9 m — la escultura de madera más grande de Japón — con terraza al mar de Kamakura. — EN EL PLAN: vie 16 · 08:40  Abrir en Google Maps<br/><a href="https://www.google.com/maps/search/?api=1&amp;query=35.312464,139.533063">Google Maps</a>]]></description><Point><coordinates>139.533063,35.312464,0</coordinates></Point></Placemark><Placemark><name>⭐ Lago Kawaguchiko</name><styleUrl>#k_site</styleUrl><description><![CDATA[El lago con la vista más famosa del Fuji: la ribera norte lo refleja entero, con los momiji encendidos en otoño. — EN EL PLAN: jue 15 · 21:15 · vie 16 · 07:00  Abrir en Google Maps<br/><a href="https://www.google.com/maps/search/?api=1&amp;query=35.517095,138.751779">Google Maps</a>]]></description><Point><coordinates>138.751779,35.517095,0</coordinates></Point></Placemark></Folder>
<Folder><name>vie 16 · rutas</name><Placemark><name>d16·1 🚶 Hotel → Shinjuku ⇒ Gran Buda de Kamakura</name><styleUrl>#L7a6f633</styleUrl><LineString><tessellate>1</tessellate><coordinates>139.693676,35.694462,0 139.693581,35.694278,0 139.694093,35.694118,0 139.694149,35.694103,0 139.694444,35.694022,0 139.694871,35.693898,0 139.694990,35.693863,0 139.695283,35.693784,0 139.695256,35.693718,0 139.695222,35.693643,0 139.695207,35.693608,0 139.695203,35.693584,0 139.695291,35.693558,0 139.695829,35.693402,0 139.696024,35.693345,0 139.696645,35.693165,0 139.696742,35.693136,0 139.696805,35.693112,0 139.696810,35.693109,0 139.696850,35.693074,0 139.696854,35.693071,0 139.696857,35.693013,0 139.696858,35.693007,0 139.696868,35.693004,0 139.697119,35.692981,0 139.697162,35.692900,0 139.697167,35.692896,0 139.697183,35.692881,0 139.697147,35.692869,0 139.697150,35.692864,0 139.697158,35.692850,0 139.697239,35.692870,0 139.697434,35.692718,0 139.697851,35.692378,0 139.697992,35.692258,0 139.698007,35.692215,0 139.698013,35.692182,0 139.698016,35.692171,0 139.698021,35.692144,0 139.698037,35.692120,0 139.698042,35.692053,0 139.698045,35.692011,0 139.698046,35.691997,0 139.698049,35.691968,0 139.698051,35.691944,0 139.698053,35.691924,0 139.698072,35.691662,0 139.698074,35.691642,0 139.698083,35.691518,0 139.698091,35.691413,0 139.698029,35.691344,0 139.698031,35.691300,0 139.698033,35.691266,0 139.698041,35.691125,0 139.698046,35.691035,0 139.698085,35.691024,0 139.698113,35.691005,0 139.698126,35.690983,0 139.698131,35.690962,0 139.698174,35.690379,0 139.698182,35.690321,0 139.698197,35.690279,0 139.698249,35.690233,0 139.698265,35.690220,0 139.698478,35.690160,0 139.698482,35.690095,0 139.698530,35.690064,0 139.698539,35.690002,0 139.698558,35.689870,0 139.698578,35.689727,0 139.698600,35.689573,0 139.698621,35.689430,0 139.698631,35.689353,0 139.698668,35.689128,0 139.698704,35.688896,0 139.698743,35.688873,0 139.698749,35.688820,0 139.698762,35.688726,0</coordinates></LineString></Placemark><Placemark><name>d16·2 🚇 07:00 JR Shōnan-Shinjuku Line: Shinjuku → Kamakura ⇒ Gran Buda de Kamakura</name><styleUrl>#Le21b306</styleUrl><LineString><tessellate>1</tessellate><coordinates>139.698762,35.688726,0 139.702497,35.659011,0 139.707823,35.646245,0 139.729254,35.619464,0 139.721995,35.601780,0 139.703567,35.619905,0 139.742672,35.628527,0 139.599702,35.446689,0 139.841711,35.695362,0 139.694456,35.716965,0 139.848863,35.689501,0 139.546500,35.337000,0 139.550200,35.319000,0</coordinates></LineString></Placemark><Placemark><name>d16·3 🚶 Kamakura → Gran Buda de Kamakura</name><styleUrl>#L7a6f633</styleUrl><LineString><tessellate>1</tessellate><coordinates>139.550120,35.319018,0 139.550120,35.319018,0 139.550091,35.319018,0 139.550093,35.319049,0 139.550064,35.319181,0 139.550203,35.319176,0 139.550224,35.319425,0 139.550160,35.319425,0 139.550136,35.319414,0 139.550065,35.319418,0 139.549972,35.319404,0 139.549901,35.319365,0 139.549846,35.319300,0 139.549776,35.319130,0 139.549252,35.319295,0 139.548850,35.319427,0 139.548707,35.319444,0 139.548687,35.319404,0 139.547184,35.319614,0 139.546387,35.319730,0 139.546251,35.319747,0 139.545603,35.319824,0 139.545433,35.319841,0 139.544678,35.319912,0 139.544256,35.319995,0 139.544082,35.320046,0 139.543764,35.320141,0 139.543462,35.320250,0 139.542756,35.320506,0 139.542664,35.320540,0 139.542370,35.320634,0 139.541842,35.320766,0 139.541450,35.320854,0 139.540701,35.321031,0 139.540433,35.321076,0 139.540269,35.321088,0 139.539372,35.321122,0 139.538681,35.321139,0 139.538390,35.320053,0 139.538385,35.320038,0 139.538139,35.319236,0 139.538130,35.319198,0 139.537978,35.318634,0 139.537808,35.318048,0 139.537685,35.317593,0 139.537637,35.317414,0 139.537629,35.317399,0 139.537557,35.317094,0 139.537514,35.316958,0 139.537422,35.316832,0 139.537279,35.316756,0 139.536692,35.316568,0 139.536596,35.316533,0 139.536273,35.316221,0 139.536012,35.315863,0 139.535912,35.315673,0 139.535767,35.315401,0 139.535606,35.315219,0 139.535402,35.315068,0 139.535155,35.315126,0 139.535196,35.315379,0 139.535191,35.315612,0 139.535281,35.315612,0 139.535282,35.315624,0 139.535282,35.315631,0 139.535281,35.315662,0 139.535281,35.315671,0 139.535310,35.315736,0 139.535318,35.315750,0 139.535322,35.315758,0 139.535333,35.315777,0 139.535385,35.315874,0 139.535421,35.315933,0 139.535448,35.315980,0 139.535355,35.316047,0 139.535326,35.316067,0 139.535338,35.316112,0 139.535346,35.316148,0 139.535358,35.316191,0 139.535388,35.316318,0 139.535498,35.316359,0 139.535541,35.316560,0 139.535545,35.316589,0 139.535563,35.316667,0 139.535576,35.316729,0 139.535703,35.316719,0 139.535709,35.316746,0 139.535772,35.316751,0 139.535790,35.316762,0</coordinates></LineString></Placemark><Placemark><name>d16·4 🚶 Gran Buda de Kamakura → Kamakura ⇒ Hase-dera (Kamakura)</name><styleUrl>#L7a6f633</styleUrl><LineString><tessellate>1</tessellate><coordinates>139.535790,35.316762,0 139.535772,35.316751,0 139.535709,35.316746,0 139.535703,35.316719,0 139.535576,35.316729,0 139.535563,35.316667,0 139.535545,35.316589,0 139.535541,35.316560,0 139.535498,35.316359,0 139.535388,35.316318,0 139.535358,35.316191,0 139.535346,35.316148,0 139.535338,35.316112,0 139.535326,35.316067,0 139.535355,35.316047,0 139.535448,35.315980,0 139.535421,35.315933,0 139.535385,35.315874,0 139.535333,35.315777,0 139.535322,35.315758,0 139.535318,35.315750,0 139.535310,35.315736,0 139.535281,35.315671,0 139.535281,35.315662,0 139.535282,35.315631,0 139.535282,35.315624,0 139.535281,35.315612,0 139.535191,35.315612,0 139.535196,35.315379,0 139.535155,35.315126,0 139.535402,35.315068,0 139.535606,35.315219,0 139.535767,35.315401,0 139.535912,35.315673,0 139.536012,35.315863,0 139.536273,35.316221,0 139.536596,35.316533,0 139.536692,35.316568,0 139.537279,35.316756,0 139.537422,35.316832,0 139.537514,35.316958,0 139.537557,35.317094,0 139.537629,35.317399,0 139.537637,35.317414,0 139.537685,35.317593,0 139.537808,35.318048,0 139.537978,35.318634,0 139.538130,35.319198,0 139.538139,35.319236,0 139.538385,35.320038,0 139.538390,35.320053,0 139.538681,35.321139,0 139.539372,35.321122,0 139.540269,35.321088,0 139.540433,35.321076,0 139.540701,35.321031,0 139.541450,35.320854,0 139.541842,35.320766,0 139.542370,35.320634,0 139.542664,35.320540,0 139.542756,35.320506,0 139.543462,35.320250,0 139.543764,35.320141,0 139.544082,35.320046,0 139.544256,35.319995,0 139.544678,35.319912,0 139.545433,35.319841,0 139.545603,35.319824,0 139.546251,35.319747,0 139.546387,35.319730,0 139.547184,35.319614,0 139.548687,35.319404,0 139.548707,35.319444,0 139.548850,35.319427,0 139.549252,35.319295,0 139.549776,35.319130,0 139.549846,35.319300,0 139.549901,35.319365,0 139.549972,35.319404,0 139.550065,35.319418,0 139.550136,35.319414,0 139.550160,35.319425,0 139.550224,35.319425,0 139.550203,35.319176,0 139.550064,35.319181,0 139.550093,35.319049,0 139.550091,35.319018,0 139.550120,35.319018,0</coordinates></LineString></Placemark><Placemark><name>d16·5 🚇 08:40 Enoden: Kamakura → Hase ⇒ Hase-dera (Kamakura)</name><styleUrl>#L0088036</styleUrl><LineString><tessellate>1</tessellate><coordinates>139.550200,35.319000,0 139.544500,35.315600,0 139.539600,35.312200,0 139.533200,35.312500,0</coordinates></LineString></Placemark><Placemark><name>d16·6 🚇 10:00 Yurikamome: Shimbashi → Shin-Toyosu ⇒ teamLab Planets</name><styleUrl>#L29469c6</styleUrl><LineString><tessellate>1</tessellate><coordinates>139.759614,35.667144,0 139.760272,35.663238,0 139.761907,35.653974,0 139.759100,35.649189,0 139.757772,35.641738,0 139.778178,35.629740,0 139.772453,35.626388,0 139.773081,35.621401,0 139.778704,35.618158,0 139.781300,35.624754,0 139.791370,35.630197,0 139.796789,35.641511,0 139.788792,35.640103,0 139.785799,35.645771,0 139.789614,35.648518,0</coordinates></LineString></Placemark><Placemark><name>d16·7 🚇 14:15 JR Chūō Line (rápida): Akihabara → Shinjuku</name><styleUrl>#Lf15a226</styleUrl><LineString><tessellate>1</tessellate><coordinates>139.773072,35.698383,0 139.764440,35.699717,0 139.753502,35.702048,0 139.745023,35.702084,0 139.736818,35.691392,0 139.729482,35.686205,0 139.720495,35.680024,0 139.711118,35.681083,0 139.702056,35.683033,0 139.698762,35.688726,0</coordinates></LineString></Placemark></Folder>
<Folder><name>sáb 17 · lugares</name><Placemark><name>1. 05:00 · Tsukiji Outer Market (d17)</name><styleUrl>#n1</styleUrl><description><![CDATA[]]></description><Point><coordinates>139.770252,35.664770,0</coordinates></Point></Placemark><Placemark><name>2. 05:15 · Ginza (d17)</name><styleUrl>#n2</styleUrl><description><![CDATA[]]></description><Point><coordinates>139.766486,35.671223,0</coordinates></Point></Placemark><Placemark><name>3. 06:00 · Tsukiji Outer Market (d17)</name><styleUrl>#n3</styleUrl><description><![CDATA[]]></description><Point><coordinates>139.770252,35.664770,0</coordinates></Point></Placemark><Placemark><name>4. 10:15 · Ginza (d17)</name><styleUrl>#n4</styleUrl><description><![CDATA[]]></description><Point><coordinates>139.766486,35.671223,0</coordinates></Point></Placemark><Placemark><name>5. 12:20 · Torre de Tokio (d17)</name><styleUrl>#n5</styleUrl><description><![CDATA[]]></description><Point><coordinates>139.745433,35.658580,0</coordinates></Point></Placemark><Placemark><name>6. 12:20 · Zōjō-ji (d17)</name><styleUrl>#n6</styleUrl><description><![CDATA[]]></description><Point><coordinates>139.748293,35.657479,0</coordinates></Point></Placemark><Placemark><name>7. 13:50 · Ginza (d17)</name><styleUrl>#n7</styleUrl><description><![CDATA[]]></description><Point><coordinates>139.766486,35.671223,0</coordinates></Point></Placemark><Placemark><name>8. 14:00 · Akihabara (d17)</name><styleUrl>#n8</styleUrl><description><![CDATA[]]></description><Point><coordinates>139.771370,35.699647,0</coordinates></Point></Placemark><Placemark><name>⭐ Tsukiji Outer Market</name><styleUrl>#k_site</styleUrl><description><![CDATA[El mercado exterior que sobrevivió a la mudanza: 400 puestos de tamagoyaki, atún, uni y cuchillos — el desayuno más rico de Tokio es de pie, puesto por puesto. — EN EL PLAN: sáb 17 · 05:00  Abrir en Google Maps<br/><a href="https://www.google.com/maps/search/?api=1&amp;query=35.664770,139.770252">Google Maps</a>]]></description><Point><coordinates>139.770252,35.664770,0</coordinates></Point></Placemark><Placemark><name>⭐ Ginza</name><styleUrl>#k_site</styleUrl><description><![CDATA[La milla de oro de Tokio: flagships de 12 pisos, papelerías legendarias (Itoya), galerías y vitrinas que son museos. — EN EL PLAN: sáb 17 · 05:15  Abrir en Google Maps<br/><a href="https://www.google.com/maps/search/?api=1&amp;query=35.671223,139.766486">Google Maps</a>]]></description><Point><coordinates>139.766486,35.671223,0</coordinates></Point></Placemark><Placemark><name>⭐ Torre de Tokio</name><styleUrl>#k_site</styleUrl><description><![CDATA[La torre roja y blanca de 333 m — 9 m más alta que la Eiffel que imita — con mirador a 150 m y un cariño de los tokiotas que el Skytree no le quita. — EN EL PLAN: sáb 17 · 12:20  Abrir en Google Maps<br/><a href="https://www.google.com/maps/search/?api=1&amp;query=35.658580,139.745433">Google Maps</a>]]></description><Point><coordinates>139.745433,35.658580,0</coordinates></Point></Placemark><Placemark><name>⭐ Zōjō-ji</name><styleUrl>#k_site</styleUrl><description><![CDATA[El gran templo a los pies de la Torre de Tokio: la puerta Sangedatsumon (1622) y las filas de jizō con gorritos rojos que conmueven. — EN EL PLAN: sáb 17 · 12:20  Abrir en Google Maps<br/><a href="https://www.google.com/maps/search/?api=1&amp;query=35.657479,139.748293">Google Maps</a>]]></description><Point><coordinates>139.748293,35.657479,0</coordinates></Point></Placemark><Placemark><name>⭐ Akihabara</name><styleUrl>#k_site</styleUrl><description><![CDATA[La 'Ciudad Eléctrica': edificios de 8 pisos de anime, retro-games, figuras, maid cafés y arcades en cada cuadra. — EN EL PLAN: vie 16 · 14:15 · sáb 17 · 14:00  Abrir en Google Maps<br/><a href="https://www.google.com/maps/search/?api=1&amp;query=35.699647,139.771370">Google Maps</a>]]></description><Point><coordinates>139.771370,35.699647,0</coordinates></Point></Placemark><Placemark><name>🍜 Sukiyaki Imahan</name><styleUrl>#resto_Ai</styleUrl><description><![CDATA[El sukiyaki formal de Asakusa (1895) · ¥10,000+ · Nivel 🌊 Ai — días: mar 13 · sáb 17  Abrir en Google Maps<br/><a href="https://www.google.com/maps/search/?api=1&amp;query=35.713935,139.792229">Google Maps</a>]]></description><Point><coordinates>139.792229,35.713935,0</coordinates></Point></Placemark><Placemark><name>🍜 Tonkatsu Bairin</name><styleUrl>#resto_Ai</styleUrl><description><![CDATA[El tonkatsu de Ginza desde 1927 — inventó la salsa · ¥2,500 · Nivel 🌊 Ai — días: mié 14 · sáb 17  Abrir en Google Maps<br/><a href="https://www.google.com/maps/search/?api=1&amp;query=35.669586,139.762748">Google Maps</a>]]></description><Point><coordinates>139.762748,35.669586,0</coordinates></Point></Placemark><Placemark><name>🍜 Ginza Lion</name><styleUrl>#resto_Ai</styleUrl><description><![CDATA[La cervecería más vieja de Japón (1934), salón art déco intacto · ¥3,500 · Nivel 🌊 Ai — días: mié 14 · sáb 17  Abrir en Google Maps<br/><a href="https://www.google.com/maps/search/?api=1&amp;query=35.669202,139.763159">Google Maps</a>]]></description><Point><coordinates>139.763159,35.669202,0</coordinates></Point></Placemark><Placemark><name>🍜 Sushi no Midori</name><styleUrl>#resto_Ai</styleUrl><description><![CDATA[La mejor relación calidad/precio del sushi de Tokio — por eso la fila · ¥4,000 · Nivel 🌊 Ai — días: mié 14 · sáb 17  Abrir en Google Maps<br/><a href="https://www.google.com/maps/search/?api=1&amp;query=35.670440,139.759658">Google Maps</a>]]></description><Point><coordinates>139.759658,35.670440,0</coordinates></Point></Placemark><Placemark><name>🍜 Kagari</name><styleUrl>#resto_Take</styleUrl><description><![CDATA[Tori-paitan (caldo de pollo cremoso) — Bib Gourmand, fila rápida · ¥1,500 · Nivel 🎋 Take — días: sáb 17  Abrir en Google Maps<br/><a href="https://www.google.com/maps/search/?api=1&amp;query=35.671202,139.761332">Google Maps</a>]]></description><Point><coordinates>139.761332,35.671202,0</coordinates></Point></Placemark><Placemark><name>🍜 Gonpachi</name><styleUrl>#resto_Take</styleUrl><description><![CDATA['El restaurante de Kill Bill' — turístico y divertidísimo · ¥5,000 · Nivel 🎋 Take — días: sáb 17  Abrir en Google Maps<br/><a href="https://www.google.com/maps/search/?api=1&amp;query=35.660174,139.723580">Google Maps</a>]]></description><Point><coordinates>139.723580,35.660174,0</coordinates></Point></Placemark></Folder>
<Folder><name>sáb 17 · rutas</name><Placemark><name>d17·1 🚇 05:15 Metro Marunouchi Line: Shinjuku → Ginza</name><styleUrl>#Le600126</styleUrl><LineString><tessellate>1</tessellate><coordinates>139.698762,35.688726,0 139.704882,35.690882,0 139.710854,35.688570,0 139.720172,35.687747,0 139.729482,35.686205,0 139.737269,35.676795,0 139.744963,35.673896,0 139.751057,35.673854,0 139.764050,35.671850,0</coordinates></LineString></Placemark><Placemark><name>d17·2 🚶 Ginza → Ginza</name><styleUrl>#L7a6f633</styleUrl><LineString><tessellate>1</tessellate><coordinates>139.764063,35.671862,0 139.764096,35.671839,0 139.764254,35.671722,0 139.764274,35.671739,0 139.764297,35.671757,0 139.764318,35.671775,0 139.764334,35.671788,0 139.764372,35.671759,0 139.764379,35.671754,0 139.764462,35.671824,0 139.764491,35.671799,0 139.764508,35.671811,0 139.764563,35.671771,0 139.764702,35.671669,0 139.764713,35.671661,0 139.764737,35.671644,0 139.764761,35.671626,0 139.764775,35.671616,0 139.764866,35.671549,0 139.765018,35.671437,0 139.765112,35.671457,0 139.765143,35.671430,0 139.765175,35.671405,0 139.765234,35.671361,0 139.765259,35.671342,0 139.765283,35.671323,0 139.765298,35.671236,0 139.765319,35.671211,0 139.765387,35.671158,0 139.765671,35.670939,0 139.765677,35.670936,0 139.765701,35.670921,0 139.765733,35.670894,0 139.765742,35.670889,0 139.765779,35.670858,0 139.766086,35.670624,0 139.766121,35.670656,0 139.766131,35.670666,0 139.766192,35.670724,0 139.766412,35.670932,0 139.766516,35.670930,0 139.766564,35.670957,0 139.766693,35.671086,0</coordinates></LineString></Placemark><Placemark><name>d17·3 🚶 Ginza → Ginza ⇒ Tsukiji Outer Market</name><styleUrl>#L7a6f633</styleUrl><LineString><tessellate>1</tessellate><coordinates>139.766693,35.671086,0 139.766564,35.670957,0 139.766516,35.670930,0 139.766412,35.670932,0 139.766192,35.670724,0 139.766131,35.670666,0 139.766121,35.670656,0 139.766086,35.670624,0 139.765779,35.670858,0 139.765742,35.670889,0 139.765733,35.670894,0 139.765701,35.670921,0 139.765677,35.670936,0 139.765671,35.670939,0 139.765387,35.671158,0 139.765319,35.671211,0 139.765298,35.671236,0 139.765283,35.671323,0 139.765259,35.671342,0 139.765234,35.671361,0 139.765175,35.671405,0 139.765143,35.671430,0 139.765112,35.671457,0 139.765018,35.671437,0 139.764866,35.671549,0 139.764775,35.671616,0 139.764761,35.671626,0 139.764737,35.671644,0 139.764713,35.671661,0 139.764702,35.671669,0 139.764563,35.671771,0 139.764508,35.671811,0 139.764491,35.671799,0 139.764462,35.671824,0 139.764379,35.671754,0 139.764372,35.671759,0 139.764334,35.671788,0 139.764318,35.671775,0 139.764297,35.671757,0 139.764274,35.671739,0 139.764254,35.671722,0 139.764096,35.671839,0 139.764063,35.671862,0</coordinates></LineString></Placemark><Placemark><name>d17·4 🚇 05:32 Metro Hibiya Line: Ginza → Tsukiji ⇒ Tsukiji Outer Market</name><styleUrl>#L9caeb76</styleUrl><LineString><tessellate>1</tessellate><coordinates>139.764050,35.671850,0 139.768029,35.670913,0 139.772592,35.668085,0</coordinates></LineString></Placemark><Placemark><name>d17·5 🚶 Tsukiji → Tsukiji Outer Market</name><styleUrl>#L7a6f633</styleUrl><LineString><tessellate>1</tessellate><coordinates>139.772554,35.668109,0 139.772078,35.667613,0 139.771965,35.667703,0 139.771946,35.667718,0 139.771762,35.667585,0 139.771711,35.667551,0 139.771699,35.667541,0 139.771581,35.667499,0 139.771520,35.667448,0 139.771467,35.667372,0 139.771434,35.667338,0 139.771396,35.667318,0 139.771375,35.667306,0 139.771332,35.667276,0 139.771302,35.667255,0 139.771294,35.667240,0 139.771079,35.667067,0 139.770867,35.666886,0 139.770776,35.666839,0 139.770695,35.666807,0 139.770619,35.666799,0 139.770610,35.666748,0 139.770545,35.666697,0 139.770456,35.666628,0 139.770417,35.666598,0 139.770374,35.666591,0 139.770382,35.666559,0 139.770382,35.666533,0 139.770355,35.666490,0 139.770174,35.666351,0 139.770143,35.666324,0 139.770115,35.666304,0 139.769427,35.665770,0 139.769409,35.665762,0 139.769481,35.665698,0 139.769564,35.665625,0 139.769618,35.665578,0 139.769595,35.665540,0 139.769595,35.665510,0 139.769615,35.665477,0 139.769647,35.665440,0 139.769743,35.665352,0 139.769768,35.665325,0 139.769790,35.665304,0 139.770054,35.665055,0 139.770088,35.665020,0 139.770050,35.664990,0 139.770272,35.664784,0</coordinates></LineString></Placemark><Placemark><name>d17·6 🚶 Tsukiji Outer Market → Ginza</name><styleUrl>#L7a6f633</styleUrl><LineString><tessellate>1</tessellate><coordinates>139.770272,35.664784,0 139.770050,35.664990,0 139.770088,35.665020,0 139.770054,35.665055,0 139.769790,35.665304,0 139.769768,35.665325,0 139.769743,35.665352,0 139.769647,35.665440,0 139.769615,35.665477,0 139.769595,35.665510,0 139.769595,35.665540,0 139.769618,35.665578,0 139.769564,35.665625,0 139.769481,35.665698,0 139.769409,35.665762,0 139.769388,35.665752,0 139.769334,35.665758,0 139.769265,35.665800,0 139.769148,35.665910,0 139.769125,35.665935,0 139.769102,35.665958,0 139.768932,35.666113,0 139.768907,35.666141,0 139.768882,35.666163,0 139.768644,35.666387,0 139.768635,35.666407,0 139.768625,35.666418,0 139.768601,35.666446,0 139.768571,35.666474,0 139.768556,35.666495,0 139.768543,35.666498,0 139.768513,35.666507,0 139.768463,35.666554,0 139.768176,35.666826,0 139.768163,35.666842,0 139.768147,35.666857,0 139.768123,35.666882,0 139.767898,35.667089,0 139.767888,35.667106,0 139.767881,35.667131,0 139.767884,35.667148,0 139.767883,35.667165,0 139.767874,35.667179,0 139.767833,35.667207,0 139.767789,35.667237,0 139.767769,35.667255,0 139.767461,35.667520,0 139.767437,35.667543,0 139.767419,35.667571,0 139.767416,35.667587,0 139.767413,35.667605,0 139.767418,35.667626,0 139.767392,35.667645,0 139.767364,35.667693,0 139.767343,35.667730,0 139.767329,35.667743,0 139.767304,35.667733,0 139.767275,35.667740,0 139.767261,35.667743,0 139.766890,35.668088,0 139.766890,35.668099,0 139.766890,35.668113,0 139.766872,35.668131,0 139.766849,35.668153,0 139.766826,35.668177,0 139.766818,35.668187,0 139.766798,35.668186,0 139.766581,35.668378,0 139.766559,35.668403,0 139.766545,35.668418,0 139.766296,35.668651,0 139.766286,35.668672,0 139.766301,35.668703,0 139.766344,35.668739,0 139.766323,35.668753,0 139.766285,35.668782,0 139.766114,35.668915,0 139.766075,35.668946,0 139.766046,35.668969,0 139.766739,35.669564,0 139.766753,35.669595,0 139.766753,35.669636,0 139.766749,35.669648,0 139.766779,35.669677,0 139.766825,35.669728,0 139.766910,35.669821,0 139.766957,35.669873,0 139.766972,35.669896,0 139.766934,35.669918,0 139.766823,35.670015,0 139.766782,35.670045,0 139.766771,35.670065,0 139.766746,35.670076,0 139.766718,35.670097,0 139.766684,35.670125,0 139.766666,35.670139,0 139.766626,35.670171,0 139.766603,35.670188,0 139.766583,35.670202,0 139.766561,35.670221,0 139.766281,35.670453,0 139.766237,35.670489,0 139.766218,35.670505,0 139.766188,35.670534,0 139.766150,35.670571,0 139.766247,35.670666,0 139.766192,35.670724,0 139.766412,35.670932,0 139.766516,35.670930,0 139.766564,35.670957,0 139.766693,35.671086,0</coordinates></LineString></Placemark><Placemark><name>d17·7 🚶 Ginza → Tsukiji ⇒ Torre de Tokio</name><styleUrl>#L7a6f633</styleUrl><LineString><tessellate>1</tessellate><coordinates>139.766693,35.671086,0 139.766881,35.671274,0 139.766896,35.671265,0 139.766917,35.671251,0 139.766951,35.671229,0 139.766965,35.671221,0 139.766985,35.671218,0 139.767141,35.671116,0 139.767174,35.671094,0 139.767211,35.671071,0 139.767446,35.670922,0 139.767459,35.670908,0 139.767457,35.670892,0 139.767481,35.670875,0 139.767501,35.670862,0 139.767527,35.670844,0 139.767553,35.670824,0 139.767565,35.670825,0 139.767592,35.670815,0 139.767751,35.670713,0 139.767764,35.670694,0 139.767767,35.670689,0 139.767766,35.670663,0 139.767706,35.670597,0 139.767725,35.670586,0 139.767775,35.670556,0 139.767980,35.670436,0 139.768025,35.670406,0 139.768043,35.670395,0 139.768061,35.670416,0 139.768088,35.670426,0 139.768124,35.670426,0 139.768144,35.670419,0 139.768812,35.669928,0 139.768857,35.669894,0 139.768867,35.669862,0 139.768891,35.669850,0 139.768921,35.669829,0 139.768945,35.669812,0 139.768961,35.669800,0 139.768989,35.669797,0 139.769172,35.669665,0 139.769198,35.669646,0 139.769232,35.669623,0 139.769396,35.669507,0 139.769407,35.669482,0 139.769414,35.669467,0 139.769443,35.669460,0 139.769466,35.669442,0 139.769487,35.669427,0 139.769526,35.669399,0 139.769806,35.669199,0 139.769828,35.669183,0 139.769853,35.669161,0 139.769882,35.669138,0 139.769911,35.669107,0 139.769945,35.669107,0 139.770832,35.668476,0 139.770848,35.668454,0 139.770839,35.668426,0 139.770899,35.668378,0 139.770962,35.668328,0 139.770976,35.668339,0 139.771005,35.668344,0 139.771036,35.668339,0 139.771866,35.667758,0 139.771881,35.667736,0 139.771881,35.667692,0 139.771863,35.667676,0 139.771711,35.667578,0 139.771711,35.667551,0 139.771762,35.667585,0 139.771946,35.667718,0 139.771965,35.667703,0 139.772078,35.667613,0 139.772554,35.668109,0</coordinates></LineString></Placemark><Placemark><name>d17·8 🚇 12:00 Metro Hibiya Line: Tsukiji → Kamiyachō ⇒ Torre de Tokio</name><styleUrl>#L9caeb76</styleUrl><LineString><tessellate>1</tessellate><coordinates>139.772592,35.668085,0 139.768029,35.670913,0 139.764050,35.671850,0 139.761069,35.674108,0 139.751057,35.673854,0 139.747765,35.667469,0 139.745048,35.662964,0</coordinates></LineString></Placemark><Placemark><name>d17·9 🚶 Kamiyachō → Torre de Tokio</name><styleUrl>#L7a6f633</styleUrl><LineString><tessellate>1</tessellate><coordinates>139.745008,35.662989,0 139.744901,35.662877,0 139.744845,35.662912,0 139.744829,35.662895,0 139.744572,35.662622,0 139.744381,35.662418,0 139.744342,35.662386,0 139.744311,35.662362,0 139.744116,35.662145,0 139.744187,35.662106,0 139.744284,35.662052,0 139.744352,35.662014,0 139.744346,35.661984,0 139.744275,35.661894,0 139.744209,35.661810,0 139.744085,35.661662,0 139.743999,35.661577,0 139.743766,35.661269,0 139.743701,35.661178,0 139.743686,35.661153,0 139.743504,35.660900,0 139.743478,35.660854,0 139.743463,35.660827,0 139.743354,35.660648,0 139.743294,35.660522,0 139.743192,35.660264,0 139.743161,35.660165,0 139.743153,35.660132,0 139.743141,35.660085,0 139.743136,35.660058,0 139.743136,35.660038,0 139.743141,35.660019,0 139.743170,35.659991,0 139.743187,35.659983,0 139.743200,35.659977,0 139.743252,35.659959,0 139.743904,35.659857,0 139.744101,35.659820,0 139.744276,35.659807,0 139.744315,35.659786,0 139.744346,35.659766,0 139.744380,35.659697,0 139.745341,35.659261,0 139.745796,35.659016,0 139.745761,35.658970,0 139.745740,35.658940,0 139.745645,35.658812,0 139.745632,35.658792,0 139.745632,35.658792,0</coordinates></LineString></Placemark><Placemark><name>d17·10 🚶 Torre de Tokio → Zōjō-ji</name><styleUrl>#L7a6f633</styleUrl><LineString><tessellate>1</tessellate><coordinates>139.745632,35.658792,0 139.745645,35.658812,0 139.745851,35.658700,0 139.746006,35.658615,0 139.746089,35.658622,0 139.746097,35.658623,0 139.746105,35.658625,0 139.746113,35.658627,0 139.746122,35.658628,0 139.746131,35.658632,0 139.746138,35.658638,0 139.746145,35.658644,0 139.746151,35.658649,0 139.746157,35.658654,0 139.746163,35.658659,0 139.746169,35.658664,0 139.746174,35.658669,0 139.746180,35.658673,0 139.746186,35.658678,0 139.746191,35.658683,0 139.746195,35.658687,0 139.746208,35.658702,0 139.746248,35.658654,0 139.746312,35.658623,0 139.746392,35.658587,0 139.746868,35.658417,0 139.746889,35.658362,0 139.746917,35.658344,0 139.746963,35.658340,0 139.747071,35.658327,0 139.747139,35.658316,0 139.747122,35.658211,0 139.747132,35.658193,0 139.747136,35.658186,0 139.747142,35.658175,0 139.747140,35.658155,0 139.747139,35.658139,0 139.747136,35.658110,0 139.747290,35.658120,0 139.747674,35.658143,0 139.748596,35.658017,0 139.748814,35.657987,0 139.748812,35.657978,0 139.748811,35.657975,0 139.748782,35.657979,0 139.748771,35.657958,0 139.748745,35.657889,0 139.748671,35.657890,0 139.748604,35.657892,0 139.748544,35.657945,0 139.748537,35.657940,0 139.748521,35.657931,0 139.748497,35.657735,0 139.748853,35.657699,0 139.748831,35.657551,0 139.748618,35.657571,0 139.748605,35.657472,0</coordinates></LineString></Placemark><Placemark><name>d17·11 🚶 Zōjō-ji → Kamiyachō ⇒ Ginza</name><styleUrl>#L7a6f633</styleUrl><LineString><tessellate>1</tessellate><coordinates>139.748605,35.657472,0 139.748618,35.657571,0 139.748831,35.657551,0 139.748853,35.657699,0 139.748497,35.657735,0 139.748521,35.657931,0 139.748537,35.657940,0 139.748544,35.657945,0 139.748604,35.657892,0 139.748671,35.657890,0 139.748745,35.657889,0 139.748771,35.657958,0 139.748782,35.657979,0 139.748811,35.657975,0 139.748812,35.657978,0 139.748814,35.657987,0 139.748596,35.658017,0 139.747674,35.658143,0 139.747290,35.658120,0 139.747136,35.658110,0 139.747139,35.658139,0 139.747140,35.658155,0 139.747142,35.658175,0 139.747136,35.658186,0 139.747132,35.658193,0 139.747122,35.658211,0 139.747139,35.658316,0 139.747071,35.658327,0 139.746963,35.658340,0 139.746917,35.658344,0 139.746889,35.658362,0 139.746868,35.658417,0 139.746879,35.658483,0 139.746891,35.658539,0 139.746706,35.658601,0 139.746411,35.658716,0 139.745906,35.658957,0 139.745796,35.659016,0 139.745341,35.659261,0 139.744380,35.659697,0 139.744346,35.659766,0 139.744315,35.659786,0 139.744276,35.659807,0 139.744101,35.659820,0 139.743904,35.659857,0 139.743252,35.659959,0 139.743200,35.659977,0 139.743187,35.659983,0 139.743170,35.659991,0 139.743141,35.660019,0 139.743136,35.660038,0 139.743136,35.660058,0 139.743141,35.660085,0 139.743153,35.660132,0 139.743161,35.660165,0 139.743192,35.660264,0 139.743294,35.660522,0 139.743354,35.660648,0 139.743463,35.660827,0 139.743478,35.660854,0 139.743504,35.660900,0 139.743686,35.661153,0 139.743701,35.661178,0 139.743766,35.661269,0 139.743999,35.661577,0 139.744085,35.661662,0 139.744209,35.661810,0 139.744275,35.661894,0 139.744346,35.661984,0 139.744352,35.662014,0 139.744284,35.662052,0 139.744187,35.662106,0 139.744116,35.662145,0 139.744311,35.662362,0 139.744342,35.662386,0 139.744381,35.662418,0 139.744572,35.662622,0 139.744829,35.662895,0 139.744845,35.662912,0 139.744901,35.662877,0 139.745008,35.662989,0</coordinates></LineString></Placemark><Placemark><name>d17·12 🚇 13:50 Metro Hibiya Line: Kamiyachō → Ginza</name><styleUrl>#L9caeb76</styleUrl><LineString><tessellate>1</tessellate><coordinates>139.745048,35.662964,0 139.747765,35.667469,0 139.751057,35.673854,0 139.761069,35.674108,0 139.764050,35.671850,0</coordinates></LineString></Placemark><Placemark><name>d17·13 🚶 Ginza → Ginza</name><styleUrl>#L7a6f633</styleUrl><LineString><tessellate>1</tessellate><coordinates>139.764063,35.671862,0 139.764096,35.671839,0 139.764254,35.671722,0 139.764274,35.671739,0 139.764297,35.671757,0 139.764318,35.671775,0 139.764334,35.671788,0 139.764372,35.671759,0 139.764379,35.671754,0 139.764462,35.671824,0 139.764491,35.671799,0 139.764508,35.671811,0 139.764563,35.671771,0 139.764702,35.671669,0 139.764713,35.671661,0 139.764737,35.671644,0 139.764761,35.671626,0 139.764775,35.671616,0 139.764866,35.671549,0 139.765018,35.671437,0 139.765112,35.671457,0 139.765143,35.671430,0 139.765175,35.671405,0 139.765234,35.671361,0 139.765259,35.671342,0 139.765283,35.671323,0 139.765298,35.671236,0 139.765319,35.671211,0 139.765387,35.671158,0 139.765671,35.670939,0 139.765677,35.670936,0 139.765701,35.670921,0 139.765733,35.670894,0 139.765742,35.670889,0 139.765779,35.670858,0 139.766086,35.670624,0 139.766121,35.670656,0 139.766131,35.670666,0 139.766192,35.670724,0 139.766412,35.670932,0 139.766516,35.670930,0 139.766564,35.670957,0 139.766693,35.671086,0</coordinates></LineString></Placemark><Placemark><name>d17·14 🚶 Ginza → Akihabara</name><styleUrl>#L7a6f633</styleUrl><LineString><tessellate>1</tessellate><coordinates>139.766693,35.671086,0 139.766881,35.671274,0 139.766873,35.671291,0 139.766896,35.671314,0 139.766917,35.671338,0 139.766938,35.671363,0 139.766951,35.671391,0 139.766970,35.671391,0 139.766993,35.671414,0 139.767680,35.672258,0 139.767685,35.672277,0 139.767676,35.672313,0 139.767688,35.672322,0 139.767709,35.672346,0 139.767731,35.672371,0 139.767748,35.672388,0 139.767768,35.672386,0 139.767772,35.672390,0 139.767782,35.672399,0 139.767827,35.672458,0 139.767912,35.672553,0 139.768035,35.672698,0 139.768242,35.672969,0 139.768459,35.673258,0 139.768457,35.673284,0 139.768496,35.673296,0 139.768517,35.673323,0 139.768534,35.673345,0 139.768538,35.673366,0 139.768558,35.673369,0 139.768588,35.673393,0 139.769041,35.673885,0 139.769430,35.674308,0 139.769433,35.674334,0 139.769419,35.674350,0 139.769199,35.674493,0 139.769172,35.674512,0 139.769127,35.674544,0 139.768903,35.674691,0 139.768914,35.674697,0 139.768959,35.674727,0 139.768999,35.674753,0 139.769015,35.674765,0 139.769010,35.674787,0 139.769029,35.674815,0 139.769133,35.674944,0 139.769308,35.675249,0 139.769324,35.675275,0 139.769342,35.675311,0 139.769372,35.675366,0 139.769366,35.675389,0 139.769554,35.675672,0 139.769573,35.675703,0 139.769597,35.675743,0 139.769756,35.676004,0 139.769764,35.676012,0 139.769777,35.676024,0 139.769810,35.676037,0 139.769846,35.676034,0 139.769856,35.676048,0 139.769884,35.676090,0 139.769947,35.676184,0 139.769978,35.676229,0 139.769996,35.676257,0 139.769975,35.676274,0 139.769963,35.676308,0 139.769968,35.676330,0 139.770175,35.676674,0 139.770334,35.676944,0 139.770419,35.677079,0 139.770457,35.677141,0 139.770581,35.677338,0 139.770797,35.677668,0 139.770844,35.677714,0 139.770869,35.677752,0 139.770896,35.677794,0 139.770902,35.677849,0 139.771073,35.678112,0 139.771488,35.678771,0 139.771657,35.679031,0 139.771729,35.679064,0 139.771806,35.679059,0 139.771815,35.679074,0 139.771846,35.679123,0 139.771874,35.679169,0 139.771912,35.679232,0 139.771938,35.679274,0 139.771972,35.679330,0 139.771991,35.679360,0 139.771934,35.679415,0 139.771925,35.679469,0 139.772027,35.679640,0 139.772231,35.679973,0 139.772421,35.680274,0 139.772440,35.680306,0 139.772622,35.680593,0 139.772662,35.680655,0 139.772687,35.680693,0 139.772705,35.680722,0 139.772748,35.680791,0 139.772978,35.681158,0 139.773069,35.681303,0 139.773098,35.681349,0 139.773133,35.681407,0 139.773363,35.681781,0 139.773386,35.681818,0 139.773417,35.681867,0 139.773551,35.682078,0 139.773718,35.682339,0 139.773792,35.682365,0 139.773807,35.682390,0 139.773833,35.682433,0 139.773885,35.682519,0 139.773912,35.682563,0 139.773936,35.682603,0 139.773908,35.682656,0 139.773957,35.682736,0 139.774128,35.683021,0 139.774335,35.683360,0 139.774350,35.683377,0 139.774371,35.683389,0 139.774400,35.683390,0 139.774421,35.683420,0 139.774444,35.683455,0 139.774463,35.683484,0 139.774482,35.683513,0 139.774513,35.683559,0 139.774543,35.683603,0 139.774553,35.683619,0 139.774545,35.683630,0 139.774536,35.683642,0 139.774532,35.683672,0 139.774574,35.683842,0 139.774633,35.684086,0 139.774677,35.684255,0 139.774714,35.684360,0 139.774750,35.684415,0 139.774772,35.684429,0 139.774805,35.684455,0 139.774803,35.684479,0 139.774799,35.684552,0 139.774793,35.684637,0 139.774791,35.684668,0 139.774766,35.684687,0 139.774746,35.684710,0 139.774686,35.684848,0 139.774648,35.684939,0 139.774504,35.685291,0 139.774395,35.685562,0 139.774219,35.685977,0 139.774122,35.686204,0 139.774097,35.686262,0 139.774076,35.686312,0 139.774054,35.686364,0 139.774033,35.686412,0 139.773835,35.686880,0 139.773755,35.687068,0 139.773592,35.687434,0 139.773567,35.687489,0 139.773561,35.687510,0 139.773562,35.687523,0 139.773554,35.687540,0 139.773535,35.687585,0 139.773516,35.687631,0 139.773511,35.687643,0 139.773504,35.687658,0 139.773500,35.687669,0 139.773378,35.687971,0 139.773262,35.688255,0 139.773159,35.688510,0 139.773207,35.688582,0 139.773199,35.688604,0 139.773169,35.688684,0 139.773139,35.688764,0 139.773129,35.688791,0 139.773039,35.688822,0 139.772919,35.689108,0 139.772772,35.689461,0 139.772641,35.689759,0 139.772646,35.689779,0 139.772633,35.689795,0 139.772619,35.689823,0 139.772606,35.689859,0 139.772601,35.689877,0 139.772585,35.689895,0 139.772568,35.689929,0 139.772512,35.690083,0 139.772433,35.690273,0 139.772417,35.690310,0 139.772400,35.690351,0 139.772282,35.690635,0 139.772204,35.690827,0 139.772207,35.690858,0 139.772240,35.690885,0 139.772230,35.690908,0 139.772206,35.690959,0 139.772175,35.691028,0 139.772165,35.691052,0 139.772113,35.691073,0 139.772098,35.691094,0 139.771868,35.691665,0 139.771854,35.691706,0 139.771753,35.691938,0 139.771716,35.692016,0 139.771699,35.692061,0 139.771687,35.692093,0 139.771668,35.692139,0 139.771609,35.692291,0 139.771588,35.692338,0 139.771517,35.692489,0 139.771281,35.693056,0 139.771297,35.693092,0 139.771290,35.693111,0 139.771270,35.693168,0 139.771245,35.693234,0 139.771237,35.693257,0 139.771211,35.693286,0 139.771202,35.693297,0 139.771152,35.693414,0 139.771099,35.693538,0 139.770987,35.693805,0 139.770822,35.694218,0 139.770821,35.694264,0 139.770814,35.694279,0 139.770801,35.694308,0 139.770782,35.694351,0 139.770775,35.694366,0 139.770759,35.694404,0 139.770700,35.694540,0 139.770549,35.694890,0 139.770438,35.695165,0 139.770427,35.695188,0 139.770420,35.695245,0 139.770436,35.695293,0 139.770496,35.695466,0 139.770532,35.695568,0 139.770539,35.695588,0 139.770558,35.695609,0 139.770580,35.695629,0 139.770616,35.695639,0 139.770693,35.695638,0 139.770698,35.695671,0 139.770703,35.695711,0 139.770719,35.695828,0 139.770725,35.695874,0 139.770729,35.695906,0 139.770710,35.695910,0 139.770697,35.695918,0 139.770692,35.695929,0 139.770688,35.695942,0 139.770689,35.695955,0 139.770700,35.695983,0 139.770844,35.696367,0 139.770848,35.696374,0 139.770858,35.696380,0 139.770867,35.696381,0 139.770873,35.696398,0 139.770888,35.696438,0 139.770902,35.696474,0 139.770949,35.696601,0 139.770950,35.696605,0 139.770984,35.696693,0 139.770994,35.696709,0 139.771008,35.696717,0 139.771035,35.696779,0 139.771076,35.696876,0 139.771064,35.696912,0 139.771080,35.696968,0 139.771165,35.697190,0 139.771248,35.697395,0 139.771270,35.697434,0 139.771339,35.697471,0 139.771407,35.697485,0 139.771412,35.697533,0 139.771421,35.697606,0 139.771428,35.697660,0 139.771373,35.697711,0 139.771381,35.697812,0 139.771408,35.698135,0 139.771410,35.698190,0 139.771412,35.698241,0 139.771412,35.698248,0 139.771420,35.698500,0 139.771423,35.698556,0 139.771428,35.698599,0 139.771454,35.698629,0 139.771454,35.698636,0 139.771455,35.698663,0 139.771459,35.698713,0 139.771459,35.698726,0 139.771496,35.699122,0 139.771505,35.699228,0 139.771508,35.699255,0 139.771511,35.699294,0 139.771530,35.699527,0 139.771535,35.699544,0 139.771558,35.699559,0 139.771561,35.699580,0 139.771566,35.699633,0 139.771466,35.699650,0 139.771373,35.699663,0</coordinates></LineString></Placemark></Folder>
<Folder><name>dom 18 · lugares</name></Folder>
<Folder><name>dom 18 · rutas</name><Placemark><name>d18·1 🚶 Hotel → Busta Shinjuku ⇒ hotel</name><styleUrl>#L7a6f633</styleUrl><LineString><tessellate>1</tessellate><coordinates>139.693676,35.694462,0 139.693581,35.694278,0 139.694093,35.694118,0 139.694149,35.694103,0 139.694444,35.694022,0 139.694871,35.693898,0 139.694990,35.693863,0 139.695283,35.693784,0 139.695256,35.693718,0 139.695222,35.693643,0 139.695207,35.693608,0 139.695203,35.693584,0 139.695291,35.693558,0 139.695829,35.693402,0 139.696024,35.693345,0 139.696645,35.693165,0 139.696742,35.693136,0 139.696805,35.693112,0 139.696810,35.693109,0 139.696850,35.693074,0 139.696854,35.693071,0 139.696857,35.693013,0 139.696858,35.693007,0 139.696868,35.693004,0 139.697119,35.692981,0 139.697162,35.692900,0 139.697167,35.692896,0 139.697183,35.692881,0 139.697147,35.692869,0 139.697150,35.692864,0 139.697158,35.692850,0 139.697239,35.692870,0 139.697434,35.692718,0 139.697851,35.692378,0 139.697992,35.692258,0 139.698007,35.692215,0 139.698013,35.692182,0 139.698016,35.692171,0 139.698021,35.692144,0 139.698037,35.692120,0 139.698042,35.692053,0 139.698045,35.692011,0 139.698046,35.691997,0 139.698049,35.691968,0 139.698051,35.691944,0 139.698053,35.691924,0 139.698072,35.691662,0 139.698074,35.691642,0 139.698083,35.691518,0 139.698753,35.691560,0 139.698788,35.691555,0 139.698813,35.691547,0 139.698837,35.691538,0 139.698862,35.691522,0 139.698881,35.691505,0 139.698920,35.691506,0 139.698962,35.691509,0 139.699091,35.691517,0 139.699189,35.691522,0 139.699184,35.691064,0 139.699258,35.691052,0 139.699551,35.691010,0 139.699569,35.690861,0 139.699594,35.690681,0 139.699621,35.690591,0 139.699642,35.690449,0 139.699679,35.690198,0 139.699692,35.690115,0 139.699739,35.689780,0 139.699760,35.689662,0 139.699774,35.689665,0 139.699778,35.689652,0 139.699789,35.689608,0 139.699800,35.689565,0 139.699736,35.689554,0 139.699813,35.689275,0 139.700023,35.689313,0 139.700293,35.689360,0 139.700316,35.689269,0 139.700331,35.689215,0 139.700347,35.689154,0 139.700395,35.688955,0 139.700177,35.688914,0 139.700073,35.688883,0 139.700085,35.688860,0 139.700126,35.688773,0 139.700156,35.688749,0 139.700190,35.688751,0 139.700237,35.688760,0 139.700238,35.688754,0 139.700246,35.688721,0 139.700274,35.688604,0 139.700356,35.688268,0 139.700378,35.688172,0 139.700386,35.688162,0 139.700400,35.688145,0 139.700417,35.688127,0 139.700427,35.688117,0 139.700438,35.688106,0 139.700452,35.688093,0 139.700469,35.688082,0 139.700512,35.688088,0 139.700491,35.688111,0 139.700433,35.688173,0 139.700431,35.688181,0 139.700429,35.688189,0 139.700415,35.688248,0 139.700384,35.688376,0</coordinates></LineString></Placemark><Placemark><name>d18·2 🚌 08:30 Airport Limousine Bus: Busta Shinjuku → Haneda T3 ⇒ hotel</name><styleUrl>#Lf47b205</styleUrl><LineString><tessellate>1</tessellate><coordinates>139.707975,35.672626,0 139.707949,35.672319,0 139.707678,35.672532,0</coordinates></LineString></Placemark></Folder>
</Document></kml>